{
"type": "FeatureCollection",
"name": "minami_kanto_oilfield",
"crs": { "type": "name", "properties": { "name": "urn:ogc:def:crs:OGC:1.3:CRS84" } },
"features": [
{"type":"Feature","properties":{"Name":"Minami Kanto Oil Field","Description":"description: <br>fid: 1"},"geometry":{"type":"Polygon","coordinates":[[[139.6554147,35.4137635,0.0],[139.680133899999987,35.395854,0.0],[139.69139340000001,35.4006179,0.0],[139.6812319,35.4220273,0.0],[139.6875489,35.4445559,0.0],[139.7013631,35.4545778,0.0],[139.7322503,35.4764799,0.0],[139.7617792,35.4916594,0.0],[139.781326299999989,35.5007259,0.0],[139.7974456,35.5220855,0.0],[139.8166502,35.5430048,0.0],[139.786523,35.5731,0.0],[139.770705600000014,35.6369215,0.0],[139.7979324,35.5900732,0.0],[139.8251416,35.5856502,0.0],[139.8195349,35.6057505,0.0],[139.8352994,35.6154817,0.0],[139.860672,35.644236,0.0],[139.895386300000013,35.6187878,0.0],[139.941745200000014,35.6397718,0.0],[139.921475,35.671949,0.0],[139.930373,35.6852,0.0],[139.960033,35.686405,0.0],[139.98376,35.673154,0.0],[140.0283767,35.6436362,0.0],[140.0674663,35.6107516,0.0],[140.0875122,35.595523,0.0],[140.0829535,35.5848045,0.0],[140.08642,35.5570146,0.0],[140.0555493,35.5397649,0.0],[140.0222651,35.499754,0.0],[140.001556,35.482582,0.0],[139.96893,35.480167,0.0],[139.952618,35.457219,0.0],[139.940042799999986,35.4467934,0.0],[139.945203,35.42218,0.0],[139.985243,35.420972,0.0],[139.99859,35.384708,0.0],[140.034182,35.38229,0.0],[140.034182,35.358104,0.0],[140.078672,35.356895,0.0],[140.120195,35.292768,0.0],[140.163202,35.273398,0.0],[140.189896,35.247969,0.0],[140.287773,35.234646,0.0],[140.31595,35.220109,0.0],[140.342644,35.184968,0.0],[140.371282400000013,35.1787613,0.0],[140.3875639,35.1949983,0.0],[140.4050387,35.2386844,0.0],[140.4105319,35.3058561,0.0],[140.4102849,35.3189428,0.0],[140.4004232,35.3309088,0.0],[140.398997,35.352057,0.0],[140.398229,35.4267225,0.0],[140.411604399999987,35.4568151,0.0],[140.425252199999989,35.4913027,0.0],[140.4453843,35.5238737,0.0],[140.489626500000014,35.5721148,0.0],[140.5510054,35.6200593,0.0],[140.6284789,35.6765438,0.0],[140.590303,35.739386,0.0],[140.591786,35.770676,0.0],[140.557677,35.777895,0.0],[140.490943,35.822399,0.0],[140.449419,35.823601,0.0],[140.44497,35.850051,0.0],[140.396031,35.859666,0.0],[140.396031,35.888507,0.0],[140.421242,35.904124,0.0],[140.410861,35.929346,0.0],[140.332263,35.932948,0.0],[140.277392,35.942554,0.0],[140.2418,35.964162,0.0],[140.204726,35.962962,0.0],[140.155787,35.966563,0.0],[140.130576,35.934149,0.0],[140.09795,35.967763,0.0],[140.049012,35.960561,0.0],[140.004522,35.95816,0.0],[139.98376,35.929346,0.0],[139.934822,35.942554,0.0],[139.909611,35.962962,0.0],[139.875502,35.984565,0.0],[139.802836,35.980965,0.0],[139.753897,35.973764,0.0],[139.722754,35.95576,0.0],[139.6840295,35.9224529,0.0],[139.6677175,35.8849486,0.0],[139.647122,35.850051,0.0],[139.678265,35.800752,0.0],[139.694578,35.76827,0.0],[139.712373,35.735775,0.0],[139.706441,35.69604,0.0],[139.687163,35.66472,0.0],[139.654537,35.626156,0.0],[139.6261935,35.6159341,0.0],[139.6140533,35.5888255,0.0],[139.5967,35.567069,0.0],[139.635258,35.530871,0.0],[139.636741,35.487412,0.0],[139.614496,35.452387,0.0],[139.6554147,35.4137635,0.0]]]}},
{"type":"Feature","properties":{"Name":"Main Oil Field","Description":"description: <br>fid: "},"geometry":{"type":"Polygon","coordinates":[[[140.6284789,35.6765438,0.0],[140.560969,35.687739,0.0],[140.473765,35.6944311,0.0],[140.3975474,35.6369722,0.0],[140.3405558,35.5817058,0.0],[140.2911173,35.5392531,0.0],[140.2615915,35.415118,0.0],[140.2835642,35.3389766,0.0],[140.2121531,35.2874285,0.0],[140.4016672,35.2313606,0.0],[140.4050387,35.2386844,0.0],[140.4105319,35.3058561,0.0],[140.4152149,35.3090375,0.0],[140.4102849,35.3189428,0.0],[140.4004232,35.3309088,0.0],[140.398229,35.4267225,0.0],[140.425252199999989,35.4913027,0.0],[140.4531657,35.5308717,0.0],[140.489626500000014,35.5721148,0.0],[140.5348764,35.6079481,0.0],[140.5510054,35.6200593,0.0],[140.6284789,35.6765438,0.0]]]}}
]
}
