{
"type": "FeatureCollection",
"name": "minami_kanto_oilfield",
"features": [
{ "type": "Feature", "properties": { "Name": "Minami Kanto Oil Field", "fid": 1, "Zone": null }, "geometry": { "type": "Polygon", "coordinates": [ [ [ 139.6554147, 35.4137635, 0.0 ], [ 139.6801339, 35.395854, 0.0 ], [ 139.6913934, 35.4006179, 0.0 ], [ 139.6812319, 35.4220273, 0.0 ], [ 139.6875489, 35.4445559, 0.0 ], [ 139.7013631, 35.4545778, 0.0 ], [ 139.7322503, 35.4764799, 0.0 ], [ 139.7617792, 35.4916594, 0.0 ], [ 139.7813263, 35.5007259, 0.0 ], [ 139.7974456, 35.5220855, 0.0 ], [ 139.8166502, 35.5430048, 0.0 ], [ 139.786523, 35.5731, 0.0 ], [ 139.7707056, 35.6369215, 0.0 ], [ 139.7979324, 35.5900732, 0.0 ], [ 139.8251416, 35.5856502, 0.0 ], [ 139.8195349, 35.6057505, 0.0 ], [ 139.8352994, 35.6154817, 0.0 ], [ 139.860672, 35.644236, 0.0 ], [ 139.8953863, 35.6187878, 0.0 ], [ 139.9417452, 35.6397718, 0.0 ], [ 139.921475, 35.671949, 0.0 ], [ 139.930373, 35.6852, 0.0 ], [ 139.960033, 35.686405, 0.0 ], [ 139.98376, 35.673154, 0.0 ], [ 140.0283767, 35.6436362, 0.0 ], [ 140.0674663, 35.6107516, 0.0 ], [ 140.0875122, 35.595523, 0.0 ], [ 140.0829535, 35.5848045, 0.0 ], [ 140.08642, 35.5570146, 0.0 ], [ 140.0555493, 35.5397649, 0.0 ], [ 140.0222651, 35.499754, 0.0 ], [ 140.001556, 35.482582, 0.0 ], [ 139.96893, 35.480167, 0.0 ], [ 139.952618, 35.457219, 0.0 ], [ 139.9400428, 35.4467934, 0.0 ], [ 139.945203, 35.42218, 0.0 ], [ 139.985243, 35.420972, 0.0 ], [ 139.99859, 35.384708, 0.0 ], [ 140.034182, 35.38229, 0.0 ], [ 140.034182, 35.358104, 0.0 ], [ 140.078672, 35.356895, 0.0 ], [ 140.120195, 35.292768, 0.0 ], [ 140.163202, 35.273398, 0.0 ], [ 140.189896, 35.247969, 0.0 ], [ 140.287773, 35.234646, 0.0 ], [ 140.31595, 35.220109, 0.0 ], [ 140.342644, 35.184968, 0.0 ], [ 140.3712824, 35.1787613, 0.0 ], [ 140.3875639, 35.1949983, 0.0 ], [ 140.4050387, 35.2386844, 0.0 ], [ 140.4105319, 35.3058561, 0.0 ], [ 140.4102849, 35.3189428, 0.0 ], [ 140.4004232, 35.3309088, 0.0 ], [ 140.398997, 35.352057, 0.0 ], [ 140.398229, 35.4267225, 0.0 ], [ 140.4116044, 35.4568151, 0.0 ], [ 140.4252522, 35.4913027, 0.0 ], [ 140.4453843, 35.5238737, 0.0 ], [ 140.4896265, 35.5721148, 0.0 ], [ 140.5510054, 35.6200593, 0.0 ], [ 140.6284789, 35.6765438, 0.0 ], [ 140.590303, 35.739386, 0.0 ], [ 140.591786, 35.770676, 0.0 ], [ 140.557677, 35.777895, 0.0 ], [ 140.490943, 35.822399, 0.0 ], [ 140.449419, 35.823601, 0.0 ], [ 140.44497, 35.850051, 0.0 ], [ 140.396031, 35.859666, 0.0 ], [ 140.396031, 35.888507, 0.0 ], [ 140.421242, 35.904124, 0.0 ], [ 140.410861, 35.929346, 0.0 ], [ 140.332263, 35.932948, 0.0 ], [ 140.277392, 35.942554, 0.0 ], [ 140.2418, 35.964162, 0.0 ], [ 140.204726, 35.962962, 0.0 ], [ 140.155787, 35.966563, 0.0 ], [ 140.130576, 35.934149, 0.0 ], [ 140.09795, 35.967763, 0.0 ], [ 140.049012, 35.960561, 0.0 ], [ 140.004522, 35.95816, 0.0 ], [ 139.98376, 35.929346, 0.0 ], [ 139.9430617, 35.9475571, 0.0 ], [ 139.909611, 35.962962, 0.0 ], [ 139.875502, 35.984565, 0.0 ], [ 139.7878802, 35.9885585, 0.0 ], [ 139.7687034, 35.9824342, 0.0 ], [ 139.7359471, 35.9738925, 0.0 ], [ 139.7165742, 35.9579832, 0.0 ], [ 139.6867968, 35.9325264, 0.0 ], [ 139.6840295, 35.9224529, 0.0 ], [ 139.6677175, 35.8849486, 0.0 ], [ 139.647122, 35.850051, 0.0 ], [ 139.678265, 35.800752, 0.0 ], [ 139.694578, 35.76827, 0.0 ], [ 139.712373, 35.735775, 0.0 ], [ 139.706441, 35.69604, 0.0 ], [ 139.687163, 35.66472, 0.0 ], [ 139.654537, 35.626156, 0.0 ], [ 139.6261935, 35.6159341, 0.0 ], [ 139.6140533, 35.5888255, 0.0 ], [ 139.5967, 35.567069, 0.0 ], [ 139.635258, 35.530871, 0.0 ], [ 139.636741, 35.487412, 0.0 ], [ 139.614496, 35.452387, 0.0 ], [ 139.6554147, 35.4137635, 0.0 ] ] ] } },
{ "type": "Feature", "properties": { "Name": "Main Oil Field", "fid": null, "Zone": null }, "geometry": { "type": "Polygon", "coordinates": [ [ [ 140.6284789, 35.6765438, 0.0 ], [ 140.560969, 35.687739, 0.0 ], [ 140.473765, 35.6944311, 0.0 ], [ 140.3975474, 35.6369722, 0.0 ], [ 140.3405558, 35.5817058, 0.0 ], [ 140.2911173, 35.5392531, 0.0 ], [ 140.2615915, 35.415118, 0.0 ], [ 140.2835642, 35.3389766, 0.0 ], [ 140.2121531, 35.2874285, 0.0 ], [ 140.4016672, 35.2313606, 0.0 ], [ 140.4050387, 35.2386844, 0.0 ], [ 140.4105319, 35.3058561, 0.0 ], [ 140.4152149, 35.3090375, 0.0 ], [ 140.4102849, 35.3189428, 0.0 ], [ 140.4004232, 35.3309088, 0.0 ], [ 140.398229, 35.4267225, 0.0 ], [ 140.4252522, 35.4913027, 0.0 ], [ 140.4531657, 35.5308717, 0.0 ], [ 140.4896265, 35.5721148, 0.0 ], [ 140.5348764, 35.6079481, 0.0 ], [ 140.5510054, 35.6200593, 0.0 ], [ 140.6284789, 35.6765438, 0.0 ] ] ] } },
{ "type": "Feature", "properties": { "Name": "Prospective areas", "fid": 1, "Zone": "Prospective Area (onshore)" }, "geometry": { "type": "Polygon", "coordinates": [ [ [ 140.3705924, 35.1782016, 0.0 ], [ 140.3419542, 35.1844083, 0.0 ], [ 140.3152604, 35.2195493, 0.0 ], [ 140.2870836, 35.2340863, 0.0 ], [ 140.2127835, 35.2419271, 0.0 ], [ 140.1892073, 35.2474093, 0.0 ], [ 140.1625135, 35.2728383, 0.0 ], [ 140.1195068, 35.2922083, 0.0 ], [ 140.1155971, 35.2979605, 0.0 ], [ 140.077984, 35.3563353, 0.0 ], [ 140.0334944, 35.3575443, 0.0 ], [ 140.0334944, 35.3817303, 0.0 ], [ 139.9979026, 35.3841483, 0.0 ], [ 139.9845557, 35.4204123, 0.0 ], [ 139.944516, 35.4216203, 0.0 ], [ 139.9387924, 35.4415266, 0.0 ], [ 139.9069242, 35.4375793, 0.0 ], [ 139.8984581, 35.4200664, 0.0 ], [ 139.9026331, 35.3925112, 0.0 ], [ 139.9163941, 35.3876904, 0.0 ], [ 139.9170942, 35.3808022, 0.0 ], [ 139.8889583, 35.3694337, 0.0 ], [ 139.8948911, 35.357497, 0.0 ], [ 139.8692385, 35.3668379, 0.0 ], [ 139.8453962, 35.3731951, 0.0 ], [ 139.8389165, 35.3545518, 0.0 ], [ 139.8238478, 35.3432123, 0.0 ], [ 139.8290386, 35.3307502, 0.0 ], [ 139.8156981, 35.3178275, 0.0 ], [ 139.791375, 35.3149863, 0.0 ], [ 139.8517165, 35.2876104, 0.0 ], [ 139.8484723, 35.2648952, 0.0 ], [ 139.859526, 35.2568126, 0.0 ], [ 139.8698902, 35.2358358, 0.0 ], [ 139.864469, 35.2162524, 0.0 ], [ 139.8473423, 35.2115099, 0.0 ], [ 139.8206098, 35.1899323, 0.0 ], [ 139.8206098, 35.1523783, 0.0 ], [ 139.8364984, 35.137017, 0.0 ], [ 139.8345317, 35.1227783, 0.0 ], [ 139.8242511, 35.1130121, 0.0 ], [ 139.8232312, 35.1013886, 0.0 ], [ 139.8373157, 35.0908883, 0.0 ], [ 139.8378692, 35.0800738, 0.0 ], [ 139.8178258, 35.0703823, 0.0 ], [ 139.8267427, 35.0476193, 0.0 ], [ 139.8136873, 35.0389112, 0.0 ], [ 139.8393382, 35.0258707, 0.0 ], [ 139.8496912, 35.0215486, 0.0 ], [ 139.855923, 35.0127273, 0.0 ], [ 139.8573469, 34.996312, 0.0 ], [ 139.849159, 34.9855214, 0.0 ], [ 139.8283145, 34.9887421, 0.0 ], [ 139.8167385, 34.9777881, 0.0 ], [ 139.7976109, 34.9758332, 0.0 ], [ 139.788591, 34.9711933, 0.0 ], [ 139.7807554, 34.9765395, 0.0 ], [ 139.755066, 34.9762571, 0.0 ], [ 139.7537302, 34.961426, 0.0 ], [ 139.7857352, 34.9500114, 0.0 ], [ 139.8149847, 34.9391522, 0.0 ], [ 139.825, 34.9255366, 0.0 ], [ 139.8254003, 34.9107936, 0.0 ], [ 139.8399303, 34.9015753, 0.0 ], [ 139.905551, 34.9020454, 0.0 ], [ 139.9403921, 34.9157768, 0.0 ], [ 139.9584339, 34.9392453, 0.0 ], [ 139.9627388, 34.9505017, 0.0 ], [ 139.9601777, 34.9673861, 0.0 ], [ 139.9687906, 34.9831471, 0.0 ], [ 139.9894015, 35.0235602, 0.0 ], [ 140.0190964, 35.0384723, 0.0 ], [ 140.0295451, 35.0497315, 0.0 ], [ 140.0448021, 35.0542444, 0.0 ], [ 140.0566271, 35.0570701, 0.0 ], [ 140.0684525, 35.0565222, 0.0 ], [ 140.081076, 35.0702734, 0.0 ], [ 140.1014403, 35.0771286, 0.0 ], [ 140.0984598, 35.0817367, 0.0 ], [ 140.1062333, 35.0909531, 0.0 ], [ 140.1066756, 35.1037682, 0.0 ], [ 140.1199248, 35.1136683, 0.0 ], [ 140.1349706, 35.1200054, 0.0 ], [ 140.1458965, 35.1128612, 0.0 ], [ 140.1650039, 35.1210367, 0.0 ], [ 140.1688852, 35.1160437, 0.0 ], [ 140.1821417, 35.1172879, 0.0 ], [ 140.1880595, 35.1265144, 0.0 ], [ 140.1943959, 35.1123904, 0.0 ], [ 140.2001249, 35.1076622, 0.0 ], [ 140.211347, 35.1130442, 0.0 ], [ 140.2367714, 35.1165384, 0.0 ], [ 140.2575972, 35.1369412, 0.0 ], [ 140.2915281, 35.1363849, 0.0 ], [ 140.2966256, 35.1498614, 0.0 ], [ 140.3095669, 35.1453685, 0.0 ], [ 140.3162184, 35.1318873, 0.0 ], [ 140.326343, 35.1410941, 0.0 ], [ 140.3323509, 35.1637757, 0.0 ], [ 140.3416928, 35.1722876, 0.0 ], [ 140.3705924, 35.1782016, 0.0 ] ] ] } },
{ "type": "Feature", "properties": { "Name": "Prospective areas", "fid": 2, "Zone": "Prospective Area (onshore)" }, "geometry": { "type": "MultiPolygon", "coordinates": [ [ [ [ 140.4072704, 35.9279041, 0.0 ], [ 140.4061531, 35.9298051, 0.0 ], [ 140.4048936, 35.9299305, 0.0 ], [ 140.4072704, 35.9279041, 0.0 ] ] ], [ [ [ 140.421242, 35.904124, 0.0 ], [ 140.3918675, 35.8845899, 0.0 ], [ 140.396031, 35.859666, 0.0 ], [ 140.44497, 35.850051, 0.0 ], [ 140.449419, 35.823601, 0.0 ], [ 140.4694782, 35.8206697, 0.0 ], [ 140.485454, 35.7793342, 0.0 ], [ 140.457609, 35.8583612, 0.0 ], [ 140.4464702, 35.8944612, 0.0 ], [ 140.4072704, 35.9279041, 0.0 ], [ 140.421242, 35.904124, 0.0 ] ] ], [ [ [ 140.4048936, 35.9299305, 0.0 ], [ 140.3406572, 35.9846404, 0.0 ], [ 140.1847231, 36.0026646, 0.0 ], [ 140.0510637, 36.0499568, 0.0 ], [ 139.9925882, 36.0927198, 0.0 ], [ 139.9452515, 36.1287138, 0.0 ], [ 139.9341127, 36.1871678, 0.0 ], [ 139.8951298, 36.2770119, 0.0 ], [ 139.8951299, 36.3331119, 0.0 ], [ 139.9257593, 36.3936548, 0.0 ], [ 139.9925887, 36.4519108, 0.0 ], [ 140.0622033, 36.4922157, 0.0 ], [ 140.106756, 36.6063007, 0.0 ], [ 139.8282998, 36.6107719, 0.0 ], [ 139.8171618, 36.5727639, 0.0 ], [ 139.8617153, 36.4115839, 0.0 ], [ 139.8310847, 36.3106769, 0.0 ], [ 139.7475481, 36.25456, 0.0 ], [ 139.6974261, 36.2276099, 0.0 ], [ 139.4969374, 36.238841, 0.0 ], [ 139.3298642, 36.2612969, 0.0 ], [ 139.0987459, 36.3331118, 0.0 ], [ 139.0821335, 36.2130445, 0.0 ], [ 139.1935253, 36.1901564, 0.0 ], [ 139.313157, 36.1614874, 0.0 ], [ 139.4078842, 36.1523684, 0.0 ], [ 139.5025834, 36.0860925, 0.0 ], [ 139.569336, 35.989148, 0.0 ], [ 139.555413, 35.917017, 0.0 ], [ 139.4997226, 35.892206, 0.0 ], [ 139.4329419, 35.9069434, 0.0 ], [ 139.4022631, 35.887695, 0.0 ], [ 139.4134009, 35.847077, 0.0 ], [ 139.4663081, 35.711535, 0.0 ], [ 139.4245399, 35.562172, 0.0 ], [ 139.3911253, 35.473781, 0.0 ], [ 139.3020195, 35.4238759, 0.0 ], [ 139.272782, 35.410913, 0.0 ], [ 139.211527, 35.390486, 0.0 ], [ 139.192036, 35.360973, 0.0 ], [ 139.1863447, 35.3370247, 0.0 ], [ 139.1773254, 35.3097816, 0.0 ], [ 139.214311, 35.279187, 0.0 ], [ 139.2784306, 35.2996166, 0.0 ], [ 139.3110751, 35.3037493, 0.0 ], [ 139.3365486, 35.3131238, 0.0 ], [ 139.3723958, 35.3139204, 0.0 ], [ 139.4115984, 35.3162619, 0.0 ], [ 139.4459921, 35.3208348, 0.0 ], [ 139.4708303, 35.3154056, 0.0 ], [ 139.4820489, 35.3079042, 0.0 ], [ 139.5511672, 35.305189, 0.0 ], [ 139.6753638, 35.298968, 0.0 ], [ 139.6473039, 35.335333, 0.0 ], [ 139.6549867, 35.3498401, 0.0 ], [ 139.651684, 35.3677075, 0.0 ], [ 139.6450772, 35.387763, 0.0 ], [ 139.622243, 35.387563, 0.0 ], [ 139.6424974, 35.4233474, 0.0 ], [ 139.6284162, 35.4412768, 0.0 ], [ 139.6131293, 35.458543, 0.0 ], [ 139.635376, 35.493568, 0.0 ], [ 139.628845, 35.5146192, 0.0 ], [ 139.633893, 35.537027, 0.0 ], [ 139.6091237, 35.5506584, 0.0 ], [ 139.5967, 35.567069, 0.0 ], [ 139.6140533, 35.5888255, 0.0 ], [ 139.6261935, 35.6159341, 0.0 ], [ 139.654537, 35.626156, 0.0 ], [ 139.6834169, 35.6606648, 0.0 ], [ 139.7013195, 35.6945916, 0.0 ], [ 139.7110139, 35.7419309, 0.0 ], [ 139.688996, 35.7770453, 0.0 ], [ 139.6457579, 35.856207, 0.0 ], [ 139.6683246, 35.8912968, 0.0 ], [ 139.6826684, 35.9286088, 0.0 ], [ 139.7318162, 35.9699749, 0.0 ], [ 139.7878802, 35.9885585, 0.0 ], [ 139.8331277, 35.9862551, 0.0 ], [ 139.875502, 35.984565, 0.0 ], [ 139.9202688, 35.9589558, 0.0 ], [ 139.936859, 35.9502189, 0.0 ], [ 139.9637341, 35.9381041, 0.0 ], [ 139.98376, 35.929346, 0.0 ], [ 140.004522, 35.95816, 0.0 ], [ 140.049012, 35.960561, 0.0 ], [ 140.09795, 35.967763, 0.0 ], [ 140.130576, 35.934149, 0.0 ], [ 140.155787, 35.966563, 0.0 ], [ 140.204726, 35.962962, 0.0 ], [ 140.2418, 35.964162, 0.0 ], [ 140.277392, 35.942554, 0.0 ], [ 140.4048936, 35.9299305, 0.0 ] ] ] ] } },
{ "type": "Feature", "properties": { "Name": "Area covered by thin Cenozoic sediments (non-prospective)", "fid": 3, "Zone": "Area covered by thin Cenozoic sediments (mainly non-prospective for petroleum)" }, "geometry": { "type": "Polygon", "coordinates": [ [ [ 140.5307357, 35.7898903, 0.0 ], [ 140.557677, 35.777895, 0.0 ], [ 140.591786, 35.770676, 0.0 ], [ 140.590303, 35.739386, 0.0 ], [ 140.6284789, 35.6765438, 0.0 ], [ 140.595342, 35.651097, 0.0 ], [ 140.692794, 35.700857, 0.0 ], [ 140.754049, 35.687289, 0.0 ], [ 140.832011, 35.709901, 0.0 ], [ 140.859854, 35.696334, 0.0 ], [ 140.879344, 35.743806, 0.0 ], [ 140.801383, 35.800283, 0.0 ], [ 140.717853, 35.890562, 0.0 ], [ 140.648245, 36.02804, 0.0 ], [ 140.564714, 36.176517, 0.0 ], [ 140.56193, 36.297789, 0.0 ], [ 140.600911, 36.342657, 0.0 ], [ 140.631538, 36.396464, 0.0 ], [ 140.609264, 36.400946, 0.0 ], [ 140.600911, 36.468149, 0.0 ], [ 140.659382, 36.59791, 0.0 ], [ 140.634323, 36.593439, 0.0 ], [ 140.584205, 36.519632, 0.0 ], [ 140.545224, 36.517395, 0.0 ], [ 140.503459, 36.588968, 0.0 ], [ 140.305771, 36.59791, 0.0 ], [ 140.289065, 36.528582, 0.0 ], [ 140.336399, 36.46591, 0.0 ], [ 140.358673, 36.405428, 0.0 ], [ 140.289065, 36.358355, 0.0 ], [ 140.261222, 36.295545, 0.0 ], [ 140.269575, 36.241668, 0.0 ], [ 140.264006, 36.207976, 0.0 ], [ 140.197182, 36.127056, 0.0 ], [ 140.116436, 36.111311, 0.0 ], [ 140.049612, 36.160783, 0.0 ], [ 140.0315808, 36.2169569, 0.0 ], [ 140.021769, 36.259631, 0.0 ], [ 140.0162, 36.40991, 0.0 ], [ 140.088593, 36.468149, 0.0 ], [ 140.127574, 36.510681, 0.0 ], [ 140.127574, 36.591204, 0.0 ], [ 140.149848, 36.606851, 0.0 ], [ 140.110867, 36.604616, 0.0 ], [ 140.0663511, 36.4961331, 0.0 ], [ 139.985572, 36.443515, 0.0 ], [ 139.9299001, 36.3975723, 0.0 ], [ 139.915964, 36.358355, 0.0 ], [ 139.8992691, 36.3370294, 0.0 ], [ 139.896474, 36.288812, 0.0 ], [ 139.935454, 36.178764, 0.0 ], [ 139.949376, 36.118059, 0.0 ], [ 140.066318, 36.037046, 0.0 ], [ 140.191613, 35.998761, 0.0 ], [ 140.347536, 35.978485, 0.0 ], [ 140.4367483, 35.9129019, 0.0 ], [ 140.396031, 35.888507, 0.0 ], [ 140.396031, 35.859666, 0.0 ], [ 140.44497, 35.850051, 0.0 ], [ 140.449419, 35.823601, 0.0 ], [ 140.490943, 35.822399, 0.0 ], [ 140.5307357, 35.7898903, 0.0 ] ] ] } },
{ "type": "Feature", "properties": { "Name": "Area covered by thin Cenozoic sediments (non-prospective)", "fid": 4, "Zone": "Area covered by thin Cenozoic sediments (mainly non-prospective for petroleum)" }, "geometry": { "type": "MultiPolygon", "coordinates": [ [ [ [ 139.8101611, 36.6046165, 0.0 ], [ 139.824081, 36.604616, 0.0 ], [ 139.799022, 36.606851, 0.0 ], [ 139.8101611, 36.6046165, 0.0 ] ] ], [ [ [ 139.8101611, 36.6046165, 0.0 ], [ 139.801806, 36.604616, 0.0 ], [ 139.748904, 36.562136, 0.0 ], [ 139.707139, 36.472628, 0.0 ], [ 139.676511, 36.405428, 0.0 ], [ 139.665374, 36.396464, 0.0 ], [ 139.523372, 36.333685, 0.0 ], [ 139.431489, 36.347142, 0.0 ], [ 139.345175, 36.374049, 0.0 ], [ 139.314547, 36.398705, 0.0 ], [ 139.2671922, 36.3920371, 0.0 ], [ 139.2033621, 36.3864545, 0.0 ], [ 139.105722, 36.378533, 0.0 ], [ 139.094585, 36.378533, 0.0 ], [ 139.1028451, 36.3370293, 0.0 ], [ 139.2184671, 36.2994786, 0.0 ], [ 139.333975, 36.2652145, 0.0 ], [ 139.4148135, 36.2539279, 0.0 ], [ 139.5010566, 36.2427586, 0.0 ], [ 139.5999319, 36.2366088, 0.0 ], [ 139.7015554, 36.2315275, 0.0 ], [ 139.829649, 36.302277, 0.0 ], [ 139.86863, 36.403188, 0.0 ], [ 139.825341, 36.563299, 0.0 ], [ 139.832434, 36.600145, 0.0 ], [ 139.8101611, 36.6046165, 0.0 ] ] ] ] } },
{ "type": "Feature", "properties": { "Name": "Area covered by thin Cenozoic sediments (non-prospective)", "fid": 5, "Zone": "Area covered by thin Cenozoic sediments (mainly non-prospective for petroleum)" }, "geometry": { "type": "Polygon", "coordinates": [ [ [ 139.086232, 36.216962, 0.0 ], [ 139.077879, 36.174269, 0.0 ], [ 139.144703, 36.1383, 0.0 ], [ 139.201649, 36.1112509, 0.0 ], [ 139.30341, 36.041549, 0.0 ], [ 139.314547, 35.958204, 0.0 ], [ 139.3229, 35.90184, 0.0 ], [ 139.25886, 35.784473, 0.0 ], [ 139.236586, 35.723464, 0.0 ], [ 139.339606, 35.524297, 0.0 ], [ 139.3229, 35.48123, 0.0 ], [ 139.281135, 35.474427, 0.0 ], [ 139.272782, 35.415451, 0.0 ], [ 139.30341, 35.419989, 0.0 ], [ 139.392509, 35.47216, 0.0 ], [ 139.47047, 35.703118, 0.0 ], [ 139.400862, 35.879283, 0.0 ], [ 139.437058, 35.910861, 0.0 ], [ 139.501098, 35.897329, 0.0 ], [ 139.556784, 35.913116, 0.0 ], [ 139.570706, 35.982992, 0.0 ], [ 139.512235, 36.082064, 0.0 ], [ 139.411999, 36.156286, 0.0 ], [ 139.325684, 36.16303, 0.0 ], [ 139.086232, 36.216962, 0.0 ] ] ] } },
{ "type": "Feature", "properties": { "Name": "Shallow basement areas (non-propsective)", "fid": 6, "Zone": "Shallow basement areas (mainly non-prospective for petroleum)" }, "geometry": { "type": "Polygon", "coordinates": [ [ [ 139.5511672, 35.305189, 0.0 ], [ 139.5678753, 35.271094, 0.0 ], [ 139.6042289, 35.2301915, 0.0 ], [ 139.6012925, 35.207411, 0.0 ], [ 139.6021689, 35.1960646, 0.0 ], [ 139.6152152, 35.175551, 0.0 ], [ 139.6040768, 35.150509, 0.0 ], [ 139.6139876, 35.1347848, 0.0 ], [ 139.6458665, 35.1325333, 0.0 ], [ 139.6708784, 35.1325233, 0.0 ], [ 139.6904015, 35.148232, 0.0 ], [ 139.6653394, 35.164169, 0.0 ], [ 139.6709091, 35.20286, 0.0 ], [ 139.6889905, 35.210341, 0.0 ], [ 139.7243901, 35.2115244, 0.0 ], [ 139.7417425, 35.2539437, 0.0 ], [ 139.7433111, 35.273367, 0.0 ], [ 139.6959712, 35.26882, 0.0 ], [ 139.6794917, 35.3028855, 0.0 ], [ 139.5511672, 35.305189, 0.0 ] ] ] } },
{ "type": "Feature", "properties": { "Name": "Shallow basement areas (non-propsective)", "fid": 7, "Zone": "Shallow basement areas (mainly non-propspective for petroleum)" }, "geometry": { "type": "Polygon", "coordinates": [ [ [ 140.133142, 36.602381, 0.0 ], [ 140.130358, 36.512919, 0.0 ], [ 140.0162, 36.407669, 0.0 ], [ 140.021769, 36.259631, 0.0 ], [ 140.049612, 36.160783, 0.0 ], [ 140.116436, 36.118059, 0.0 ], [ 140.199966, 36.127056, 0.0 ], [ 140.261222, 36.207976, 0.0 ], [ 140.269575, 36.241668, 0.0 ], [ 140.255653, 36.291057, 0.0 ], [ 140.289065, 36.360597, 0.0 ], [ 140.353105, 36.407669, 0.0 ], [ 140.336399, 36.459192, 0.0 ], [ 140.286281, 36.542005, 0.0 ], [ 140.302987, 36.59791, 0.0 ], [ 140.133142, 36.602381, 0.0 ] ] ] } },
{ "type": "Feature", "properties": { "Name": "Shallow basement areas (non-propsective)", "fid": 8, "Zone": "Shallow basement areas (mainly non-propsective for petroleum)" }, "geometry": { "type": "Polygon", "coordinates": [ [ [ 139.812943, 36.606851, 0.0 ], [ 139.130781, 36.626964, 0.0 ], [ 139.186468, 36.52187, 0.0 ], [ 139.225448, 36.48606, 0.0 ], [ 139.272782, 36.436795, 0.0 ], [ 139.342391, 36.376291, 0.0 ], [ 139.414783, 36.35387, 0.0 ], [ 139.526157, 36.333685, 0.0 ], [ 139.673727, 36.400946, 0.0 ], [ 139.748904, 36.564372, 0.0 ], [ 139.812943, 36.606851, 0.0 ] ] ] } },
{ "type": "Feature", "properties": { "Name": "Shallow basement areas (non-propsective)", "fid": 9, "Zone": "Shallow basement area (mainly non-propsective for petroleum)" }, "geometry": { "type": "Polygon", "coordinates": [ [ [ 139.080663, 36.176517, 0.0 ], [ 139.066741, 35.626206, 0.0 ], [ 139.130781, 35.608098, 0.0 ], [ 139.180899, 35.567341, 0.0 ], [ 139.225448, 35.517498, 0.0 ], [ 139.281135, 35.478962, 0.0 ], [ 139.320116, 35.483497, 0.0 ], [ 139.334037, 35.522031, 0.0 ], [ 139.23937, 35.725725, 0.0 ], [ 139.3229, 35.910861, 0.0 ], [ 139.300625, 36.048303, 0.0 ], [ 139.080663, 36.176517, 0.0 ] ] ] } },
{ "type": "Feature", "properties": { "Name": "Area covered by pyroclastics (non-prospective)", "fid": 10, "Zone": "Area covered by pyroclastics (mainly non-prospective for petroleum)" }, "geometry": { "type": "Polygon", "coordinates": [ [ [ 139.108506, 36.629199, 0.0 ], [ 139.094585, 36.378533, 0.0 ], [ 139.311763, 36.396464, 0.0 ], [ 139.247723, 36.463671, 0.0 ], [ 139.180899, 36.52187, 0.0 ], [ 139.133565, 36.626964, 0.0 ], [ 139.108506, 36.629199, 0.0 ] ] ] } },
{ "type": "Feature", "properties": { "Name": "Area covered by pyroclastics (non-prospective)", "fid": 11, "Zone": "Area covered by pyroclastics (mainly non-prospective for petroleum)" }, "geometry": { "type": "Polygon", "coordinates": [ [ [ 139.063957, 35.623943, 0.0 ], [ 139.030545, 34.763866, 0.0 ], [ 139.075094, 34.853025, 0.0 ], [ 139.127997, 34.889575, 0.0 ], [ 139.139134, 34.960344, 0.0 ], [ 139.075094, 34.98316, 0.0 ], [ 139.097369, 35.053849, 0.0 ], [ 139.07231, 35.058407, 0.0 ], [ 139.080663, 35.085753, 0.0 ], [ 139.077879, 35.110811, 0.0 ], [ 139.111291, 35.140416, 0.0 ], [ 139.139134, 35.135862, 0.0 ], [ 139.141918, 35.160905, 0.0 ], [ 139.166977, 35.240537, 0.0 ], [ 139.214311, 35.279187, 0.0 ], [ 139.17533, 35.304186, 0.0 ], [ 139.192036, 35.360973, 0.0 ], [ 139.211527, 35.390486, 0.0 ], [ 139.272782, 35.410913, 0.0 ], [ 139.281135, 35.478962, 0.0 ], [ 139.228233, 35.512966, 0.0 ], [ 139.194821, 35.553751, 0.0 ], [ 139.130781, 35.610362, 0.0 ], [ 139.063957, 35.623943, 0.0 ] ] ] } }
]
}
