{"type": "FeatureCollection", "features": [{"type": "Feature", "properties": {"line_id": "101-eg16", "source": "GSJ_SGMCZ_S7_2021_01 (detailed position file)", "n_vertices": 6}, "geometry": {"type": "LineString", "coordinates": [[139.287717, 35.297262], [139.294655, 35.292198], [139.299566, 35.288491], [139.304542, 35.284752], [139.309604, 35.280965], [139.312119, 35.27909]]}}, {"type": "Feature", "properties": {"line_id": "102-eg16", "source": "GSJ_SGMCZ_S7_2021_01 (detailed position file)", "n_vertices": 9}, "geometry": {"type": "LineString", "coordinates": [[139.309392, 35.301655], [139.309682, 35.301353], [139.311012, 35.298292], [139.311593, 35.297424], [139.312032, 35.296225], [139.314539, 35.290949], [139.317106, 35.285554], [139.317848, 35.283655], [139.318992, 35.281526]]}}, {"type": "Feature", "properties": {"line_id": "103-eg16", "source": "GSJ_SGMCZ_S7_2021_01 (detailed position file)", "n_vertices": 9}, "geometry": {"type": "LineString", "coordinates": [[139.325319, 35.306685], [139.325152, 35.306088], [139.325269, 35.305244], [139.325221, 35.30134], [139.325177, 35.295744], [139.325128, 35.290247], [139.325207, 35.286228], [139.325049, 35.28442], [139.324977, 35.283775]]}}, {"type": "Feature", "properties": {"line_id": "104-eg16", "source": "GSJ_SGMCZ_S7_2021_01 (detailed position file)", "n_vertices": 8}, "geometry": {"type": "LineString", "coordinates": [[139.333146, 35.308268], [139.332939, 35.308057], [139.332857, 35.307356], [139.332891, 35.302725], [139.332892, 35.296969], [139.332854, 35.291406], [139.332777, 35.285751], [139.332785, 35.283981]]}}, {"type": "Feature", "properties": {"line_id": "105-eg16", "source": "GSJ_SGMCZ_S7_2021_01 (detailed position file)", "n_vertices": 7}, "geometry": {"type": "LineString", "coordinates": [[139.339595, 35.309997], [139.340841, 35.307813], [139.340803, 35.302839], [139.340832, 35.297317], [139.34083, 35.291856], [139.340846, 35.286345], [139.340825, 35.28388]]}}, {"type": "Feature", "properties": {"line_id": "106-eg16", "source": "GSJ_SGMCZ_S7_2021_01 (detailed position file)", "n_vertices": 5}, "geometry": {"type": "LineString", "coordinates": [[139.358301, 35.308327], [139.358344, 35.30284], [139.35836, 35.297234], [139.358346, 35.291603], [139.358341, 35.284524]]}}, {"type": "Feature", "properties": {"line_id": "107-eg16", "source": "GSJ_SGMCZ_S7_2021_01 (detailed position file)", "n_vertices": 7}, "geometry": {"type": "LineString", "coordinates": [[139.37818, 35.309358], [139.377854, 35.307812], [139.37781, 35.303116], [139.377772, 35.297558], [139.377777, 35.292067], [139.377944, 35.290854], [139.377763, 35.28724]]}}, {"type": "Feature", "properties": {"line_id": "108-eg16", "source": "GSJ_SGMCZ_S7_2021_01 (detailed position file)", "n_vertices": 8}, "geometry": {"type": "LineString", "coordinates": [[139.395394, 35.310122], [139.39598, 35.307217], [139.395772, 35.303081], [139.395887, 35.302022], [139.395798, 35.297587], [139.39585, 35.291967], [139.395865, 35.286328], [139.395859, 35.283816]]}}, {"type": "Feature", "properties": {"line_id": "109-eg16", "source": "GSJ_SGMCZ_S7_2021_01 (detailed position file)", "n_vertices": 15}, "geometry": {"type": "LineString", "coordinates": [[139.424233, 35.31022], [139.423686, 35.308624], [139.423573, 35.303473], [139.423652, 35.297875], [139.42364, 35.29221], [139.42362, 35.286612], [139.423624, 35.281095], [139.423625, 35.275515], [139.423722, 35.274089], [139.4236, 35.269861], [139.423642, 35.264256], [139.423646, 35.258592], [139.423566, 35.252999], [139.423621, 35.247429], [139.42363, 35.242146]]}}, {"type": "Feature", "properties": {"line_id": "10-eg16", "source": "GSJ_SGMCZ_S7_2021_01 (detailed position file)", "n_vertices": 14}, "geometry": {"type": "LineString", "coordinates": [[139.551056, 35.193017], [139.558197, 35.193055], [139.565091, 35.193049], [139.572004, 35.193065], [139.574898, 35.192797], [139.577008, 35.193063], [139.578931, 35.193053], [139.585705, 35.193113], [139.587699, 35.192986], [139.589965, 35.193339], [139.591148, 35.19305], [139.592336, 35.193057], [139.595573, 35.193026], [139.595929, 35.192808]]}}, {"type": "Feature", "properties": {"line_id": "110-eg16", "source": "GSJ_SGMCZ_S7_2021_01 (detailed position file)", "n_vertices": 14}, "geometry": {"type": "LineString", "coordinates": [[139.481822, 35.291992], [139.480518, 35.290186], [139.480619, 35.285533], [139.480531, 35.279908], [139.48058, 35.274196], [139.480561, 35.268638], [139.480559, 35.262983], [139.480551, 35.257319], [139.480577, 35.2517], [139.480592, 35.246102], [139.480544, 35.240544], [139.480533, 35.234849], [139.480594, 35.229174], [139.480576, 35.223862]]}}, {"type": "Feature", "properties": {"line_id": "111-eg16", "source": "GSJ_SGMCZ_S7_2021_01 (detailed position file)", "n_vertices": 5}, "geometry": {"type": "LineString", "coordinates": [[139.511586, 35.220962], [139.511608, 35.21502], [139.511615, 35.209428], [139.511675, 35.203818], [139.511633, 35.202379]]}}, {"type": "Feature", "properties": {"line_id": "112-eg16", "source": "GSJ_SGMCZ_S7_2021_01 (detailed position file)", "n_vertices": 6}, "geometry": {"type": "LineString", "coordinates": [[139.520922, 35.221831], [139.520872, 35.220965], [139.520838, 35.215823], [139.520819, 35.210198], [139.520806, 35.204618], [139.520812, 35.200385]]}}, {"type": "Feature", "properties": {"line_id": "113-eg16", "source": "GSJ_SGMCZ_S7_2021_01 (detailed position file)", "n_vertices": 6}, "geometry": {"type": "LineString", "coordinates": [[139.530565, 35.224218], [139.530565, 35.218647], [139.530558, 35.212966], [139.530574, 35.207333], [139.530559, 35.201734], [139.530501, 35.199546]]}}, {"type": "Feature", "properties": {"line_id": "114-eg16", "source": "GSJ_SGMCZ_S7_2021_01 (detailed position file)", "n_vertices": 25}, "geometry": {"type": "LineString", "coordinates": [[139.540319, 35.289604], [139.541466, 35.287919], [139.541571, 35.286947], [139.541458, 35.285309], [139.541598, 35.2843], [139.54173, 35.27968], [139.541587, 35.278656], [139.541705, 35.272997], [139.541586, 35.271072], [139.54168, 35.267339], [139.541587, 35.26382], [139.541705, 35.261727], [139.541638, 35.256129], [139.541701, 35.250426], [139.541663, 35.244799], [139.541705, 35.239196], [139.541678, 35.233543], [139.541702, 35.227845], [139.541659, 35.22225], [139.541698, 35.216618], [139.541656, 35.21096], [139.541775, 35.209782], [139.541636, 35.205373], [139.541649, 35.199711], [139.541589, 35.195614]]}}, {"type": "Feature", "properties": {"line_id": "5-eg16", "source": "GSJ_SGMCZ_S7_2021_01 (detailed position file)", "n_vertices": 77}, "geometry": {"type": "LineString", "coordinates": [[139.54822, 35.276935], [139.577992, 35.197843], [139.400298, 35.272217], [139.578351, 35.196326], [139.550057, 35.271785], [139.578288, 35.192313], [139.407278, 35.272286], [139.578359, 35.189499], [139.578215, 35.188616], [139.552013, 35.266287], [139.578333, 35.186715], [139.414123, 35.272278], [139.553864, 35.260963], [139.57833, 35.181109], [139.420977, 35.272217], [139.554847, 35.258277], [139.55487, 35.255461], [139.578313, 35.175409], [139.42787, 35.272258], [139.578195, 35.173371], [139.554856, 35.24984], [139.578357, 35.169775], [139.434727, 35.27225], [139.554896, 35.244179], [139.578364, 35.164162], [139.441654, 35.272251], [139.578226, 35.162316], [139.554918, 35.238559], [139.578308, 35.158429], [139.44851, 35.272251], [139.554847, 35.232939], [139.578311, 35.152861], [139.455394, 35.272225], [139.578615, 35.149497], [139.578363, 35.148709], [139.554854, 35.227298], [139.57824, 35.147256], [139.462252, 35.272257], [139.554858, 35.221667], [139.578344, 35.141595], [139.469139, 35.272244], [139.57832, 35.138625], [139.578444, 35.137951], [139.57828, 35.13735], [139.554862, 35.215981], [139.578314, 35.135945], [139.47596, 35.272253], [139.554872, 35.210352], [139.578322, 35.130332], [139.482823, 35.272218], [139.554867, 35.204744], [139.578274, 35.124638], [139.489726, 35.272215], [139.57812, 35.122052], [139.578329, 35.120985], [139.554866, 35.199116], [139.578324, 35.11911], [139.49676, 35.272262], [139.554869, 35.193519], [139.578202, 35.113451], [139.503532, 35.272233], [139.554858, 35.189562], [139.578308, 35.10773], [139.510401, 35.272279], [139.578239, 35.102174], [139.517294, 35.272226], [139.578124, 35.0992], [139.578288, 35.096799], [139.524202, 35.272221], [139.57831, 35.091368], [139.531039, 35.272232], [139.578262, 35.085771], [139.537896, 35.272235], [139.578232, 35.08112], [139.544804, 35.272251], [139.547709, 35.27232], [139.550902, 35.272099]]}}, {"type": "Feature", "properties": {"line_id": "115-eg16", "source": "GSJ_SGMCZ_S7_2021_01 (detailed position file)", "n_vertices": 32}, "geometry": {"type": "LineString", "coordinates": [[139.567628, 35.243794], [139.567943, 35.243423], [139.568078, 35.242954], [139.568061, 35.237651], [139.568086, 35.231921], [139.56805, 35.226285], [139.568052, 35.222165], [139.567777, 35.22079], [139.56545, 35.215503], [139.564793, 35.213542], [139.565867, 35.210175], [139.567851, 35.205488], [139.568049, 35.204721], [139.56809, 35.199046], [139.567943, 35.195776], [139.568039, 35.193376], [139.568079, 35.187845], [139.568086, 35.182254], [139.568065, 35.176692], [139.568079, 35.171056], [139.56807, 35.165407], [139.568059, 35.159889], [139.568046, 35.154319], [139.568069, 35.148708], [139.568042, 35.143142], [139.568057, 35.137702], [139.568049, 35.132211], [139.56808, 35.126691], [139.568081, 35.121191], [139.568086, 35.117784], [139.567922, 35.115591], [139.568279, 35.114041]]}}, {"type": "Feature", "properties": {"line_id": "116-eg16", "source": "GSJ_SGMCZ_S7_2021_01 (detailed position file)", "n_vertices": 32}, "geometry": {"type": "LineString", "coordinates": [[139.58868, 35.195121], [139.588482, 35.194556], [139.588636, 35.193668], [139.588484, 35.192404], [139.58861, 35.189693], [139.588571, 35.184083], [139.588562, 35.17852], [139.588595, 35.172843], [139.58858, 35.16706], [139.588546, 35.161357], [139.588553, 35.155771], [139.588587, 35.150218], [139.5886, 35.144728], [139.5886, 35.139064], [139.588558, 35.133544], [139.588561, 35.127958], [139.588564, 35.122311], [139.588494, 35.116634], [139.588547, 35.111044], [139.588525, 35.107809], [139.58873, 35.106504], [139.588549, 35.105332], [139.588549, 35.103236], [139.588367, 35.102679], [139.58862, 35.101789], [139.588517, 35.099966], [139.588553, 35.094354], [139.588414, 35.091003], [139.588611, 35.090396], [139.588545, 35.088776], [139.588571, 35.083106], [139.588336, 35.079285]]}}, {"type": "Feature", "properties": {"line_id": "117-eg16", "source": "GSJ_SGMCZ_S7_2021_01 (detailed position file)", "n_vertices": 11}, "geometry": {"type": "LineString", "coordinates": [[139.605276, 35.132167], [139.605321, 35.126614], [139.605331, 35.12103], [139.605312, 35.115395], [139.605315, 35.109763], [139.605296, 35.104161], [139.605321, 35.098584], [139.605312, 35.09296], [139.605311, 35.087384], [139.605337, 35.08176], [139.605296, 35.076082]]}}, {"type": "Feature", "properties": {"line_id": "118-eg16", "source": "GSJ_SGMCZ_S7_2021_01 (detailed position file)", "n_vertices": 16}, "geometry": {"type": "LineString", "coordinates": [[139.623258, 35.125909], [139.623183, 35.122962], [139.62329, 35.122209], [139.62315, 35.12033], [139.623198, 35.114756], [139.623235, 35.109195], [139.623139, 35.104218], [139.623275, 35.103466], [139.623174, 35.10195], [139.623308, 35.097893], [139.623196, 35.092401], [139.623164, 35.086821], [139.623233, 35.08123], [139.623148, 35.078843], [139.623313, 35.075625], [139.623137, 35.070759]]}}, {"type": "Feature", "properties": {"line_id": "119-eg16", "source": "GSJ_SGMCZ_S7_2021_01 (detailed position file)", "n_vertices": 16}, "geometry": {"type": "LineString", "coordinates": [[139.641229, 35.130648], [139.641108, 35.125123], [139.641081, 35.119564], [139.641002, 35.115435], [139.641165, 35.114278], [139.641121, 35.108733], [139.641149, 35.103035], [139.641126, 35.097466], [139.641152, 35.091935], [139.64106, 35.086341], [139.641119, 35.080578], [139.641069, 35.075015], [139.641007, 35.073088], [139.641221, 35.072163], [139.641052, 35.06937], [139.640966, 35.06807]]}}, {"type": "Feature", "properties": {"line_id": "11-eg16", "source": "GSJ_SGMCZ_S7_2021_01 (detailed position file)", "n_vertices": 16}, "geometry": {"type": "LineString", "coordinates": [[139.537691, 35.18107], [139.539714, 35.181212], [139.545672, 35.181174], [139.552523, 35.181152], [139.559401, 35.181166], [139.564109, 35.181166], [139.566189, 35.181311], [139.571232, 35.181198], [139.572002, 35.181064], [139.57299, 35.181222], [139.579987, 35.181195], [139.586848, 35.181189], [139.593611, 35.181278], [139.600492, 35.181613], [139.603711, 35.181996], [139.605544, 35.182407]]}}, {"type": "Feature", "properties": {"line_id": "120-eg16", "source": "GSJ_SGMCZ_S7_2021_01 (detailed position file)", "n_vertices": 14}, "geometry": {"type": "LineString", "coordinates": [[139.658687, 35.129357], [139.658899, 35.128539], [139.658764, 35.12576], [139.658903, 35.124848], [139.658837, 35.123614], [139.658819, 35.118131], [139.658888, 35.112667], [139.65893, 35.107069], [139.658894, 35.101411], [139.658896, 35.095902], [139.65889, 35.090394], [139.658854, 35.084873], [139.658913, 35.079329], [139.658665, 35.074352]]}}, {"type": "Feature", "properties": {"line_id": "121-eg16", "source": "GSJ_SGMCZ_S7_2021_01 (detailed position file)", "n_vertices": 25}, "geometry": {"type": "LineString", "coordinates": [[139.676677, 35.127622], [139.676824, 35.126705], [139.676664, 35.124543], [139.676795, 35.123953], [139.676734, 35.121904], [139.676674, 35.11911], [139.676791, 35.118601], [139.676571, 35.117306], [139.676738, 35.116734], [139.67664, 35.116316], [139.676786, 35.115772], [139.676648, 35.112446], [139.67676, 35.110645], [139.676711, 35.105128], [139.676749, 35.09972], [139.676755, 35.094194], [139.676688, 35.090155], [139.676872, 35.088576], [139.676713, 35.087283], [139.676828, 35.086082], [139.67675, 35.082971], [139.676616, 35.078506], [139.676788, 35.077863], [139.676607, 35.077411], [139.676559, 35.075189]]}}, {"type": "Feature", "properties": {"line_id": "12-eg16", "source": "GSJ_SGMCZ_S7_2021_01 (detailed position file)", "n_vertices": 11}, "geometry": {"type": "LineString", "coordinates": [[139.550898, 35.163575], [139.558491, 35.163526], [139.56545, 35.163554], [139.572334, 35.163564], [139.579117, 35.163542], [139.586075, 35.163568], [139.592915, 35.163692], [139.595399, 35.163718], [139.599557, 35.163364], [139.601706, 35.162756], [139.602622, 35.162255]]}}, {"type": "Feature", "properties": {"line_id": "13-eg16", "source": "GSJ_SGMCZ_S7_2021_01 (detailed position file)", "n_vertices": 10}, "geometry": {"type": "LineString", "coordinates": [[139.549363, 35.14618], [139.557132, 35.146197], [139.563991, 35.14619], [139.57089, 35.146195], [139.577809, 35.146169], [139.584632, 35.146178], [139.591441, 35.146161], [139.598284, 35.146191], [139.602371, 35.146162], [139.603907, 35.146391]]}}, {"type": "Feature", "properties": {"line_id": "14-eg16", "source": "GSJ_SGMCZ_S7_2021_01 (detailed position file)", "n_vertices": 11}, "geometry": {"type": "LineString", "coordinates": [[139.548567, 35.130685], [139.55234, 35.130527], [139.55759, 35.130574], [139.564446, 35.130557], [139.571211, 35.130556], [139.57809, 35.130559], [139.584955, 35.130551], [139.591792, 35.130551], [139.598709, 35.130566], [139.6056, 35.130553], [139.609375, 35.130522]]}}, {"type": "Feature", "properties": {"line_id": "15-eg16", "source": "GSJ_SGMCZ_S7_2021_01 (detailed position file)", "n_vertices": 19}, "geometry": {"type": "LineString", "coordinates": [[139.565095, 35.116475], [139.572286, 35.116643], [139.579159, 35.116676], [139.585913, 35.116682], [139.592844, 35.116666], [139.599707, 35.116648], [139.606509, 35.116668], [139.613388, 35.1167], [139.62026, 35.116661], [139.627049, 35.116688], [139.633885, 35.116678], [139.640831, 35.11668], [139.647684, 35.116675], [139.654419, 35.116671], [139.661221, 35.116634], [139.6681, 35.116668], [139.675236, 35.116672], [139.682074, 35.116654], [139.683566, 35.116668]]}}, {"type": "Feature", "properties": {"line_id": "16-eg16", "source": "GSJ_SGMCZ_S7_2021_01 (detailed position file)", "n_vertices": 20}, "geometry": {"type": "LineString", "coordinates": [[139.565126, 35.10415], [139.57195, 35.104137], [139.578767, 35.104158], [139.585512, 35.104149], [139.592277, 35.104177], [139.599152, 35.104159], [139.606008, 35.104142], [139.612892, 35.104178], [139.619608, 35.104164], [139.626479, 35.104094], [139.633421, 35.104172], [139.640365, 35.104193], [139.647124, 35.104085], [139.654017, 35.104194], [139.660884, 35.104199], [139.667717, 35.104207], [139.674559, 35.104188], [139.676691, 35.104183], [139.681325, 35.103825], [139.683638, 35.10372]]}}, {"type": "Feature", "properties": {"line_id": "17-eg16", "source": "GSJ_SGMCZ_S7_2021_01 (detailed position file)", "n_vertices": 19}, "geometry": {"type": "LineString", "coordinates": [[139.565296, 35.09165], [139.571455, 35.091686], [139.578252, 35.091695], [139.585255, 35.09165], [139.591985, 35.091649], [139.598874, 35.091653], [139.605776, 35.091621], [139.612557, 35.091665], [139.619452, 35.091665], [139.626212, 35.091684], [139.633233, 35.091685], [139.640005, 35.091683], [139.646785, 35.091701], [139.653566, 35.09168], [139.660264, 35.091672], [139.667125, 35.091714], [139.673948, 35.091669], [139.680916, 35.091684], [139.683644, 35.091654]]}}, {"type": "Feature", "properties": {"line_id": "1-eg16", "source": "GSJ_SGMCZ_S7_2021_01 (detailed position file)", "n_vertices": 10}, "geometry": {"type": "LineString", "coordinates": [[139.349905, 35.304308], [139.352458, 35.303553], [139.358011, 35.303296], [139.364961, 35.303009], [139.371823, 35.302708], [139.378674, 35.302398], [139.385529, 35.302169], [139.392414, 35.301837], [139.399274, 35.301525], [139.403536, 35.301296]]}}, {"type": "Feature", "properties": {"line_id": "201-eg16", "source": "GSJ_SGMCZ_S7_2021_01 (detailed position file)", "n_vertices": 13}, "geometry": {"type": "LineString", "coordinates": [[139.261732, 35.236623], [139.264571, 35.241672], [139.267412, 35.246708], [139.270164, 35.251719], [139.273087, 35.256871], [139.275949, 35.261954], [139.278798, 35.267101], [139.28168, 35.272234], [139.284725, 35.277454], [139.287563, 35.282682], [139.29036, 35.287566], [139.293345, 35.292787], [139.295359, 35.296367]]}}, {"type": "Feature", "properties": {"line_id": "2-eg16", "source": "GSJ_SGMCZ_S7_2021_01 (detailed position file)", "n_vertices": 27}, "geometry": {"type": "LineString", "coordinates": [[139.246555, 35.280245], [139.249433, 35.280983], [139.253683, 35.281611], [139.260508, 35.282733], [139.267184, 35.283805], [139.273862, 35.284863], [139.280595, 35.285991], [139.287349, 35.287057], [139.294161, 35.288129], [139.298935, 35.28889], [139.300898, 35.289348], [139.30319, 35.289901], [139.307581, 35.290544], [139.312071, 35.290998], [139.314401, 35.291387], [139.321136, 35.292478], [139.327723, 35.293545], [139.334297, 35.294621], [139.340964, 35.295684], [139.347546, 35.296725], [139.354151, 35.297806], [139.36072, 35.298822], [139.367234, 35.299873], [139.373779, 35.300917], [139.380371, 35.30198], [139.387071, 35.30306], [139.390917, 35.303649]]}}, {"type": "Feature", "properties": {"line_id": "301-eg16", "source": "GSJ_SGMCZ_S7_2021_01 (detailed position file)", "n_vertices": 7}, "geometry": {"type": "LineString", "coordinates": [[139.243511, 35.257005], [139.251547, 35.255197], [139.257962, 35.253657], [139.264556, 35.252129], [139.271198, 35.250538], [139.277871, 35.248997], [139.280724, 35.2483]]}}, {"type": "Feature", "properties": {"line_id": "302-eg16", "source": "GSJ_SGMCZ_S7_2021_01 (detailed position file)", "n_vertices": 9}, "geometry": {"type": "LineString", "coordinates": [[139.246249, 35.266633], [139.249614, 35.266118], [139.25336, 35.265223], [139.259818, 35.263801], [139.266485, 35.262343], [139.273073, 35.260874], [139.279852, 35.259409], [139.28651, 35.257991], [139.288833, 35.257476]]}}, {"type": "Feature", "properties": {"line_id": "303-eg16", "source": "GSJ_SGMCZ_S7_2021_01 (detailed position file)", "n_vertices": 11}, "geometry": {"type": "LineString", "coordinates": [[139.245818, 35.277091], [139.252568, 35.275745], [139.259172, 35.274412], [139.264226, 35.27344], [139.265648, 35.273032], [139.272256, 35.271768], [139.278962, 35.270389], [139.2856, 35.269053], [139.29222, 35.267709], [139.29892, 35.266343], [139.299983, 35.266152]]}}, {"type": "Feature", "properties": {"line_id": "304-eg16", "source": "GSJ_SGMCZ_S7_2021_01 (detailed position file)", "n_vertices": 11}, "geometry": {"type": "LineString", "coordinates": [[139.248019, 35.282272], [139.252331, 35.286157], [139.258148, 35.285116], [139.264607, 35.283815], [139.271208, 35.282643], [139.277711, 35.281319], [139.284338, 35.280083], [139.290946, 35.278867], [139.29755, 35.277593], [139.304327, 35.276311], [139.306601, 35.2759]]}}, {"type": "Feature", "properties": {"line_id": "3-eg16", "source": "GSJ_SGMCZ_S7_2021_01 (detailed position file)", "n_vertices": 11}, "geometry": {"type": "LineString", "coordinates": [[139.318266, 35.302816], [139.321293, 35.302938], [139.323234, 35.302406], [139.326694, 35.301754], [139.333294, 35.300235], [139.340019, 35.298833], [139.346668, 35.29733], [139.353287, 35.295828], [139.359869, 35.294342], [139.366551, 35.292868], [139.369991, 35.292069]]}}, {"type": "Feature", "properties": {"line_id": "401-eg16", "source": "GSJ_SGMCZ_S7_2021_01 (detailed position file)", "n_vertices": 18}, "geometry": {"type": "LineString", "coordinates": [[139.389368, 35.244898], [139.395414, 35.248319], [139.401092, 35.251579], [139.406742, 35.254791], [139.41241, 35.257974], [139.417914, 35.261192], [139.423586, 35.26444], [139.429166, 35.267583], [139.434861, 35.270867], [139.4404, 35.273987], [139.445908, 35.277125], [139.451587, 35.280383], [139.457181, 35.283615], [139.457908, 35.283991], [139.46006, 35.285618], [139.462794, 35.286794], [139.46846, 35.290015], [139.470214, 35.291052]]}}, {"type": "Feature", "properties": {"line_id": "402-eg16", "source": "GSJ_SGMCZ_S7_2021_01 (detailed position file)", "n_vertices": 18}, "geometry": {"type": "LineString", "coordinates": [[139.443396, 35.228761], [139.448408, 35.23258], [139.453492, 35.236456], [139.458417, 35.24028], [139.463464, 35.244177], [139.46848, 35.248018], [139.47351, 35.251862], [139.478505, 35.255722], [139.483509, 35.259566], [139.488559, 35.263391], [139.49352, 35.267193], [139.49853, 35.271032], [139.503549, 35.27493], [139.508558, 35.278734], [139.513597, 35.282534], [139.518508, 35.286388], [139.522034, 35.289092], [139.526391, 35.291322]]}}, {"type": "Feature", "properties": {"line_id": "403-eg16", "source": "GSJ_SGMCZ_S7_2021_01 (detailed position file)", "n_vertices": 22}, "geometry": {"type": "LineString", "coordinates": [[139.441762, 35.228507], [139.447805, 35.231237], [139.453916, 35.233948], [139.459992, 35.236583], [139.465991, 35.239284], [139.472003, 35.241825], [139.478076, 35.244492], [139.484196, 35.247172], [139.490239, 35.249811], [139.496308, 35.252434], [139.5024, 35.255089], [139.508488, 35.257721], [139.514505, 35.260415], [139.520641, 35.263099], [139.5267, 35.26565], [139.532762, 35.268335], [139.538807, 35.270971], [139.544896, 35.273616], [139.550931, 35.276204], [139.553879, 35.277569], [139.558711, 35.279347], [139.559726, 35.279724]]}}, {"type": "Feature", "properties": {"line_id": "404-eg16", "source": "GSJ_SGMCZ_S7_2021_01 (detailed position file)", "n_vertices": 26}, "geometry": {"type": "LineString", "coordinates": [[139.442486, 35.229472], [139.449016, 35.230804], [139.455699, 35.232183], [139.462276, 35.233551], [139.466091, 35.23446], [139.466905, 35.234493], [139.468866, 35.234922], [139.475539, 35.236279], [139.482209, 35.237694], [139.487159, 35.238621], [139.48886, 35.239116], [139.490603, 35.23934], [139.495583, 35.240402], [139.502239, 35.241701], [139.508836, 35.243154], [139.515562, 35.244534], [139.522271, 35.245889], [139.528945, 35.24721], [139.535573, 35.248579], [139.542197, 35.249965], [139.548885, 35.251344], [139.555545, 35.252722], [139.562198, 35.25416], [139.568735, 35.255351], [139.569048, 35.255152], [139.572001, 35.253147]]}}, {"type": "Feature", "properties": {"line_id": "4-eg16", "source": "GSJ_SGMCZ_S7_2021_01 (detailed position file)", "n_vertices": 28}, "geometry": {"type": "LineString", "coordinates": [[139.399162, 35.285994], [139.400066, 35.286114], [139.405915, 35.286071], [139.412694, 35.286134], [139.419576, 35.28608], [139.426425, 35.286104], [139.433338, 35.286099], [139.440214, 35.286091], [139.447069, 35.286115], [139.453945, 35.28612], [139.460828, 35.286076], [139.467747, 35.286105], [139.470455, 35.286027], [139.473651, 35.285045], [139.477474, 35.283835], [139.479441, 35.284327], [139.486052, 35.286002], [139.493176, 35.286148], [139.500047, 35.286111], [139.506921, 35.286114], [139.513837, 35.286109], [139.520653, 35.286108], [139.52757, 35.286158], [139.532107, 35.286146], [139.534429, 35.285905], [139.538638, 35.286133], [139.541266, 35.285735], [139.54543, 35.284657]]}}, {"type": "Feature", "properties": {"line_id": "501-eg16", "source": "GSJ_SGMCZ_S7_2021_01 (detailed position file)", "n_vertices": 5}, "geometry": {"type": "LineString", "coordinates": [[139.397892, 35.260287], [139.402554, 35.255777], [139.406852, 35.2515], [139.411184, 35.247152], [139.413252, 35.245074]]}}, {"type": "Feature", "properties": {"line_id": "502-eg16", "source": "GSJ_SGMCZ_S7_2021_01 (detailed position file)", "n_vertices": 9}, "geometry": {"type": "LineString", "coordinates": [[139.400896, 35.282547], [139.405095, 35.277817], [139.40901, 35.273173], [139.412899, 35.268588], [139.416726, 35.264069], [139.420523, 35.259598], [139.424365, 35.255072], [139.428132, 35.250685], [139.431332, 35.246849]]}}, {"type": "Feature", "properties": {"line_id": "503-eg16", "source": "GSJ_SGMCZ_S7_2021_01 (detailed position file)", "n_vertices": 22}, "geometry": {"type": "LineString", "coordinates": [[139.389196, 35.310092], [139.392536, 35.307796], [139.396556, 35.303818], [139.401053, 35.299442], [139.405482, 35.295107], [139.409904, 35.290799], [139.414223, 35.286449], [139.418711, 35.282095], [139.4231, 35.277767], [139.427462, 35.273463], [139.431878, 35.269144], [139.436317, 35.264823], [139.440614, 35.260552], [139.445008, 35.256301], [139.449323, 35.251994], [139.453749, 35.247647], [139.458015, 35.243436], [139.462423, 35.239112], [139.466831, 35.234749], [139.471197, 35.230466], [139.47555, 35.226256], [139.477679, 35.224101]]}}, {"type": "Feature", "properties": {"line_id": "504-eg16", "source": "GSJ_SGMCZ_S7_2021_01 (detailed position file)", "n_vertices": 20}, "geometry": {"type": "LineString", "coordinates": [[139.417251, 35.300323], [139.419054, 35.298913], [139.422093, 35.295778], [139.426431, 35.291413], [139.430745, 35.286986], [139.4351, 35.282625], [139.439368, 35.278212], [139.44021, 35.277557], [139.443702, 35.273852], [139.448013, 35.26948], [139.452318, 35.26503], [139.456646, 35.260687], [139.460934, 35.256304], [139.465237, 35.251934], [139.469557, 35.24752], [139.473813, 35.243128], [139.478087, 35.238733], [139.482474, 35.234317], [139.486803, 35.229935], [139.490219, 35.226431]]}}, {"type": "Feature", "properties": {"line_id": "505-eg16", "source": "GSJ_SGMCZ_S7_2021_01 (detailed position file)", "n_vertices": 18}, "geometry": {"type": "LineString", "coordinates": [[139.441355, 35.288164], [139.444354, 35.288214], [139.446467, 35.286082], [139.450783, 35.281626], [139.454993, 35.277234], [139.459199, 35.272846], [139.462124, 35.27009], [139.463508, 35.268464], [139.467808, 35.264002], [139.472046, 35.259599], [139.476343, 35.255157], [139.480638, 35.250718], [139.484886, 35.24628], [139.489159, 35.241851], [139.493449, 35.237432], [139.497722, 35.23306], [139.501971, 35.228652], [139.503698, 35.226852]]}}, {"type": "Feature", "properties": {"line_id": "506-eg16", "source": "GSJ_SGMCZ_S7_2021_01 (detailed position file)", "n_vertices": 22}, "geometry": {"type": "LineString", "coordinates": [[139.438813, 35.312057], [139.440259, 35.308627], [139.444007, 35.304613], [139.4483, 35.300205], [139.451341, 35.296918], [139.45259, 35.295777], [139.456836, 35.291334], [139.46106, 35.2869], [139.465417, 35.282505], [139.469647, 35.27803], [139.473914, 35.273583], [139.478128, 35.26917], [139.482438, 35.264831], [139.4867, 35.260374], [139.490914, 35.25595], [139.495115, 35.251641], [139.499376, 35.247181], [139.503562, 35.24285], [139.507819, 35.238382], [139.512086, 35.234032], [139.516222, 35.229656], [139.519977, 35.225784]]}}, {"type": "Feature", "properties": {"line_id": "6-eg16", "source": "GSJ_SGMCZ_S7_2021_01 (detailed position file)", "n_vertices": 29}, "geometry": {"type": "LineString", "coordinates": [[139.397223, 35.258336], [139.404183, 35.258353], [139.411114, 35.258323], [139.417976, 35.258342], [139.424885, 35.258412], [139.431746, 35.258423], [139.4386, 35.258346], [139.445483, 35.258386], [139.452359, 35.258368], [139.459221, 35.258385], [139.466024, 35.258415], [139.472932, 35.258379], [139.47978, 35.258423], [139.486625, 35.258385], [139.490811, 35.258234], [139.493534, 35.258363], [139.500427, 35.258389], [139.507306, 35.258384], [139.514149, 35.258339], [139.521047, 35.258302], [139.527892, 35.258329], [139.534846, 35.258361], [139.541671, 35.258354], [139.548562, 35.25836], [139.550465, 35.258238], [139.551582, 35.258378], [139.555412, 35.258374], [139.562304, 35.258399], [139.563134, 35.258352]]}}, {"type": "Feature", "properties": {"line_id": "7-eg16", "source": "GSJ_SGMCZ_S7_2021_01 (detailed position file)", "n_vertices": 24}, "geometry": {"type": "LineString", "coordinates": [[139.447605, 35.238896], [139.454018, 35.238878], [139.460962, 35.238922], [139.467786, 35.238885], [139.474643, 35.238945], [139.481531, 35.238956], [139.488472, 35.238909], [139.495267, 35.238898], [139.502145, 35.238926], [139.509036, 35.238965], [139.515912, 35.238931], [139.522755, 35.238901], [139.529688, 35.238903], [139.536529, 35.238931], [139.543396, 35.238897], [139.550262, 35.2389], [139.552987, 35.239037], [139.554421, 35.238883], [139.557125, 35.238903], [139.564024, 35.238956], [139.570867, 35.23886], [139.577748, 35.238891], [139.58455, 35.238977], [139.589463, 35.238858]]}}, {"type": "Feature", "properties": {"line_id": "8-eg16", "source": "GSJ_SGMCZ_S7_2021_01 (detailed position file)", "n_vertices": 13}, "geometry": {"type": "LineString", "coordinates": [[139.533538, 35.225738], [139.540547, 35.22584], [139.547517, 35.225829], [139.554428, 35.225802], [139.561338, 35.225814], [139.566203, 35.225878], [139.568225, 35.225761], [139.575064, 35.225842], [139.579269, 35.225803], [139.580283, 35.225943], [139.581923, 35.225726], [139.587425, 35.225864], [139.588279, 35.225719]]}}, {"type": "Feature", "properties": {"line_id": "9-eg16", "source": "GSJ_SGMCZ_S7_2021_01 (detailed position file)", "n_vertices": 26}, "geometry": {"type": "LineString", "coordinates": [[139.497809, 35.209798], [139.50506, 35.209577], [139.511973, 35.209303], [139.518779, 35.209078], [139.520568, 35.20897], [139.521696, 35.209071], [139.525617, 35.208821], [139.532456, 35.208586], [139.53928, 35.208353], [139.54618, 35.208048], [139.553346, 35.207789], [139.563508, 35.207365], [139.566458, 35.207383], [139.569736, 35.207166], [139.570652, 35.207351], [139.571507, 35.207747], [139.573499, 35.207493], [139.574286, 35.207553], [139.581449, 35.208679], [139.588402, 35.209824], [139.59097, 35.210261], [139.593372, 35.211307], [139.59442, 35.21156], [139.595016, 35.211527], [139.59596, 35.211598], [139.596361, 35.211872]]}}]}