{
"type": "FeatureCollection",
"name": "Pu He Dao Dong",
"features": [
{ "type": "Feature", "properties": { "Name": "ライン 1", "description": null }, "geometry": { "type": "LineString", "coordinates": [ [ 139.6617069, 35.2803555, 0.0 ], [ 139.6614119, 35.280662, 0.0 ], [ 139.6609613, 35.2803598, 0.0 ], [ 139.660854, 35.280408, 0.0 ], [ 139.6607413, 35.2803817, 0.0 ], [ 139.6604516, 35.2806138, 0.0 ], [ 139.6602049, 35.2807321, 0.0 ], [ 139.6601405, 35.2804956, 0.0 ], [ 139.660178, 35.2803686, 0.0 ], [ 139.6597221, 35.2802197, 0.0 ], [ 139.6597435, 35.2803248, 0.0 ], [ 139.6595236, 35.280535, 0.0 ], [ 139.6593734, 35.2806664, 0.0 ], [ 139.6594056, 35.280789, 0.0 ], [ 139.6592178, 35.2809861, 0.0 ], [ 139.6590891, 35.2810342, 0.0 ], [ 139.6592285, 35.2814152, 0.0 ] ] } },
{ "type": "Feature", "properties": { "Name": "ライン 2", "description": null }, "geometry": { "type": "LineString", "coordinates": [ [ 139.6592285, 35.2814152, 0.0 ], [ 139.659132, 35.281494, 0.0 ], [ 139.658896, 35.281551, 0.0 ], [ 139.6585419, 35.2819582, 0.0 ], [ 139.658381, 35.2821159, 0.0 ], [ 139.6584453, 35.2822078, 0.0 ], [ 139.6583112, 35.282418, 0.0 ], [ 139.6577051, 35.2822034, 0.0 ], [ 139.6575763, 35.2821553, 0.0 ], [ 139.6574261, 35.282002, 0.0 ], [ 139.6572008, 35.2819976, 0.0 ], [ 139.6570023, 35.2818356, 0.0 ], [ 139.6567985, 35.28191, 0.0 ], [ 139.6564337, 35.2818312, 0.0 ], [ 139.6560635, 35.2819319, 0.0 ], [ 139.6557149, 35.2819451, 0.0 ], [ 139.6555378, 35.2820502, 0.0 ], [ 139.6555915, 35.282164, 0.0 ], [ 139.6555432, 35.2823523, 0.0 ], [ 139.6553662, 35.2824749, 0.0 ], [ 139.6554735, 35.2826019, 0.0 ], [ 139.6552696, 35.2825144, 0.0 ], [ 139.655055, 35.2825625, 0.0 ], [ 139.6546795, 35.282764, 0.0 ], [ 139.6544328, 35.2829785, 0.0 ], [ 139.6543684, 35.2831844, 0.0 ], [ 139.6542289, 35.283307, 0.0 ] ] } },
{ "type": "Feature", "properties": { "Name": "ライン 3", "description": null }, "geometry": { "type": "LineString", "coordinates": [ [ 139.654245, 35.2833157, 0.0 ], [ 139.6542394, 35.2830179, 0.0 ], [ 139.6539926, 35.2830354, 0.0 ], [ 139.6535742, 35.2830661, 0.0 ], [ 139.6535393, 35.283019, 0.0 ], [ 139.6534589, 35.2829719, 0.0 ], [ 139.6533341, 35.2828974, 0.0 ], [ 139.6532389, 35.2828887, 0.0 ], [ 139.6531451, 35.2828953, 0.0 ], [ 139.6530485, 35.282904, 0.0 ], [ 139.6529761, 35.2829041, 0.0 ], [ 139.6529446, 35.2828291, 0.0 ], [ 139.6528889, 35.2827431, 0.0 ], [ 139.6528393, 35.2826719, 0.0 ], [ 139.6527267, 35.2824508, 0.0 ], [ 139.6526811, 35.2823424, 0.0 ], [ 139.6526327, 35.282199, 0.0 ], [ 139.6525807, 35.2821749, 0.0 ], [ 139.652477, 35.2821727, 0.0 ], [ 139.6523813, 35.2821946, 0.0 ], [ 139.6523052, 35.2820556, 0.0 ], [ 139.6520386, 35.2821136, 0.0 ], [ 139.6519025, 35.2822472, 0.0 ], [ 139.6518329, 35.2823047, 0.0 ], [ 139.6519216, 35.282395, 0.0 ], [ 139.6519032, 35.2824705, 0.0 ], [ 139.6517905, 35.2825488, 0.0 ], [ 139.6516752, 35.2827103, 0.0 ], [ 139.6515947, 35.2828368, 0.0 ], [ 139.6515652, 35.2829501, 0.0 ], [ 139.6515089, 35.2830661, 0.0 ], [ 139.6510046, 35.2831843, 0.0 ], [ 139.650849, 35.2827289, 0.0 ], [ 139.6509885, 35.2824399, 0.0 ], [ 139.650436, 35.2820589, 0.0 ] ] } },
{ "type": "Feature", "properties": { "Name": "ライン 4", "description": null }, "geometry": { "type": "LineString", "coordinates": [ [ 139.6504199, 35.2820502, 0.0 ], [ 139.64986, 35.2817699, 0.0 ], [ 139.6488729, 35.2814108, 0.0 ], [ 139.6480897, 35.2811656, 0.0 ], [ 139.6476713, 35.2812444, 0.0 ], [ 139.647167, 35.2814897, 0.0 ], [ 139.6469954, 35.2815772, 0.0 ], [ 139.6467808, 35.2814459, 0.0 ], [ 139.6467379, 35.281297, 0.0 ], [ 139.6463838, 35.281297, 0.0 ], [ 139.6460298, 35.2811393, 0.0 ], [ 139.6458259, 35.2808853, 0.0 ], [ 139.6453753, 35.2803686, 0.0 ], [ 139.645032, 35.2800971, 0.0 ], [ 139.6448925, 35.2800883, 0.0 ], [ 139.6446458, 35.2801496, 0.0 ], [ 139.6443454, 35.2801058, 0.0 ], [ 139.6442595, 35.2800183, 0.0 ], [ 139.644002, 35.2800445, 0.0 ], [ 139.6438733, 35.2801146, 0.0 ], [ 139.6436587, 35.2800183, 0.0 ], [ 139.6433047, 35.2799219, 0.0 ], [ 139.6431437, 35.2799394, 0.0 ], [ 139.6429399, 35.2796942, 0.0 ], [ 139.6427146, 35.279484, 0.0 ], [ 139.6430472, 35.2791862, 0.0 ], [ 139.6427897, 35.2789235, 0.0 ], [ 139.6426502, 35.2786607, 0.0 ], [ 139.6423283, 35.2788797, 0.0 ], [ 139.6421889, 35.2787658, 0.0 ], [ 139.6419528, 35.2791074, 0.0 ], [ 139.6416631, 35.2792037, 0.0 ], [ 139.6414378, 35.2791161, 0.0 ], [ 139.6412555, 35.2791512, 0.0 ], [ 139.6412555, 35.2793439, 0.0 ], [ 139.6411482, 35.27923, 0.0 ], [ 139.6410194, 35.2793614, 0.0 ], [ 139.6407619, 35.2793701, 0.0 ], [ 139.6404722, 35.2790636, 0.0 ] ] } },
{ "type": "Feature", "properties": { "Name": "ライン 5", "description": null }, "geometry": { "type": "LineString", "coordinates": [ [ 139.6404722, 35.2790636, 0.0 ], [ 139.6403188, 35.2791427, 0.0 ], [ 139.6402115, 35.27895, 0.0 ], [ 139.6400506, 35.2791252, 0.0 ], [ 139.6399111, 35.279204, 0.0 ], [ 139.6396858, 35.2795018, 0.0 ], [ 139.6390528, 35.2798522, 0.0 ], [ 139.6387846, 35.2801587, 0.0 ], [ 139.6382159, 35.2799835, 0.0 ], [ 139.6376902, 35.2798084, 0.0 ], [ 139.6375186, 35.2795719, 0.0 ], [ 139.6370572, 35.2797471, 0.0 ], [ 139.6367354, 35.2796332, 0.0 ], [ 139.635641, 35.28015, 0.0 ], [ 139.6355445, 35.2804039, 0.0 ], [ 139.6356625, 35.2805178, 0.0 ], [ 139.6353621, 35.2809119, 0.0 ], [ 139.6355123, 35.2812097, 0.0 ], [ 139.6360809, 35.2816739, 0.0 ], [ 139.636156, 35.2821468, 0.0 ], [ 139.6361131, 35.2824446, 0.0 ], [ 139.6363277, 35.2834343, 0.0 ], [ 139.6362418, 35.2836094, 0.0 ], [ 139.6363277, 35.2839773, 0.0 ], [ 139.6362418, 35.284205, 0.0 ], [ 139.6365744, 35.2848005, 0.0 ], [ 139.637162, 35.28545, 0.0 ], [ 139.6372825, 35.2863594, 0.0 ], [ 139.6371942, 35.2866936, 0.0 ] ] } },
{ "type": "Feature", "properties": { "Name": "ライン 6", "description": null }, "geometry": { "type": "LineString", "coordinates": [ [ 139.6371942, 35.2866936, 0.0 ], [ 139.6368704, 35.2870197, 0.0 ], [ 139.6368168, 35.2872605, 0.0 ], [ 139.6368114, 35.2874926, 0.0 ], [ 139.6365432, 35.287694, 0.0 ], [ 139.6363018, 35.2875801, 0.0 ], [ 139.636098, 35.2876196, 0.0 ], [ 139.6357815, 35.2878604, 0.0 ], [ 139.6357385, 35.2881275, 0.0 ], [ 139.6354267, 35.2887832, 0.0 ], [ 139.6353945, 35.2887712, 0.0 ], [ 139.6353345, 35.2888024, 0.0 ], [ 139.6350868, 35.2888675, 0.0 ], [ 139.6350636, 35.2888782, 0.0 ], [ 139.6350204, 35.2889184, 0.0 ], [ 139.6350046, 35.2889088, 0.0 ], [ 139.6350143, 35.2888412, 0.0 ], [ 139.6349506, 35.2888544, 0.0 ], [ 139.634891, 35.2888763, 0.0 ], [ 139.6348662, 35.2888629, 0.0 ], [ 139.63484, 35.2888166, 0.0 ], [ 139.6348024, 35.2887482, 0.0 ], [ 139.6347575, 35.2887082, 0.0 ], [ 139.6347193, 35.2886617, 0.0 ], [ 139.6348051, 35.2885697, 0.0 ], [ 139.6347944, 35.2884997, 0.0 ], [ 139.6346067, 35.2883158, 0.0 ], [ 139.634376, 35.2881669, 0.0 ], [ 139.6341185, 35.2882151, 0.0 ], [ 139.6339307, 35.28818, 0.0 ], [ 139.6336679, 35.2880662, 0.0 ], [ 139.6333728, 35.2880224, 0.0 ], [ 139.6333246, 35.2882238, 0.0 ], [ 139.6332749, 35.2883103, 0.0 ], [ 139.6332039, 35.2883749, 0.0 ], [ 139.6331314, 35.2885303, 0.0 ], [ 139.6330885, 35.2885916, 0.0 ], [ 139.632949, 35.2886573, 0.0 ] ] } },
{ "type": "Feature", "properties": { "Name": "ライン 7", "description": null }, "geometry": { "type": "LineString", "coordinates": [ [ 139.632949, 35.2886573, 0.0 ], [ 139.6325414, 35.2888173, 0.0 ], [ 139.6324341, 35.2890012, 0.0 ], [ 139.6321873, 35.2892114, 0.0 ], [ 139.6323912, 35.2897981, 0.0 ], [ 139.6324448, 35.2898945, 0.0 ], [ 139.6324448, 35.290271, 0.0 ], [ 139.632198, 35.2906739, 0.0 ], [ 139.6320907, 35.2909541, 0.0 ], [ 139.6321229, 35.2917597, 0.0 ], [ 139.6319942, 35.2919261, 0.0 ], [ 139.6321444, 35.2922414, 0.0 ], [ 139.6325521, 35.2926705, 0.0 ], [ 139.6324663, 35.2931521, 0.0 ], [ 139.6319405, 35.2934674, 0.0 ], [ 139.6317045, 35.2934148, 0.0 ], [ 139.6307604, 35.2938702, 0.0 ], [ 139.6299772, 35.2936162, 0.0 ], [ 139.6293978, 35.2934499, 0.0 ], [ 139.6277134, 35.2932309, 0.0 ] ] } },
{ "type": "Feature", "properties": { "Name": "ライン 8", "description": null }, "geometry": { "type": "LineString", "coordinates": [ [ 139.6277134, 35.2932309, 0.0 ], [ 139.6271578, 35.2931716, 0.0 ], [ 139.6263477, 35.2930884, 0.0 ], [ 139.6260151, 35.2930534, 0.0 ], [ 139.6253178, 35.2930796, 0.0 ], [ 139.625248, 35.2931803, 0.0 ], [ 139.6251354, 35.2931672, 0.0 ], [ 139.624953, 35.293246, 0.0 ], [ 139.6248886, 35.2933117, 0.0 ], [ 139.624835, 35.2935, 0.0 ], [ 139.6247491, 35.2936051, 0.0 ], [ 139.6246043, 35.2937583, 0.0 ], [ 139.6246901, 35.2939247, 0.0 ], [ 139.6245453, 35.2940035, 0.0 ], [ 139.6245721, 35.2940779, 0.0 ], [ 139.6248886, 35.2940648, 0.0 ], [ 139.6252588, 35.2942137, 0.0 ], [ 139.6251354, 35.2944764, 0.0 ], [ 139.625409, 35.2946603, 0.0 ], [ 139.6252319, 35.294866, 0.0 ], [ 139.6259508, 35.295247, 0.0 ], [ 139.6256986, 35.2954878, 0.0 ], [ 139.6256772, 35.2958906, 0.0 ], [ 139.6257469, 35.296092, 0.0 ], [ 139.6259561, 35.2963109, 0.0 ], [ 139.6262619, 35.2964072, 0.0 ], [ 139.6268895, 35.2964028, 0.0 ], [ 139.6267279, 35.2970413, 0.0 ], [ 139.6269164, 35.2971515, 0.0 ] ] } },
{ "type": "Feature", "properties": { "Name": "ライン 9", "description": null }, "geometry": { "type": "LineString", "coordinates": [ [ 139.6269164, 35.2971515, 0.0 ], [ 139.6268032, 35.2973463, 0.0 ], [ 139.6268783, 35.2974076, 0.0 ], [ 139.6270177, 35.2974776, 0.0 ], [ 139.6269534, 35.2978016, 0.0 ] ] } },
{ "type": "Feature", "properties": { "Name": "ライン 10", "description": null }, "geometry": { "type": "LineString", "coordinates": [ [ 139.6269534, 35.2978016, 0.0 ], [ 139.6269051, 35.297841, 0.0 ], [ 139.626948, 35.2980118, 0.0 ], [ 139.6269051, 35.2981782, 0.0 ], [ 139.6268354, 35.2982219, 0.0 ], [ 139.6269051, 35.2984365, 0.0 ], [ 139.6270553, 35.2984409, 0.0 ], [ 139.6271787, 35.2986423, 0.0 ], [ 139.6272752, 35.2989925, 0.0 ], [ 139.6268834, 35.2990597, 0.0 ], [ 139.6266852, 35.2992333, 0.0 ], [ 139.6265189, 35.2993077, 0.0 ], [ 139.6263204, 35.2994916, 0.0 ], [ 139.6261433, 35.2999382, 0.0 ], [ 139.6267226, 35.3002717, 0.0 ], [ 139.6255211, 35.3011772, 0.0 ] ] } },
{ "type": "Feature", "properties": { "Name": "ライン 11", "description": null }, "geometry": { "type": "LineString", "coordinates": [ [ 139.6255211, 35.3011772, 0.0 ], [ 139.6249431, 35.3019726, 0.0 ], [ 139.6251577, 35.3032335, 0.0 ], [ 139.6252006, 35.3043192, 0.0 ], [ 139.6256512, 35.3050372, 0.0 ], [ 139.6259301, 35.3059303, 0.0 ], [ 139.6256083, 35.3063505, 0.0 ], [ 139.6255868, 35.3068583, 0.0 ], [ 139.6250504, 35.3072436, 0.0 ], [ 139.6248358, 35.3078915, 0.0 ], [ 139.6238702, 35.3081016, 0.0 ], [ 139.6238353, 35.3088393, 0.0 ], [ 139.623665, 35.3089684, 0.0 ], [ 139.6235832, 35.3091304, 0.0 ], [ 139.6236208, 35.3093755, 0.0 ], [ 139.6237387, 35.3095703, 0.0 ], [ 139.6236167, 35.3097487, 0.0 ], [ 139.6235028, 35.3099096, 0.0 ], [ 139.6235108, 35.3100365, 0.0 ], [ 139.6233981, 35.3103079, 0.0 ] ] } },
{ "type": "Feature", "properties": { "Name": "ライン 12", "description": null }, "geometry": { "type": "LineString", "coordinates": [ [ 139.6233975, 35.3103383, 0.0 ], [ 139.6235236, 35.3104477, 0.0 ], [ 139.6238696, 35.3105353, 0.0 ], [ 139.6239581, 35.31059, 0.0 ], [ 139.6241298, 35.3113079, 0.0 ], [ 139.6240868, 35.311367, 0.0 ], [ 139.6241485, 35.3115498, 0.0 ], [ 139.6241405, 35.3116231, 0.0 ], [ 139.6241942, 35.3121396, 0.0 ], [ 139.6244087, 35.3126824, 0.0 ], [ 139.6245831, 35.3135513, 0.0 ], [ 139.6244087, 35.3134988, 0.0 ], [ 139.6242478, 35.3134879, 0.0 ], [ 139.6240761, 35.3136629, 0.0 ], [ 139.6239903, 35.3139606, 0.0 ], [ 139.6241191, 35.3142583, 0.0 ], [ 139.6242666, 35.3142758, 0.0 ], [ 139.6243336, 35.3143174, 0.0 ], [ 139.6240091, 35.3147234, 0.0 ], [ 139.6240171, 35.3147726, 0.0 ], [ 139.6240869, 35.3148011, 0.0 ], [ 139.6240761, 35.3148361, 0.0 ], [ 139.623934, 35.3148404, 0.0 ], [ 139.6237865, 35.3148361, 0.0 ], [ 139.6237187, 35.314893, 0.0 ], [ 139.6236349, 35.314998, 0.0 ], [ 139.623537, 35.3150243, 0.0 ], [ 139.623427, 35.314998, 0.0 ], [ 139.6232715, 35.3149827, 0.0 ], [ 139.6233238, 35.3151036, 0.0 ], [ 139.6233171, 35.3152464, 0.0 ], [ 139.6232822, 35.3155539, 0.0 ], [ 139.6232232, 35.3156656, 0.0 ], [ 139.6232581, 35.3157838, 0.0 ], [ 139.6235182, 35.3160092, 0.0 ], [ 139.6237543, 35.3164644, 0.0 ], [ 139.623588, 35.3164775, 0.0 ], [ 139.623427, 35.3165695, 0.0 ], [ 139.6232286, 35.3167446, 0.0 ], [ 139.6230998, 35.3169984, 0.0 ], [ 139.6233103, 35.3170772, 0.0 ], [ 139.6235263, 35.3172085, 0.0 ], [ 139.6238508, 35.3175062, 0.0 ], [ 139.6232661, 35.3177973, 0.0 ], [ 139.6227458, 35.3181365, 0.0 ] ] } },
{ "type": "Feature", "properties": { "Name": "ライン 13", "description": null }, "geometry": { "type": "LineString", "coordinates": [ [ 139.6227458, 35.3181365, 0.0 ], [ 139.6224437, 35.318432, 0.0 ], [ 139.6221433, 35.3189014, 0.0 ] ] } },
{ "type": "Feature", "properties": { "Name": "ライン 15", "description": null }, "geometry": { "type": "LineString", "coordinates": [ [ 139.6617069, 35.2803555, 0.0 ], [ 139.6617573, 35.2802827, 0.0 ], [ 139.6617841, 35.2802301, 0.0 ], [ 139.6636885, 35.2803133, 0.0 ], [ 139.6646594, 35.2802477, 0.0 ], [ 139.6650564, 35.2801075, 0.0 ], [ 139.6653622, 35.2800418, 0.0 ], [ 139.6655875, 35.2801382, 0.0 ], [ 139.665684, 35.2802914, 0.0 ], [ 139.6657162, 35.2806549, 0.0 ], [ 139.6659898, 35.2806943, 0.0 ], [ 139.6660059, 35.2806374, 0.0 ], [ 139.6662151, 35.2808651, 0.0 ], [ 139.6665048, 35.28076, 0.0 ], [ 139.6666174, 35.2806637, 0.0 ], [ 139.6664297, 35.2804579, 0.0 ], [ 139.6661078, 35.2802871, 0.0 ], [ 139.6660059, 35.2802564, 0.0 ], [ 139.666258, 35.279998, 0.0 ], [ 139.6660756, 35.279928, 0.0 ], [ 139.6656143, 35.2799061, 0.0 ], [ 139.6657645, 35.2797747, 0.0 ], [ 139.665786, 35.2794331, 0.0 ], [ 139.6658503, 35.2793499, 0.0 ], [ 139.6661346, 35.2793762, 0.0 ], [ 139.6662956, 35.2795119, 0.0 ], [ 139.666655, 35.27942, 0.0 ], [ 139.6668159, 35.2791835, 0.0 ], [ 139.6668481, 35.2789689, 0.0 ], [ 139.6667945, 35.2787631, 0.0 ], [ 139.6668588, 35.2785967, 0.0 ], [ 139.66717, 35.2784171, 0.0 ] ] } },
{ "type": "Feature", "properties": { "Name": "ライン 16", "description": null }, "geometry": { "type": "LineString", "coordinates": [ [ 139.66717, 35.2784171, 0.0 ], [ 139.6671803, 35.278259, 0.0 ], [ 139.6670784, 35.2780094, 0.0 ], [ 139.6672017, 35.2777467, 0.0 ], [ 139.6672232, 35.2775759, 0.0 ], [ 139.6673519, 35.277427, 0.0 ], [ 139.6673788, 35.2772781, 0.0 ], [ 139.6676738, 35.2771292, 0.0 ], [ 139.6677489, 35.2767482, 0.0 ], [ 139.6679742, 35.2763715, 0.0 ], [ 139.6683604, 35.2762314, 0.0 ], [ 139.6693099, 35.2762533, 0.0 ], [ 139.6695889, 35.276227, 0.0 ], [ 139.6698088, 35.2761745, 0.0 ] ] } },
{ "type": "Feature", "properties": { "Name": "ライン 17", "description": null }, "geometry": { "type": "LineString", "coordinates": [ [ 139.6698088, 35.2761745, 0.0 ], [ 139.6697071, 35.2758629, 0.0 ], [ 139.6704259, 35.2729023, 0.0 ], [ 139.6712735, 35.2721403, 0.0 ], [ 139.6711769, 35.2720527, 0.0 ], [ 139.6713378, 35.2717943, 0.0 ], [ 139.6714344, 35.2710235, 0.0 ] ] } },
{ "type": "Feature", "properties": { "Name": "ライン 19", "description": null }, "geometry": { "type": "LineString", "coordinates": [ [ 139.6714344, 35.2710235, 0.0 ], [ 139.671783, 35.2710413, 0.0 ], [ 139.6719385, 35.2710106, 0.0 ], [ 139.6720297, 35.2715668, 0.0 ], [ 139.6724052, 35.2715581, 0.0 ], [ 139.6729953, 35.2716939, 0.0 ], [ 139.6738644, 35.2718778, 0.0 ], [ 139.6749319, 35.2721888, 0.0 ], [ 139.6749694, 35.2724034, 0.0 ], [ 139.675125, 35.2724384, 0.0 ], [ 139.6753449, 35.272088, 0.0 ], [ 139.6757795, 35.2715931, 0.0 ], [ 139.6762676, 35.2712209, 0.0 ], [ 139.6776785, 35.2702442, 0.0 ] ] } },
{ "type": "Feature", "properties": { "Name": "ライン 20", "description": null }, "geometry": { "type": "LineString", "coordinates": [ [ 139.6776785, 35.2702442, 0.0 ], [ 139.6785877, 35.2697275, 0.0 ], [ 139.67899, 35.2695742, 0.0 ], [ 139.6794192, 35.269399, 0.0 ], [ 139.6803257, 35.2689785, 0.0 ], [ 139.6802238, 35.2688296, 0.0 ], [ 139.6803472, 35.2687902, 0.0 ], [ 139.6801863, 35.2684092, 0.0 ], [ 139.6802077, 35.2683479, 0.0 ], [ 139.6809158, 35.2681376, 0.0 ], [ 139.681109, 35.2680106, 0.0 ], [ 139.6809963, 35.2678792, 0.0 ], [ 139.6812377, 35.267704, 0.0 ], [ 139.6814791, 35.2676296, 0.0 ], [ 139.6821121, 35.2674062, 0.0 ] ] } },
{ "type": "Feature", "properties": { "Name": "ライン 21", "description": null }, "geometry": { "type": "LineString", "coordinates": [ [ 139.6821121, 35.2674062, 0.0 ], [ 139.6821486, 35.2676089, 0.0 ], [ 139.6823364, 35.2676133, 0.0 ], [ 139.682508, 35.2677797, 0.0 ], [ 139.6829425, 35.2675125, 0.0 ], [ 139.6834146, 35.2672979, 0.0 ], [ 139.6836399, 35.2670877, 0.0 ], [ 139.6838062, 35.2669213, 0.0 ], [ 139.6841871, 35.2666672, 0.0 ], [ 139.6845626, 35.2665139, 0.0 ], [ 139.6849703, 35.2664789, 0.0 ], [ 139.685437, 35.2661986, 0.0 ], [ 139.6856409, 35.2661329, 0.0 ], [ 139.685893, 35.2661635, 0.0 ], [ 139.6865743, 35.2658482, 0.0 ], [ 139.6869873, 35.2655679, 0.0 ], [ 139.6871643, 35.2654496, 0.0 ] ] } },
{ "type": "Feature", "properties": { "Name": "ライン 22", "description": null }, "geometry": { "type": "LineString", "coordinates": [ [ 139.6871643, 35.2654496, 0.0 ], [ 139.6877402, 35.2648823, 0.0 ], [ 139.6880835, 35.2646283, 0.0 ], [ 139.6891564, 35.2641334, 0.0 ], [ 139.6895533, 35.2638443, 0.0 ], [ 139.6897786, 35.263726, 0.0 ], [ 139.6912592, 35.263196, 0.0 ], [ 139.6917903, 35.2630515, 0.0 ], [ 139.6921819, 35.2630997, 0.0 ], [ 139.6924716, 35.2630778, 0.0 ], [ 139.6929007, 35.2629157, 0.0 ] ] } },
{ "type": "Feature", "properties": { "Name": "ライン 23", "description": null }, "geometry": { "type": "LineString", "coordinates": [ [ 139.6929007, 35.2629157, 0.0 ], [ 139.6936166, 35.2626203, 0.0 ], [ 139.6939707, 35.2624626, 0.0 ], [ 139.69455, 35.2624012, 0.0 ], [ 139.6947217, 35.2623312, 0.0 ], [ 139.6952689, 35.2619808, 0.0 ], [ 139.6970498, 35.2612799, 0.0 ], [ 139.6977579, 35.2613588, 0.0 ], [ 139.6981227, 35.26135, 0.0 ], [ 139.6985197, 35.2612799, 0.0 ], [ 139.6992385, 35.2610872, 0.0 ], [ 139.6994853, 35.2610697, 0.0 ], [ 139.7002578, 35.2608594, 0.0 ], [ 139.7010517, 35.2608769, 0.0 ], [ 139.7043454, 35.2601673, 0.0 ], [ 139.7057831, 35.2594402, 0.0 ], [ 139.706341, 35.2587657, 0.0 ] ] } },
{ "type": "Feature", "properties": { "Name": "ライン 24", "description": null }, "geometry": { "type": "LineString", "coordinates": [ [ 139.706341, 35.2587657, 0.0 ], [ 139.7067422, 35.2583607, 0.0 ], [ 139.707343, 35.258203, 0.0 ], [ 139.7078795, 35.2579226, 0.0 ], [ 139.7082442, 35.2575722, 0.0 ], [ 139.7083944, 35.2567837, 0.0 ], [ 139.7090167, 35.2562055, 0.0 ], [ 139.7093171, 35.2556448, 0.0 ], [ 139.7097248, 35.2543306, 0.0 ], [ 139.7100681, 35.2536823, 0.0 ], [ 139.7107977, 35.2528588, 0.0 ], [ 139.7116131, 35.2523331, 0.0 ], [ 139.7129649, 35.2517023, 0.0 ], [ 139.7140378, 35.2514219, 0.0 ], [ 139.7151321, 35.2503705, 0.0 ], [ 139.714939, 35.2500376, 0.0 ], [ 139.7149605, 35.2469534, 0.0 ] ] } },
{ "type": "Feature", "properties": { "Name": "ライン 25", "description": null }, "geometry": { "type": "LineString", "coordinates": [ [ 139.7149605, 35.2469534, 0.0 ], [ 139.7150108, 35.2465494, 0.0 ], [ 139.7155258, 35.2459273, 0.0 ], [ 139.7155472, 35.2456294, 0.0 ], [ 139.7154829, 35.2449722, 0.0 ], [ 139.7155365, 35.2447094, 0.0 ], [ 139.7157618, 35.2445254, 0.0 ], [ 139.7167489, 35.2444728, 0.0 ], [ 139.7173711, 35.2441048, 0.0 ], [ 139.717693, 35.2433337, 0.0 ], [ 139.718208, 35.242659, 0.0 ], [ 139.7183045, 35.2413709, 0.0 ], [ 139.7188517, 35.241073, 0.0 ], [ 139.7179719, 35.2404684, 0.0 ], [ 139.7173604, 35.2404246, 0.0 ], [ 139.7171673, 35.2402493, 0.0 ], [ 139.7173926, 35.2399601, 0.0 ] ] } },
{ "type": "Feature", "properties": { "Name": "ライン 27", "description": null }, "geometry": { "type": "LineString", "coordinates": [ [ 139.7173926, 35.2399601, 0.0 ], [ 139.7173261, 35.2398459, 0.0 ], [ 139.7169881, 35.2394516, 0.0 ], [ 139.7171383, 35.2393727, 0.0 ], [ 139.7171276, 35.2389433, 0.0 ], [ 139.7170203, 35.2385972, 0.0 ], [ 139.716795, 35.2383256, 0.0 ], [ 139.7164624, 35.2379006, 0.0 ], [ 139.7162585, 35.2375457, 0.0 ], [ 139.7163068, 35.2375763, 0.0 ], [ 139.7165429, 35.2376486, 0.0 ], [ 139.7168486, 35.2379312, 0.0 ], [ 139.7170632, 35.2380057, 0.0 ], [ 139.7172778, 35.2380451, 0.0 ], [ 139.7175085, 35.2380145, 0.0 ], [ 139.7178169, 35.2381634, 0.0 ], [ 139.7180932, 35.2383299, 0.0 ], [ 139.7181093, 35.2385315, 0.0 ], [ 139.7181575, 35.2385972, 0.0 ], [ 139.7185009, 35.2387111, 0.0 ], [ 139.7186457, 35.2388426, 0.0 ], [ 139.7191661, 35.2389039, 0.0 ], [ 139.719386, 35.2387593, 0.0 ], [ 139.7194987, 35.2386279, 0.0 ], [ 139.719504, 35.2384964, 0.0 ], [ 139.7193592, 35.2383562, 0.0 ], [ 139.7191285, 35.2383212, 0.0 ], [ 139.7191231, 35.2382029, 0.0 ], [ 139.7192626, 35.2381503, 0.0 ], [ 139.7202121, 35.2383694, 0.0 ], [ 139.7203462, 35.2381547, 0.0 ], [ 139.7192143, 35.2379181, 0.0 ], [ 139.7190963, 35.2378261, 0.0 ], [ 139.7190963, 35.2377253, 0.0 ], [ 139.7192573, 35.2376289, 0.0 ], [ 139.7195147, 35.2374449, 0.0 ], [ 139.7196006, 35.2374011, 0.0 ], [ 139.7197025, 35.2372302, 0.0 ], [ 139.7198366, 35.2371382, 0.0 ], [ 139.7203033, 35.2374668, 0.0 ], [ 139.720416, 35.2375325, 0.0 ], [ 139.7207807, 35.2375939, 0.0 ], [ 139.7208988, 35.2374449, 0.0 ], [ 139.7213011, 35.2367701, 0.0 ], [ 139.7213065, 35.2366518, 0.0 ], [ 139.7213386, 35.236573, 0.0 ], [ 139.7205662, 35.2362137, 0.0 ], [ 139.7201746, 35.2361786, 0.0 ], [ 139.7197347, 35.2362443, 0.0 ], [ 139.7187262, 35.2360954, 0.0 ], [ 139.7186457, 35.2365773, 0.0 ] ] } },
{ "type": "Feature", "properties": { "Name": "浦賀 奉行所跡 咸臨丸運用方教授 濱口興右衛門勤務地", "description": "四囲を巡る石垣と石橋のみ残る。元々東西45間（約81m）、南北40間（約72m）程の広さ。役所の建坪が約610坪。天保期の絵図によると、役所は周囲を堀で囲まれ、東面北側に表門、北面中央に裏門があった。門前に与力や同心と呼ばれる役人の住む家が並んでいた。享保6年（1721年）から慶応4年まで約150年間、52人の奉行が勤めた。浦賀病院の前が浦賀奉行所の出先機関で「船改め」を行った船番所跡である。" }, "geometry": { "type": "Point", "coordinates": [ 139.719184, 35.2362723, 0.0 ] } },
{ "type": "Feature", "properties": { "Name": "Hamamachi Tametomo Shrine", "description": null }, "geometry": { "type": "Point", "coordinates": [ 139.7212515, 35.2366825, 0.0 ] } },
{ "type": "Feature", "properties": { "Name": "Jofukuji", "description": null }, "geometry": { "type": "Point", "coordinates": [ 139.7177531, 35.2398943, 0.0 ] } },
{ "type": "Feature", "properties": { "Name": "大衆帰本塚", "description": null }, "geometry": { "type": "Point", "coordinates": [ 139.7147944, 35.2476825, 0.0 ] } },
{ "type": "Feature", "properties": { "Name": "矢の津坂", "description": null }, "geometry": { "type": "Point", "coordinates": [ 139.7060183, 35.2591555, 0.0 ] } },
{ "type": "Feature", "properties": { "Name": "大津（たいしん）館跡", "description": null }, "geometry": { "type": "Point", "coordinates": [ 139.6943397, 35.2625427, 0.0 ] } },
{ "type": "Feature", "properties": { "Name": "砂坂地蔵尊", "description": null }, "geometry": { "type": "Point", "coordinates": [ 139.6918313, 35.2630964, 0.0 ] } },
{ "type": "Feature", "properties": { "Name": "Kasuga Shrine", "description": null }, "geometry": { "type": "Point", "coordinates": [ 139.6867593, 35.2651589, 0.0 ] } },
{ "type": "Feature", "properties": { "Name": "Jorenji", "description": null }, "geometry": { "type": "Point", "coordinates": [ 139.682277, 35.267503, 0.0 ] } },
{ "type": "Feature", "properties": { "Name": "永嶋家赤門", "description": null }, "geometry": { "type": "Point", "coordinates": [ 139.6749841, 35.2724358, 0.0 ] } },
{ "type": "Feature", "properties": { "Name": "Myoryu Hotoku Benzaiten", "description": "税務署の前の商店街一体は、池之端と呼ばれているが、昔ここに田戸溜池とよばれる大きな池があったことによる。東西76m、南北109m、面積8500平方メートル。近隣の人々の憩いの場でもあり、佐野の水田の灌漑用水として使われたが、明治30年頃から埋め立てが始まり、明治の末期には姿を消した。弁天様が祀られている。" }, "geometry": { "type": "Point", "coordinates": [ 139.671294, 35.2720199, 0.0 ] } },
{ "type": "Feature", "properties": { "Name": "道路元標", "description": "平坂上の派出所前、浦賀道が平坂と交差する辺りに「道路元標」と刻まれた石柱が立つ。道路の起点、終点や経過地を示す標識で大正8年の旧道路法によって置かれ、それ以前は木製であったという。国道31号（現16号線）の終点であり、県道横須賀三崎線の起点でもあった。" }, "geometry": { "type": "Point", "coordinates": [ 139.6697487, 35.2761741, 0.0 ] } },
{ "type": "Feature", "properties": { "Name": "うぐいす坂", "description": "浦賀道のうち、この周辺はうっそうとした樹木に覆われ、うぐいすの鳴く音が絶えないので、特にこの坂は「うぐいす坂」と呼ばれていた。この坂上に咸臨丸渡米時の副艦長格であった浜口英幹（ひでもと）が幕末から明治にかけて住んであおり、花に包まれたたたずまいで花屋敷と呼ばれていた。" }, "geometry": { "type": "Point", "coordinates": [ 139.6672625, 35.2775539, 0.0 ] } },
{ "type": "Feature", "properties": { "Name": "禁廷水の碑", "description": null }, "geometry": { "type": "Point", "coordinates": [ 139.6660778, 35.2802835, 0.0 ] } },
{ "type": "Feature", "properties": { "Name": "御幸橋の碑", "description": "横須賀造船所の進水式に臨まれる明治天皇が何度も行幸された橋の名残の欄干。馬車がすれ違うのがやっとの幅の小さな橋であったという。元は汐入駅の近くにあった。最初は木製で大正4年に石橋に改修された。" }, "geometry": { "type": "Point", "coordinates": [ 139.6613619, 35.2808239, 0.0 ] } },
{ "type": "Feature", "properties": { "Name": "Shrine", "description": "稲荷山の中腹にあたる場所にある。本尊には左に「元禄十一年丑七月」と、右に「南無阿弥陀仏同行十六人」と刻まれている。元禄の頃、子供連れの旅人16人全員が飢えのため、ここで亡くなったという。村人が大変哀れんで地蔵尊を建てて冥福を祈ったといわれている。" }, "geometry": { "type": "Point", "coordinates": [ 139.6542409, 35.2831509, 0.0 ] } },
{ "type": "Feature", "properties": { "Name": "逸見旅館跡", "description": "明治初期に開業した。昭和初期からは官納業の許可を得て、大晦日には餅や松飾を横須賀港に停泊中の軍艦に納めた。太平洋戦争時には海兵団入隊の親子が最後の一夜を過ごし大変賑わったという。平成22年に取り壊された。" }, "geometry": { "type": "Point", "coordinates": [ 139.6528699, 35.2822306, 0.0 ] } },
{ "type": "Feature", "properties": { "Name": "Jodoji", "description": null }, "geometry": { "type": "Point", "coordinates": [ 139.6506, 35.282958, 0.0 ] } },
{ "type": "Feature", "properties": { "Name": "Kashima Shrine", "description": null }, "geometry": { "type": "Point", "coordinates": [ 139.6508619, 35.2822051, 0.0 ] } },
{ "type": "Feature", "properties": { "Name": "Anjinzuka (Grave of William Adams)", "description": null }, "geometry": { "type": "Point", "coordinates": [ 139.6408083, 35.2791722, 0.0 ] } },
{ "type": "Feature", "properties": { "Name": "十三峠", "description": null }, "geometry": { "type": "Point", "coordinates": [ 139.6356028, 35.2803459, 0.0 ] } },
{ "type": "Feature", "properties": { "Name": "開拓記念碑", "description": "戦後の食糧不足の対策として、昭和23年3月に十三峠農地開拓団が結成され、鍬入れ式が行われた。当時の入植者は20世帯で掘っ立て小屋を建て、ランプの下で寝起きしたという。昭和32年に記念碑が建てられた。" }, "geometry": { "type": "Point", "coordinates": [ 139.6360384, 35.2821531, 0.0 ] } },
{ "type": "Feature", "properties": { "Name": "道六神石碑", "description": null }, "geometry": { "type": "Point", "coordinates": [ 139.6349648, 35.2888898, 0.0 ] } },
{ "type": "Feature", "properties": { "Name": "Chozenji", "description": null }, "geometry": { "type": "Point", "coordinates": [ 139.6332128, 35.2886761, 0.0 ] } },
{ "type": "Feature", "properties": { "Name": "Moripuku Temple", "description": null }, "geometry": { "type": "Point", "coordinates": [ 139.6255006, 35.293823, 0.0 ] } },
{ "type": "Feature", "properties": { "Name": "首斬観音像", "description": "碑名の本当に罪人の首を切ったのか言い伝えだけで記録は無いが、天保年間は凶作が続き犯罪も多発した時代で、罪人が処刑されたことも有ったと思われる。碑文は船越に住んだ俳人の「松竹庵梅月」の書によるもの。" }, "geometry": { "type": "Point", "coordinates": [ 139.6233412, 35.3102843, 0.0 ] } },
{ "type": "Feature", "properties": { "Name": "浦之郷陣屋跡地", "description": "小田原北条氏時代の浦郷村領主の朝倉能登守景隆の屋敷があったところと伝えられ、戦国時代から江戸時代の後期にかけて陣屋が置かれた場所。前橋藩、川越藩、会津藩などが、この地を陣屋または支陣屋として使用し、税の取立てや治安維持、海防の守りについた。" }, "geometry": { "type": "Point", "coordinates": [ 139.6243104, 35.3143723, 0.0 ] } },
{ "type": "Feature", "properties": { "Name": "Kaminari Shrine", "description": null }, "geometry": { "type": "Point", "coordinates": [ 139.6240221, 35.3180013, 0.0 ] } },
{ "type": "Feature", "properties": { "Name": "傍示堂の石塔群", "description": null }, "geometry": { "type": "Point", "coordinates": [ 139.6229297, 35.3181208, 0.0 ] } }
]
}
