{
"type": "FeatureCollection",
"name": "Pu He Dao Xi",
"features": [
{ "type": "Feature", "properties": { "Name": "ライン 1" }, "geometry": { "type": "LineString", "coordinates": [ [ 139.6970498, 35.2612799, 0.0 ], [ 139.6966056, 35.2608925, 0.0 ], [ 139.6963589, 35.260656, 0.0 ], [ 139.696273, 35.2605509, 0.0 ], [ 139.6957259, 35.2604282, 0.0 ], [ 139.6955971, 35.2602705, 0.0 ], [ 139.6949641, 35.2603231, 0.0 ], [ 139.6946101, 35.2595872, 0.0 ], [ 139.6944599, 35.2593244, 0.0 ], [ 139.6942453, 35.2592456, 0.0 ], [ 139.6939985, 35.2592631, 0.0 ], [ 139.6938483, 35.2591141, 0.0 ], [ 139.6933655, 35.2593156, 0.0 ], [ 139.6930329, 35.2595171, 0.0 ], [ 139.6920673, 35.2574934, 0.0 ] ] } },
{ "type": "Feature", "properties": { "Name": "大津陣屋跡" }, "geometry": { "type": "Point", "coordinates": [ 139.6926145, 35.2590572, 0.0 ] } },
{ "type": "Feature", "properties": { "Name": "大津諏訪神社" }, "geometry": { "type": "Point", "coordinates": [ 139.69275, 35.2573025, 0.0 ] } },
{ "type": "Feature", "properties": { "Name": "ライン 3" }, "geometry": { "type": "LineString", "coordinates": [ [ 139.6920673, 35.2574934, 0.0 ], [ 139.6906297, 35.2579402, 0.0 ], [ 139.6904795, 35.257949, 0.0 ], [ 139.6895675, 35.2582468, 0.0 ], [ 139.6888272, 35.2589827, 0.0 ], [ 139.6885268, 35.2591755, 0.0 ], [ 139.6882908, 35.2588776, 0.0 ], [ 139.6879796, 35.2588776, 0.0 ], [ 139.6877329, 35.2587725, 0.0 ], [ 139.6875183, 35.2588338, 0.0 ], [ 139.6870462, 35.2586586, 0.0 ], [ 139.686381, 35.2589565, 0.0 ], [ 139.6861021, 35.2589565, 0.0 ], [ 139.6856408, 35.2591141, 0.0 ], [ 139.6849863, 35.2591054, 0.0 ], [ 139.6848468, 35.2588951, 0.0 ] ] } },
{ "type": "Feature", "properties": { "Name": "ライン 4" }, "geometry": { "type": "LineString", "coordinates": [ [ 139.6848468, 35.2588951, 0.0 ], [ 139.684128, 35.2589477, 0.0 ], [ 139.6841065, 35.2586674, 0.0 ], [ 139.6839456, 35.2584221, 0.0 ], [ 139.6837632, 35.2578614, 0.0 ], [ 139.6829049, 35.2573182, 0.0 ], [ 139.6821324, 35.2570554, 0.0 ], [ 139.6816925, 35.2566261, 0.0 ], [ 139.6807806, 35.2561092, 0.0 ], [ 139.6798686, 35.2557763, 0.0 ], [ 139.6793644, 35.256188, 0.0 ], [ 139.6784524, 35.2564071, 0.0 ], [ 139.6780877, 35.2566874, 0.0 ], [ 139.6778087, 35.2567137, 0.0 ] ] } },
{ "type": "Feature", "properties": { "Name": "ライン 5" }, "geometry": { "type": "LineString", "coordinates": [ [ 139.6778087, 35.2567137, 0.0 ], [ 139.6774761, 35.2565998, 0.0 ], [ 139.6773688, 35.2561092, 0.0 ], [ 139.6756844, 35.2561004, 0.0 ], [ 139.6746973, 35.2559953, 0.0 ], [ 139.6739678, 35.2556361, 0.0 ], [ 139.6728091, 35.2553908, 0.0 ], [ 139.6727125, 35.2552594, 0.0 ], [ 139.6700088, 35.255785, 0.0 ] ] } },
{ "type": "Feature", "properties": { "Name": "公郷庚申塔群" }, "geometry": { "type": "Point", "coordinates": [ 139.668065, 35.2562584, 0.0 ] } },
{ "type": "Feature", "properties": { "Name": "宝塔２基" }, "geometry": { "type": "Point", "coordinates": [ 139.6652974, 35.2574354, 0.0 ] } },
{ "type": "Feature", "properties": { "Name": "ライン 7" }, "geometry": { "type": "LineString", "coordinates": [ [ 139.6700088, 35.255785, 0.0 ], [ 139.6693933, 35.255879, 0.0 ], [ 139.668991, 35.2559447, 0.0 ], [ 139.6684706, 35.2560718, 0.0 ], [ 139.6676606, 35.2563083, 0.0 ], [ 139.6670169, 35.2567507, 0.0 ], [ 139.6661264, 35.2570617, 0.0 ], [ 139.6660513, 35.2570136, 0.0 ], [ 139.6658367, 35.2571187, 0.0 ], [ 139.6656382, 35.2572895, 0.0 ], [ 139.665311, 35.2574691, 0.0 ] ] } },
{ "type": "Feature", "properties": { "Name": "ライン 8" }, "geometry": { "type": "LineString", "coordinates": [ [ 139.665311, 35.2574691, 0.0 ], [ 139.664224, 35.2578966, 0.0 ], [ 139.6639022, 35.2580192, 0.0 ], [ 139.6635535, 35.2581463, 0.0 ], [ 139.6631243, 35.2582558, 0.0 ], [ 139.6625289, 35.2584047, 0.0 ], [ 139.662325, 35.2585317, 0.0 ], [ 139.6619334, 35.2589522, 0.0 ], [ 139.6616384, 35.2591318, 0.0 ], [ 139.6611288, 35.2591932, 0.0 ], [ 139.6606782, 35.2595348, 0.0 ] ] } },
{ "type": "Feature", "properties": { "Name": "ライン 9" }, "geometry": { "type": "LineString", "coordinates": [ [ 139.6606782, 35.2595348, 0.0 ], [ 139.6605333, 35.25971, 0.0 ], [ 139.6578833, 35.25971, 0.0 ], [ 139.6568963, 35.2599729, 0.0 ], [ 139.6560916, 35.2601656, 0.0 ], [ 139.6550509, 35.2607963, 0.0 ], [ 139.65489, 35.2602532, 0.0 ], [ 139.6543642, 35.2604284, 0.0 ], [ 139.6541068, 35.2604284, 0.0 ], [ 139.653624, 35.2606036, 0.0 ], [ 139.6530339, 35.2606299, 0.0 ], [ 139.652712, 35.2605313, 0.0 ], [ 139.6525162, 35.2605478, 0.0 ], [ 139.6522882, 35.2605576, 0.0 ], [ 139.6520683, 35.260481, 0.0 ] ] } },
{ "type": "Feature", "properties": { "Name": "伝馬坂" }, "geometry": { "type": "Point", "coordinates": [ 139.6522963, 35.2605393, 0.0 ] } },
{ "type": "Feature", "properties": { "Name": "ライン 11" }, "geometry": { "type": "LineString", "coordinates": [ [ 139.6520683, 35.260481, 0.0 ], [ 139.6516552, 35.2602809, 0.0 ], [ 139.6515908, 35.2602108, 0.0 ], [ 139.6514567, 35.2601582, 0.0 ], [ 139.651108, 35.2601275, 0.0 ], [ 139.6508559, 35.2596895, 0.0 ], [ 139.6504697, 35.259326, 0.0 ], [ 139.6499118, 35.2592427, 0.0 ], [ 139.6497455, 35.2591464, 0.0 ], [ 139.649606, 35.2590544, 0.0 ], [ 139.6493914, 35.2590281, 0.0 ], [ 139.6488657, 35.2591376, 0.0 ], [ 139.6487692, 35.2592033, 0.0 ], [ 139.6486511, 35.2593216, 0.0 ], [ 139.6479967, 35.2593347, 0.0 ], [ 139.6475246, 35.2596545, 0.0 ] ] } },
{ "type": "Feature", "properties": { "Name": "ライン 12" }, "geometry": { "type": "LineString", "coordinates": [ [ 139.6475246, 35.2596545, 0.0 ], [ 139.6473047, 35.2596019, 0.0 ], [ 139.6466073, 35.259707, 0.0 ], [ 139.6458777, 35.2599436, 0.0 ], [ 139.645513, 35.2599085, 0.0 ], [ 139.6446654, 35.2596457, 0.0 ], [ 139.6444401, 35.2595756, 0.0 ], [ 139.644086, 35.2596019, 0.0 ], [ 139.6438714, 35.2597596, 0.0 ], [ 139.6437963, 35.2600224, 0.0 ], [ 139.6433779, 35.2602239, 0.0 ], [ 139.6431097, 35.260513, 0.0 ], [ 139.642938, 35.2606357, 0.0 ], [ 139.6420475, 35.2609686, 0.0 ], [ 139.6415969, 35.2612576, 0.0 ], [ 139.641436, 35.2614767, 0.0 ], [ 139.6411356, 35.2620724, 0.0 ], [ 139.6407601, 35.26216, 0.0 ], [ 139.6396872, 35.262379, 0.0 ] ] } },
{ "type": "Feature", "properties": { "Name": "ライン 13" }, "geometry": { "type": "LineString", "coordinates": [ [ 139.6396872, 35.262379, 0.0 ], [ 139.6393761, 35.2622213, 0.0 ], [ 139.6386465, 35.2614066, 0.0 ], [ 139.6381422, 35.261538, 0.0 ], [ 139.6379813, 35.261573, 0.0 ], [ 139.6377775, 35.2615205, 0.0 ], [ 139.6373269, 35.2616781, 0.0 ], [ 139.6371874, 35.261757, 0.0 ], [ 139.6368441, 35.2617395, 0.0 ], [ 139.6365115, 35.2619059, 0.0 ], [ 139.6362432, 35.2618621, 0.0 ], [ 139.6360394, 35.2617132, 0.0 ], [ 139.6358463, 35.261792, 0.0 ], [ 139.6355781, 35.2616431, 0.0 ], [ 139.6353742, 35.2617132, 0.0 ], [ 139.6351489, 35.2620461, 0.0 ], [ 139.63487, 35.2623965, 0.0 ], [ 139.6344408, 35.2620724, 0.0 ], [ 139.634076, 35.2620811, 0.0 ], [ 139.63384, 35.2623001, 0.0 ], [ 139.6337327, 35.2627206, 0.0 ], [ 139.63384, 35.2629922, 0.0 ], [ 139.6331104, 35.2634039, 0.0 ], [ 139.6328744, 35.263728, 0.0 ] ] } },
{ "type": "Feature", "properties": { "Name": "木古庭馬頭観音菩薩座像" }, "geometry": { "type": "Point", "coordinates": [ 139.632439, 35.2644189, 0.0 ] } },
{ "type": "Feature", "properties": { "Name": "ライン 14" }, "geometry": { "type": "LineString", "coordinates": [ [ 139.6328744, 35.263728, 0.0 ], [ 139.6326604, 35.2637718, 0.0 ], [ 139.6326926, 35.2639383, 0.0 ], [ 139.6322957, 35.264604, 0.0 ], [ 139.6320596, 35.2644726, 0.0 ], [ 139.6317056, 35.2644026, 0.0 ], [ 139.6311584, 35.2644026, 0.0 ], [ 139.630622, 35.264753, 0.0 ], [ 139.6301606, 35.2649019, 0.0 ], [ 139.628208, 35.2651734, 0.0 ], [ 139.6271244, 35.26541, 0.0 ], [ 139.6253756, 35.2653311, 0.0 ], [ 139.6230367, 35.2658567, 0.0 ] ] } },
{ "type": "Feature", "properties": { "Name": "ライン 15" }, "geometry": { "type": "LineString", "coordinates": [ [ 139.6230367, 35.2658567, 0.0 ], [ 139.6228757, 35.265918, 0.0 ], [ 139.621996, 35.2666451, 0.0 ], [ 139.6213522, 35.2669867, 0.0 ], [ 139.6204188, 35.2673284, 0.0 ], [ 139.6196893, 35.2677839, 0.0 ], [ 139.619303, 35.2677839, 0.0 ], [ 139.6187988, 35.2676788, 0.0 ], [ 139.6183589, 35.2677839, 0.0 ], [ 139.6179834, 35.2676788, 0.0 ], [ 139.6176508, 35.267705, 0.0 ], [ 139.6168998, 35.267635, 0.0 ], [ 139.616535, 35.2677138, 0.0 ], [ 139.6162775, 35.2678715, 0.0 ], [ 139.6158054, 35.2680204, 0.0 ], [ 139.6154943, 35.2683708, 0.0 ], [ 139.6153119, 35.268362, 0.0 ] ] } },
{ "type": "Feature", "properties": { "Name": "ライン 16" }, "geometry": { "type": "LineString", "coordinates": [ [ 139.6154943, 35.2683708, 0.0 ], [ 139.6142712, 35.2675736, 0.0 ], [ 139.6132842, 35.267854, 0.0 ], [ 139.6110526, 35.2690803, 0.0 ], [ 139.6104517, 35.2694657, 0.0 ], [ 139.6088639, 35.2686248, 0.0 ], [ 139.6070185, 35.2686248, 0.0 ], [ 139.6063748, 35.2683445, 0.0 ], [ 139.605259, 35.2682043, 0.0 ], [ 139.6044436, 35.2670831, 0.0 ], [ 139.6039286, 35.2668028, 0.0 ], [ 139.6028986, 35.2667677, 0.0 ], [ 139.6019116, 35.2659618, 0.0 ], [ 139.5995942, 35.2653311, 0.0 ], [ 139.5995512, 35.2649457, 0.0 ], [ 139.5985642, 35.2648055, 0.0 ], [ 139.5980492, 35.2649457, 0.0 ], [ 139.5978346, 35.265261, 0.0 ], [ 139.5973196, 35.2649457, 0.0 ], [ 139.5969334, 35.2654362, 0.0 ], [ 139.5955172, 35.2649106, 0.0 ] ] } },
{ "type": "Feature", "properties": { "Name": "ライン 17" }, "geometry": { "type": "LineString", "coordinates": [ [ 139.5955279, 35.264915, 0.0 ], [ 139.5932749, 35.2652129, 0.0 ], [ 139.592953, 35.2655107, 0.0 ], [ 139.5922664, 35.2655633, 0.0 ], [ 139.5917299, 35.2654231, 0.0 ], [ 139.5906141, 35.2655282, 0.0 ], [ 139.590531, 35.2657078, 0.0 ], [ 139.5904478, 35.2658523, 0.0 ], [ 139.5903486, 35.2659618, 0.0 ], [ 139.5902279, 35.2660538, 0.0 ], [ 139.5901126, 35.266102, 0.0 ], [ 139.5899436, 35.2660976, 0.0 ], [ 139.5889726, 35.2657823, 0.0 ], [ 139.5882967, 35.2659312, 0.0 ], [ 139.5882109, 35.2663341, 0.0 ], [ 139.5878461, 35.2667546, 0.0 ], [ 139.5876691, 35.2668904, 0.0 ], [ 139.5875913, 35.2670568, 0.0 ], [ 139.5874947, 35.2672977, 0.0 ], [ 139.5873231, 35.2674696, 0.0 ], [ 139.5871742, 35.2676689, 0.0 ], [ 139.587135, 35.2679522, 0.0 ], [ 139.587144, 35.2682334, 0.0 ], [ 139.587149, 35.2685254, 0.0 ], [ 139.5871702, 35.2687956, 0.0 ], [ 139.5868376, 35.2689084, 0.0 ], [ 139.5865747, 35.2688745, 0.0 ], [ 139.5864165, 35.2688898, 0.0 ], [ 139.5863226, 35.2689489, 0.0 ], [ 139.5861509, 35.2695577, 0.0 ], [ 139.586387, 35.269803, 0.0 ], [ 139.5861295, 35.2704687, 0.0 ], [ 139.5850995, 35.2709242, 0.0 ] ] } },
{ "type": "Feature", "properties": { "Name": "一色の旧道" }, "geometry": { "type": "Point", "coordinates": [ 139.5873791, 35.2674144, 0.0 ] } },
{ "type": "Feature", "properties": { "Name": "ライン 19" }, "geometry": { "type": "LineString", "coordinates": [ [ 139.5850995, 35.2709242, 0.0 ], [ 139.584954, 35.2707799, 0.0 ], [ 139.5842137, 35.2708324, 0.0 ], [ 139.5839025, 35.2709813, 0.0 ], [ 139.583688, 35.2709463, 0.0 ], [ 139.5834734, 35.2712091, 0.0 ], [ 139.5826795, 35.271577, 0.0 ], [ 139.582261, 35.2717872, 0.0 ], [ 139.5820357, 35.2721726, 0.0 ], [ 139.5820357, 35.2722602, 0.0 ], [ 139.5808877, 35.2723566, 0.0 ], [ 139.5795788, 35.2731799, 0.0 ], [ 139.5791711, 35.2732062, 0.0 ], [ 139.57886, 35.2736091, 0.0 ], [ 139.578624, 35.2737843, 0.0 ], [ 139.5780553, 35.273977, 0.0 ], [ 139.5774223, 35.2741784, 0.0 ], [ 139.5767786, 35.2749054, 0.0 ] ] } },
{ "type": "Feature", "properties": { "Name": "ライン 20" }, "geometry": { "type": "LineString", "coordinates": [ [ 139.5767786, 35.2749054, 0.0 ], [ 139.5759632, 35.2750631, 0.0 ], [ 139.574944, 35.275466, 0.0 ], [ 139.5743431, 35.2755098, 0.0 ], [ 139.5738174, 35.2753521, 0.0 ], [ 139.5732703, 35.2754923, 0.0 ], [ 139.5729484, 35.2761404, 0.0 ], [ 139.5730879, 35.2764032, 0.0 ], [ 139.5730342, 35.2768937, 0.0 ], [ 139.572766, 35.2772309, 0.0 ], [ 139.5726158, 35.2772966, 0.0 ], [ 139.5724334, 35.2774871, 0.0 ], [ 139.5722832, 35.2776907, 0.0 ], [ 139.5722618, 35.2779885, 0.0 ], [ 139.5720928, 35.2782502, 0.0 ], [ 139.5718594, 35.2784943, 0.0 ], [ 139.5716931, 35.2788512, 0.0 ] ] } },
{ "type": "Feature", "properties": { "Name": "脇町の庚申塔" }, "geometry": { "type": "Point", "coordinates": [ 139.5717282, 35.2786008, 0.0 ] } },
{ "type": "Feature", "properties": { "Name": "ライン 21" }, "geometry": { "type": "LineString", "coordinates": [ [ 139.5717282, 35.2786008, 0.0 ], [ 139.5714862, 35.2789664, 0.0 ], [ 139.5708424, 35.2793692, 0.0 ], [ 139.5708424, 35.2797196, 0.0 ], [ 139.5704991, 35.2805254, 0.0 ], [ 139.5697481, 35.2814712, 0.0 ], [ 139.5697266, 35.2820143, 0.0 ], [ 139.5694692, 35.2824872, 0.0 ], [ 139.5694906, 35.2835557, 0.0 ], [ 139.5696703, 35.2840494, 0.0 ], [ 139.5697629, 35.2842306, 0.0 ], [ 139.5699037, 35.2843592, 0.0 ], [ 139.5700586, 35.2845634, 0.0 ], [ 139.570184, 35.2847982, 0.0 ], [ 139.5704911, 35.285154, 0.0 ], [ 139.5706668, 35.2852656, 0.0 ], [ 139.5708478, 35.2852591, 0.0 ], [ 139.5721406, 35.2851803, 0.0 ], [ 139.5725537, 35.28527, 0.0 ], [ 139.5728273, 35.2854211, 0.0 ], [ 139.5732645, 35.2859882, 0.0 ], [ 139.5735179, 35.2863571, 0.0 ], [ 139.57375, 35.2865399, 0.0 ], [ 139.5742515, 35.2871278, 0.0 ], [ 139.5749194, 35.2878119, 0.0 ], [ 139.5752574, 35.2881885, 0.0 ], [ 139.5755202, 35.2885826, 0.0 ], [ 139.5758206, 35.2889767, 0.0 ], [ 139.5755578, 35.289073, 0.0 ], [ 139.5754049, 35.2891124, 0.0 ], [ 139.5753271, 35.2892131, 0.0 ], [ 139.5735676, 35.2920329, 0.0 ], [ 139.5728112, 35.2930509, 0.0 ], [ 139.5721728, 35.2941084, 0.0 ] ] } },
{ "type": "Feature", "properties": { "Name": "旗立山(鐙摺城出城跡)" }, "geometry": { "type": "Point", "coordinates": [ 139.5693222, 35.2843108, 0.0 ] } },
{ "type": "Feature", "properties": { "Name": "富士見橋" }, "geometry": { "type": "Point", "coordinates": [ 139.575599, 35.2890567, 0.0 ] } },
{ "type": "Feature", "properties": { "Name": "新宿横穴墓群" }, "geometry": { "type": "Point", "coordinates": [ 139.5684956, 35.2953157, 0.0 ] } },
{ "type": "Feature", "properties": { "Name": "新宿地蔵堂" }, "geometry": { "type": "Point", "coordinates": [ 139.5716707, 35.2950109, 0.0 ] } },
{ "type": "Feature", "properties": { "Name": "ライン 22" }, "geometry": { "type": "LineString", "coordinates": [ [ 139.5721728, 35.2941084, 0.0 ], [ 139.571979, 35.2942655, 0.0 ], [ 139.5717483, 35.2947559, 0.0 ], [ 139.5717268, 35.294861, 0.0 ], [ 139.5717107, 35.2953295, 0.0 ], [ 139.5716088, 35.2954302, 0.0 ], [ 139.5714747, 35.2955046, 0.0 ], [ 139.571362, 35.2956666, 0.0 ], [ 139.5713245, 35.2957979, 0.0 ], [ 139.5713942, 35.2960694, 0.0 ], [ 139.5714371, 35.2963452, 0.0 ], [ 139.5712279, 35.2965948, 0.0 ], [ 139.5712172, 35.2967305, 0.0 ], [ 139.5713004, 35.2970545, 0.0 ], [ 139.5713862, 35.2973654, 0.0 ], [ 139.5714479, 35.2977025, 0.0 ], [ 139.5715015, 35.2978514, 0.0 ], [ 139.5716517, 35.2979389, 0.0 ], [ 139.5718878, 35.2981141, 0.0 ], [ 139.5719253, 35.2983111, 0.0 ], [ 139.5719199, 35.2984993, 0.0 ], [ 139.5718234, 35.2986044, 0.0 ] ] } },
{ "type": "Feature", "properties": { "Name": "ライン 23" }, "geometry": { "type": "LineString", "coordinates": [ [ 139.5718234, 35.2986044, 0.0 ], [ 139.5718166, 35.2994386, 0.0 ], [ 139.5718488, 35.2997626, 0.0 ], [ 139.5716449, 35.300069, 0.0 ], [ 139.5716449, 35.3004368, 0.0 ], [ 139.5714196, 35.3009009, 0.0 ], [ 139.5709046, 35.3012424, 0.0 ], [ 139.5705077, 35.3012161, 0.0 ], [ 139.5696708, 35.3035452, 0.0 ], [ 139.5692524, 35.3035277, 0.0 ], [ 139.5691451, 35.3035714, 0.0 ], [ 139.5691129, 35.3036327, 0.0 ], [ 139.5691961, 35.3037006, 0.0 ], [ 139.5691639, 35.303786, 0.0 ], [ 139.5690204, 35.3038757, 0.0 ], [ 139.5689352, 35.3039074, 0.0 ], [ 139.5688554, 35.3039479, 0.0 ], [ 139.5682975, 35.3041668, 0.0 ] ] } },
{ "type": "Feature", "properties": { "Name": "ライン 25" }, "geometry": { "type": "LineString", "coordinates": [ [ 139.5682975, 35.3041668, 0.0 ], [ 139.5679608, 35.3042902, 0.0 ], [ 139.5678106, 35.304369, 0.0 ], [ 139.5674887, 35.3046054, 0.0 ], [ 139.5673171, 35.3045573, 0.0 ], [ 139.5671293, 35.3047674, 0.0 ], [ 139.5669952, 35.3049206, 0.0 ], [ 139.5669577, 35.3053935, 0.0 ], [ 139.5666358, 35.3057656, 0.0 ], [ 139.5664749, 35.305875, 0.0 ], [ 139.5663944, 35.3060063, 0.0 ], [ 139.5658848, 35.3061158, 0.0 ], [ 139.5655522, 35.3064047, 0.0 ], [ 139.5653108, 35.3066937, 0.0 ], [ 139.5654288, 35.3067768, 0.0 ], [ 139.5657077, 35.306825, 0.0 ], [ 139.5657614, 35.306987, 0.0 ], [ 139.5655683, 35.3071402, 0.0 ], [ 139.5651928, 35.3071796, 0.0 ], [ 139.5648709, 35.3072671, 0.0 ] ] } },
{ "type": "Feature", "properties": { "Name": "ライン 26" }, "geometry": { "type": "LineString", "coordinates": [ [ 139.5648709, 35.3072671, 0.0 ], [ 139.5646474, 35.3077993, 0.0 ], [ 139.5648084, 35.3080095, 0.0 ], [ 139.564347, 35.3082502, 0.0 ], [ 139.5639179, 35.3084735, 0.0 ], [ 139.563714, 35.3086311, 0.0 ], [ 139.5636604, 35.3087843, 0.0 ], [ 139.5637301, 35.3089463, 0.0 ], [ 139.5637087, 35.3090119, 0.0 ], [ 139.5636067, 35.3090645, 0.0 ], [ 139.5635531, 35.3091301, 0.0 ], [ 139.5632581, 35.3091958, 0.0 ], [ 139.563081, 35.3093446, 0.0 ], [ 139.5629845, 35.3095285, 0.0 ], [ 139.5628825, 35.3095679, 0.0 ], [ 139.5626358, 35.3097299, 0.0 ], [ 139.5624319, 35.3098218, 0.0 ] ] } },
{ "type": "Feature", "properties": { "Name": "ライン 27" }, "geometry": { "type": "LineString", "coordinates": [ [ 139.5624319, 35.3098218, 0.0 ], [ 139.5622227, 35.3099181, 0.0 ], [ 139.5618258, 35.3099794, 0.0 ], [ 139.5615468, 35.3099794, 0.0 ], [ 139.5612464, 35.3098305, 0.0 ], [ 139.5608709, 35.3099006, 0.0 ], [ 139.5607207, 35.3096905, 0.0 ], [ 139.560034, 35.309778, 0.0 ], [ 139.5596478, 35.3098568, 0.0 ], [ 139.5593581, 35.3098918, 0.0 ], [ 139.5581887, 35.3102158, 0.0 ], [ 139.5578346, 35.3107498, 0.0 ], [ 139.5579741, 35.3110037, 0.0 ], [ 139.5579741, 35.3111438, 0.0 ], [ 139.5578454, 35.3113889, 0.0 ], [ 139.5579526, 35.3118179, 0.0 ], [ 139.5570943, 35.3125446, 0.0 ], [ 139.5568583, 35.3129648, 0.0 ], [ 139.5565901, 35.3131049, 0.0 ], [ 139.5563755, 35.3132537, 0.0 ] ] } },
{ "type": "Feature", "properties": { "Name": "ライン 28" }, "geometry": { "type": "LineString", "coordinates": [ [ 139.5563755, 35.3132537, 0.0 ], [ 139.5543282, 35.3143465, 0.0 ], [ 139.5537381, 35.3145742, 0.0 ], [ 139.5521717, 35.3150294, 0.0 ], [ 139.5512276, 35.3153971, 0.0 ], [ 139.5499616, 35.3157823, 0.0 ] ] } },
{ "type": "Feature", "properties": { "Name": "ライン 29" }, "geometry": { "type": "LineString", "coordinates": [ [ 139.5499616, 35.3157823, 0.0 ], [ 139.5549559, 35.3236609, 0.0 ] ] } }
]
}
