{
  "type": "FeatureCollection",
  "features": [
    {
      "type": "Feature",
      "properties": {
        "name": "Takatori River (Male River-1)"
      },
      "geometry": {
        "type": "LineString",
        "coordinates": [
          [
            139.6195627,
            35.3080002,
            0
          ],
          [
            139.6197236,
            35.3081709,
            0
          ],
          [
            139.6197933,
            35.3083548,
            0
          ],
          [
            139.6197558,
            35.3084598,
            0
          ],
          [
            139.6197075,
            35.308543,
            0
          ],
          [
            139.6197772,
            35.3086131,
            0
          ],
          [
            139.6198631,
            35.3086612,
            0
          ],
          [
            139.6200991,
            35.3086875,
            0
          ],
          [
            139.6202332,
            35.3087619,
            0
          ],
          [
            139.6203995,
            35.3088845,
            0
          ],
          [
            139.6205443,
            35.3088976,
            0
          ],
          [
            139.6207804,
            35.3089458,
            0
          ],
          [
            139.6210164,
            35.3091559,
            0
          ],
          [
            139.621172,
            35.3093704,
            0
          ]
        ]
      }
    },
    {
      "type": "Feature",
      "properties": {
        "name": "Takatori River (Male River-2)"
      },
      "geometry": {
        "type": "LineString",
        "coordinates": [
          [
            139.6213758,
            35.3102196,
            0
          ],
          [
            139.6216172,
            35.3101058,
            0
          ],
          [
            139.6217674,
            35.3101146,
            0
          ],
          [
            139.6218908,
            35.3101671,
            0
          ],
          [
            139.6220088,
            35.310259,
            0
          ],
          [
            139.6222288,
            35.3102984,
            0
          ],
          [
            139.6222985,
            35.3103553,
            0
          ],
          [
            139.6223468,
            35.3104122,
            0
          ],
          [
            139.6225989,
            35.3105042,
            0
          ],
          [
            139.6227759,
            35.3106224,
            0
          ],
          [
            139.6228993,
            35.310653,
            0
          ],
          [
            139.6230388,
            35.310688,
            0
          ],
          [
            139.6232266,
            35.3107843,
            0
          ],
          [
            139.6238435,
            35.3109288,
            0
          ],
          [
            139.6233553,
            35.310815,
            0
          ],
          [
            139.6234089,
            35.3106486,
            0
          ],
          [
            139.6233875,
            35.3106005,
            0
          ],
          [
            139.6235236,
            35.3104477,
            0
          ],
          [
            139.6233975,
            35.3103383,
            0
          ],
          [
            139.6234787,
            35.3101934,
            0
          ],
          [
            139.6235431,
            35.3099745,
            0
          ],
          [
            139.6235431,
            35.3098869,
            0
          ],
          [
            139.6237791,
            35.3095586,
            0
          ],
          [
            139.623645,
            35.3093485,
            0
          ]
        ]
      }
    },
    {
      "type": "Feature",
      "properties": {
        "name": "Takatori River (Female River-1)"
      },
      "geometry": {
        "type": "LineString",
        "coordinates": [
          [
            139.6252621,
            35.3167698,
            0
          ],
          [
            139.6247256,
            35.3172076,
            0
          ],
          [
            139.6239639,
            35.3176365,
            0
          ],
          [
            139.6229232,
            35.3182143,
            0
          ],
          [
            139.6224296,
            35.3179429,
            0
          ],
          [
            139.6218825,
            35.3178729,
            0
          ],
          [
            139.6213568,
            35.3179254,
            0
          ],
          [
            139.620874,
            35.3177066,
            0
          ],
          [
            139.620359,
            35.3178992,
            0
          ],
          [
            139.6200586,
            35.3179867,
            0
          ],
          [
            139.6194685,
            35.3178729,
            0
          ],
          [
            139.6192646,
            35.317654,
            0
          ],
          [
            139.6188999,
            35.3175315,
            0
          ],
          [
            139.6184707,
            35.3171725,
            0
          ]
        ]
      }
    },
    {
      "type": "Feature",
      "properties": {
        "name": "Takatori River (Female River-2)"
      },
      "geometry": {
        "type": "LineString",
        "coordinates": [
          [
            139.6188407,
            35.315912,
            0
          ],
          [
            139.6186797,
            35.3157282,
            0
          ],
          [
            139.6187012,
            35.3151941,
            0
          ],
          [
            139.6186797,
            35.3148089,
            0
          ],
          [
            139.618433,
            35.3145901,
            0
          ],
          [
            139.6181004,
            35.3147564,
            0
          ],
          [
            139.6173386,
            35.3150978,
            0
          ],
          [
            139.6171133,
            35.3153692,
            0
          ],
          [
            139.6165554,
            35.315448,
            0
          ],
          [
            139.6164803,
            35.3155881,
            0
          ],
          [
            139.6162336,
            35.3157282,
            0
          ],
          [
            139.6163087,
            35.3160433,
            0
          ]
        ]
      }
    },
    {
      "type": "Feature",
      "properties": {
        "name": "Takatori River (Female River -3)"
      },
      "geometry": {
        "type": "LineString",
        "coordinates": [
          [
            139.6296443,
            35.317157,
            0
          ],
          [
            139.6299233,
            35.3166843,
            0
          ],
          [
            139.6305026,
            35.315984,
            0
          ],
          [
            139.6307816,
            35.3157038,
            0
          ],
          [
            139.6310391,
            35.314697,
            0
          ],
          [
            139.6315862,
            35.3143906,
            0
          ],
          [
            139.6315219,
            35.314128,
            0
          ],
          [
            139.6315326,
            35.3138653,
            0
          ],
          [
            139.631479,
            35.3134364,
            0
          ],
          [
            139.6317579,
            35.3129461,
            0
          ],
          [
            139.631833,
            35.3126222,
            0
          ],
          [
            139.6322407,
            35.3120268,
            0
          ],
          [
            139.6319403,
            35.3117992,
            0
          ],
          [
            139.6321334,
            35.3113439,
            0
          ],
          [
            139.6321227,
            35.3111688,
            0
          ],
          [
            139.6322514,
            35.310985,
            0
          ],
          [
            139.6320583,
            35.3107749,
            0
          ],
          [
            139.6321871,
            35.310521,
            0
          ],
          [
            139.6320154,
            35.310127,
            0
          ]
        ]
      }
    },
    {
      "type": "Feature",
      "properties": {
        "name": "Takatori River (Male-Female Joined)"
      },
      "geometry": {
        "type": "LineString",
        "coordinates": [
          [
            139.6271924,
            35.3165903,
            0
          ],
          [
            139.6281151,
            35.3170017,
            0
          ],
          [
            139.6288983,
            35.3169229,
            0
          ],
          [
            139.6305505,
            35.3175095,
            0
          ],
          [
            139.6319238,
            35.3189102,
            0
          ],
          [
            139.6310226,
            35.3203546,
            0
          ],
          [
            139.6319345,
            35.3221229,
            0
          ]
        ]
      }
    },
    {
      "type": "Feature",
      "properties": {
        "name": "A Confluence Called Spouse",
        "description": "A bridge already stood at this crossing during the early Meiji period (1868–1912), but the stone bridge spanning the Takatori River today dates to 1933. It takes its name — Meoto-bashi, the \"Spouse Bridge\" — from the point just upstream where the river's male and female branches join into one current (Sano Kōmuten website). (A different Spouse Bridge crosses the Hirasaku River further south, in the Hirasaku district, but the name there marks a different kind of pairing — two bridges built by human hands on either side of a reclamation-era water gate, spanning a single river rather than joining two.<br>At Hirasaku, it was engineers who paired two bridges over one river. Here, it was the river itself that paired two currents into one — and only afterward did anyone think to build a bridge to mark the joining."
      },
      "geometry": {
        "type": "Point",
        "coordinates": [
          139.6277771,
          35.3168546,
          0
        ]
      }
    },
    {
      "type": "Feature",
      "properties": {
        "name": "The River That Carried Two Eras",
        "description": "Ikego's stone was tuff — a durable, lightweight rock born from compacted volcanic ash and debris hurled out in explosive eruptions. Quarries here, together with the Takatoriyama quarry nearby, supplied cut stone for construction through the late Meiji and early Shōwa eras. Cut blocks from both sites were floated down the Takatori River to reach Tokyo Bay, where that same tuff went into a project straddling two eras: the three artificial forts built out on the water, their foundations laid with Edo-period stone-masonry technique set alongside newly imported Western engineering — brick, concrete, and diving gear enlisted to hold ground in water too deep for the old methods alone. Ash that once rained down from a volcano, carried downriver on a current, ended up anchoring fortresses where old craft and new science met."
      },
      "geometry": {
        "type": "Point",
        "coordinates": [
          139.6023066,
          35.3061578,
          0
        ]
      }
    },
    {
      "type": "Feature",
      "properties": {
        "name": "Funakoshi acqueduct-1"
      },
      "geometry": {
        "type": "LineString",
        "coordinates": [
          [
            139.6241156,
            35.3018507,
            0
          ],
          [
            139.6238903,
            35.3019032,
            0
          ],
          [
            139.6235255,
            35.3018069,
            0
          ],
          [
            139.6232787,
            35.3016756,
            0
          ],
          [
            139.6229891,
            35.3017544,
            0
          ],
          [
            139.6227852,
            35.3018857,
            0
          ],
          [
            139.6224419,
            35.3021309,
            0
          ],
          [
            139.6221737,
            35.3021747,
            0
          ],
          [
            139.6219269,
            35.3021134,
            0
          ],
          [
            139.6216694,
            35.3019996,
            0
          ]
        ]
      }
    },
    {
      "type": "Feature",
      "properties": {
        "name": "Funakoshi acqueduct-2"
      },
      "geometry": {
        "type": "LineString",
        "coordinates": [
          [
            139.6247915,
            35.2991232,
            0
          ],
          [
            139.6245877,
            35.2992764,
            0
          ],
          [
            139.6243892,
            35.2994253,
            0
          ],
          [
            139.6242122,
            35.2995522,
            0
          ],
          [
            139.6240137,
            35.2995829,
            0
          ],
          [
            139.6239171,
            35.2996923,
            0
          ],
          [
            139.6238152,
            35.299758,
            0
          ],
          [
            139.6236972,
            35.2997449,
            0
          ],
          [
            139.6235094,
            35.2997098,
            0
          ],
          [
            139.623268,
            35.2997974,
            0
          ],
          [
            139.6230588,
            35.2997799,
            0
          ],
          [
            139.6228389,
            35.2997886,
            0
          ],
          [
            139.6226457,
            35.2997098,
            0
          ]
        ]
      }
    },
    {
      "type": "Feature",
      "properties": {
        "name": "Funakoshi aqueduct-3"
      },
      "geometry": {
        "type": "LineString",
        "coordinates": [
          [
            139.6247915,
            35.2991232,
            0
          ],
          [
            139.6247164,
            35.2990225,
            0
          ],
          [
            139.6245716,
            35.2990531,
            0
          ],
          [
            139.624534,
            35.2989174,
            0
          ],
          [
            139.624475,
            35.2987992,
            0
          ],
          [
            139.6243892,
            35.2986197,
            0
          ],
          [
            139.6243302,
            35.2984883,
            0
          ],
          [
            139.62418,
            35.2983263,
            0
          ],
          [
            139.6240727,
            35.298195,
            0
          ],
          [
            139.6239278,
            35.297998,
            0
          ],
          [
            139.6237884,
            35.2980199,
            0
          ],
          [
            139.623665,
            35.2979454,
            0
          ],
          [
            139.6234021,
            35.2978447,
            0
          ],
          [
            139.6233056,
            35.2977834,
            0
          ],
          [
            139.6233056,
            35.2976565,
            0
          ],
          [
            139.6232948,
            35.2974989,
            0
          ],
          [
            139.6233002,
            35.2973675,
            0
          ],
          [
            139.6233539,
            35.2972274,
            0
          ],
          [
            139.6233807,
            35.2971267,
            0
          ],
          [
            139.6233914,
            35.2969384,
            0
          ],
          [
            139.6234129,
            35.2967721,
            0
          ],
          [
            139.6233807,
            35.2966232,
            0
          ]
        ]
      }
    },
    {
      "type": "Feature",
      "properties": {
        "name": "Taura River"
      },
      "geometry": {
        "type": "LineString",
        "coordinates": [
          [
            139.632603,
            35.2941878,
            0
          ],
          [
            139.6318627,
            35.2937149,
            0
          ],
          [
            139.6316589,
            35.2936273,
            0
          ],
          [
            139.6314121,
            35.293566,
            0
          ],
          [
            139.631219,
            35.2934434,
            0
          ],
          [
            139.6310044,
            35.2933821,
            0
          ],
          [
            139.6307255,
            35.2932946,
            0
          ],
          [
            139.6301676,
            35.293242,
            0
          ],
          [
            139.6297062,
            35.2932508,
            0
          ],
          [
            139.6293093,
            35.2931807,
            0
          ],
          [
            139.6287561,
            35.293092,
            0
          ],
          [
            139.6280325,
            35.2929881,
            0
          ],
          [
            139.6274961,
            35.2929793,
            0
          ],
          [
            139.6270884,
            35.2930757,
            0
          ],
          [
            139.6263481,
            35.2930056,
            0
          ],
          [
            139.6257902,
            35.2929443,
            0
          ],
          [
            139.6255327,
            35.2928699,
            0
          ],
          [
            139.6255864,
            35.292143,
            0
          ]
        ]
      }
    },
    {
      "type": "Feature",
      "properties": {
        "name": "Agatsuma River"
      },
      "geometry": {
        "type": "LineString",
        "coordinates": [
          [
            139.6399287,
            35.290525,
            0
          ],
          [
            139.6399126,
            35.2906914,
            0
          ],
          [
            139.640036,
            35.2908271,
            0
          ],
          [
            139.6402237,
            35.2909541,
            0
          ],
          [
            139.640331,
            35.2909935,
            0
          ],
          [
            139.6403954,
            35.2912212,
            0
          ],
          [
            139.6404383,
            35.2914051,
            0
          ],
          [
            139.6404651,
            35.2915977,
            0
          ],
          [
            139.6405939,
            35.2919086,
            0
          ],
          [
            139.6407763,
            35.2923246,
            0
          ],
          [
            139.6410123,
            35.2929025,
            0
          ],
          [
            139.6411142,
            35.2932616,
            0
          ],
          [
            139.6410445,
            35.2935987,
            0
          ],
          [
            139.6408782,
            35.2939227,
            0
          ],
          [
            139.6405349,
            35.2944306,
            0
          ],
          [
            139.6402559,
            35.2945094,
            0
          ],
          [
            139.6401111,
            35.2946057,
            0
          ],
          [
            139.6397061,
            35.2950655,
            0
          ]
        ]
      }
    },
    {
      "type": "Feature",
      "properties": {
        "name": "Takakuma River"
      },
      "geometry": {
        "type": "LineString",
        "coordinates": [
          [
            139.6322182,
            35.2944625,
            0
          ],
          [
            139.6331784,
            35.2938277,
            0
          ],
          [
            139.6340099,
            35.2935255,
            0
          ],
          [
            139.6334252,
            35.2927506,
            0
          ],
          [
            139.6332374,
            35.2926061,
            0
          ],
          [
            139.6334198,
            35.2921113,
            0
          ],
          [
            139.6333393,
            35.2919274,
            0
          ],
          [
            139.6333018,
            35.2916384,
            0
          ],
          [
            139.6331891,
            35.2910736,
            0
          ],
          [
            139.6331569,
            35.2906094,
            0
          ],
          [
            139.6331053,
            35.2898194,
            0
          ],
          [
            139.6330785,
            35.2896574,
            0
          ],
          [
            139.6329712,
            35.2894297,
            0
          ],
          [
            139.6329229,
            35.289005,
            0
          ],
          [
            139.6328049,
            35.2887379,
            0
          ],
          [
            139.6328318,
            35.2882606,
            0
          ],
          [
            139.6331322,
            35.2880723,
            0
          ],
          [
            139.6332555,
            35.2879191,
            0
          ],
          [
            139.633395,
            35.287849,
            0
          ],
          [
            139.6335935,
            35.2876082,
            0
          ],
          [
            139.6337437,
            35.2874987,
            0
          ],
          [
            139.6336257,
            35.287201,
            0
          ],
          [
            139.6336311,
            35.2866799,
            0
          ],
          [
            139.6338671,
            35.2863734,
            0
          ],
          [
            139.6338885,
            35.2861282,
            0
          ],
          [
            139.6338671,
            35.2859618,
            0
          ],
          [
            139.6336847,
            35.2856115,
            0
          ],
          [
            139.6333843,
            35.2855808,
            0
          ],
          [
            139.6332931,
            35.2852699,
            0
          ],
          [
            139.6331643,
            35.2850947,
            0
          ],
          [
            139.6330195,
            35.2849502,
            0
          ],
          [
            139.6330946,
            35.2847707,
            0
          ],
          [
            139.6329659,
            35.2846787,
            0
          ],
          [
            139.6328371,
            35.2844905,
            0
          ],
          [
            139.6326279,
            35.2843197,
            0
          ],
          [
            139.6324026,
            35.2842014,
            0
          ],
          [
            139.6324455,
            35.2839869,
            0
          ],
          [
            139.6326172,
            35.2838161,
            0
          ],
          [
            139.6325957,
            35.2837329,
            0
          ],
          [
            139.6323704,
            35.2836059,
            0
          ],
          [
            139.6323972,
            35.2832424,
            0
          ],
          [
            139.632365,
            35.2831198,
            0
          ],
          [
            139.6319734,
            35.282879,
            0
          ],
          [
            139.6318125,
            35.2826119,
            0
          ],
          [
            139.6318179,
            35.2825024,
            0
          ],
          [
            139.6316248,
            35.2823228,
            0
          ],
          [
            139.631555,
            35.2821389,
            0
          ],
          [
            139.6313565,
            35.2820689,
            0
          ],
          [
            139.630863,
            35.2820338,
            0
          ],
          [
            139.6305304,
            35.2817974,
            0
          ],
          [
            139.6300583,
            35.2816791,
            0
          ],
          [
            139.6300262,
            35.2816299,
            0
          ],
          [
            139.6300154,
            35.2814711,
            0
          ],
          [
            139.6299081,
            35.28132,
            0
          ],
          [
            139.6296507,
            35.2812543,
            0
          ],
          [
            139.6294736,
            35.2811427,
            0
          ],
          [
            139.6292564,
            35.2810255,
            0
          ],
          [
            139.6292269,
            35.2809128,
            0
          ]
        ]
      }
    },
    {
      "type": "Feature",
      "properties": {
        "name": "Takakuma River"
      },
      "geometry": {
        "type": "LineString",
        "coordinates": [
          [
            139.6328318,
            35.2882606,
            0
          ],
          [
            139.6326118,
            35.2882168,
            0
          ],
          [
            139.6321907,
            35.2882392,
            0
          ],
          [
            139.6318876,
            35.2883175,
            0
          ],
          [
            139.6315818,
            35.2884445,
            0
          ],
          [
            139.6314477,
            35.2884139,
            0
          ],
          [
            139.6313404,
            35.2882562,
            0
          ],
          [
            139.6311205,
            35.2881818,
            0
          ],
          [
            139.6308254,
            35.2881687,
            0
          ],
          [
            139.6307182,
            35.2881205,
            0
          ],
          [
            139.6305626,
            35.2879979,
            0
          ],
          [
            139.6303641,
            35.2879672,
            0
          ],
          [
            139.6301763,
            35.2879672,
            0
          ],
          [
            139.6301066,
            35.2879453,
            0
          ]
        ]
      }
    },
    {
      "type": "Feature",
      "properties": {
        "name": "Tanoura River"
      },
      "geometry": {
        "type": "LineString",
        "coordinates": [
          [
            139.6462461,
            35.2909308,
            0
          ],
          [
            139.6459189,
            35.2909264,
            0
          ],
          [
            139.6457311,
            35.2909045,
            0
          ],
          [
            139.6455648,
            35.290817,
            0
          ],
          [
            139.6454146,
            35.2907119,
            0
          ],
          [
            139.6453288,
            35.2906156,
            0
          ],
          [
            139.6452644,
            35.2904404,
            0
          ],
          [
            139.6452483,
            35.2902478,
            0
          ],
          [
            139.645125,
            35.2900857,
            0
          ],
          [
            139.6451089,
            35.2899237,
            0
          ],
          [
            139.645125,
            35.2896041,
            0
          ],
          [
            139.6451518,
            35.2894771,
            0
          ],
          [
            139.6450338,
            35.2893107,
            0
          ],
          [
            139.6448943,
            35.2891005,
            0
          ],
          [
            139.644787,
            35.2889955,
            0
          ],
          [
            139.6446529,
            35.2889166,
            0
          ],
          [
            139.6445349,
            35.2888291,
            0
          ],
          [
            139.6444115,
            35.2888159,
            0
          ],
          [
            139.644331,
            35.288794,
            0
          ],
          [
            139.6441486,
            35.2887021,
            0
          ],
          [
            139.6438911,
            35.288794,
            0
          ],
          [
            139.6438107,
            35.2887021,
            0
          ],
          [
            139.6434513,
            35.2881241,
            0
          ],
          [
            139.6433601,
            35.2878876,
            0
          ],
          [
            139.6432581,
            35.2877344,
            0
          ],
          [
            139.6430543,
            35.2876643,
            0
          ]
        ]
      }
    },
    {
      "type": "Feature",
      "properties": {
        "name": "Tanoura River"
      },
      "geometry": {
        "type": "LineString",
        "coordinates": [
          [
            139.6426392,
            35.285191,
            0
          ],
          [
            139.6425534,
            35.2850377,
            0
          ],
          [
            139.6424247,
            35.284937,
            0
          ],
          [
            139.6423603,
            35.2848976,
            0
          ],
          [
            139.6422637,
            35.2848626,
            0
          ],
          [
            139.6422745,
            35.2847225,
            0
          ],
          [
            139.6422208,
            35.2846174,
            0
          ],
          [
            139.6420116,
            35.2845429,
            0
          ],
          [
            139.641856,
            35.2844597,
            0
          ],
          [
            139.641738,
            35.2843152,
            0
          ],
          [
            139.6416361,
            35.2842671,
            0
          ],
          [
            139.6413679,
            35.2841751,
            0
          ],
          [
            139.6414054,
            35.2840525,
            0
          ],
          [
            139.6412177,
            35.2839036,
            0
          ],
          [
            139.6410996,
            35.2837766,
            0
          ],
          [
            139.6409387,
            35.2837022,
            0
          ],
          [
            139.6407671,
            35.2834482,
            0
          ],
          [
            139.640649,
            35.2833956,
            0
          ],
          [
            139.6404452,
            35.2833562,
            0
          ],
          [
            139.6401019,
            35.2828176,
            0
          ],
          [
            139.6400375,
            35.2827607,
            0
          ],
          [
            139.6399785,
            35.2827125,
            0
          ],
          [
            139.6400375,
            35.2825549,
            0
          ],
          [
            139.6399999,
            35.2825198,
            0
          ],
          [
            139.6392436,
            35.2824235,
            0
          ]
        ]
      }
    },
    {
      "type": "Feature",
      "properties": {
        "name": "Yoshikura River"
      },
      "geometry": {
        "type": "LineString",
        "coordinates": [
          [
            139.6483462,
            35.2877057,
            0
          ],
          [
            139.6492984,
            35.2882881,
            0
          ]
        ]
      }
    },
    {
      "type": "Feature",
      "properties": {
        "name": "Nishi-yato River"
      },
      "geometry": {
        "type": "LineString",
        "coordinates": [
          [
            139.6499699,
            35.2814416,
            0
          ],
          [
            139.6498787,
            35.2814066,
            0
          ],
          [
            139.6497768,
            35.2813365,
            0
          ],
          [
            139.6496587,
            35.2813497,
            0
          ],
          [
            139.6495032,
            35.2812271,
            0
          ],
          [
            139.6492296,
            35.2811964,
            0
          ],
          [
            139.6490794,
            35.2810826,
            0
          ],
          [
            139.6488863,
            35.2809161,
            0
          ],
          [
            139.6485161,
            35.280741,
            0
          ],
          [
            139.648264,
            35.2806928,
            0
          ],
          [
            139.6478563,
            35.2807322,
            0
          ],
          [
            139.6476256,
            35.2808505,
            0
          ],
          [
            139.6473681,
            35.2808855,
            0
          ],
          [
            139.6472555,
            35.2809161,
            0
          ],
          [
            139.6471696,
            35.2809994,
            0
          ],
          [
            139.6470784,
            35.28103,
            0
          ],
          [
            139.6469336,
            35.280995,
            0
          ],
          [
            139.6468585,
            35.2810125,
            0
          ],
          [
            139.6466493,
            35.2809687,
            0
          ],
          [
            139.6463543,
            35.2809687,
            0
          ],
          [
            139.6462094,
            35.2807848,
            0
          ],
          [
            139.6461719,
            35.2805921,
            0
          ],
          [
            139.6460538,
            35.2804607,
            0
          ],
          [
            139.6454101,
            35.2799878,
            0
          ]
        ]
      }
    },
    {
      "type": "Feature",
      "properties": {
        "name": "Sawayama River"
      },
      "geometry": {
        "type": "LineString",
        "coordinates": [
          [
            139.6458486,
            35.2717429,
            0
          ],
          [
            139.6459344,
            35.2718655,
            0
          ],
          [
            139.64609,
            35.2719925,
            0
          ],
          [
            139.6462509,
            35.2719093,
            0
          ],
          [
            139.6464655,
            35.271975,
            0
          ],
          [
            139.6465514,
            35.2719575,
            0
          ],
          [
            139.6469,
            35.2721414,
            0
          ],
          [
            139.6470663,
            35.2723341,
            0
          ],
          [
            139.6472112,
            35.2723779,
            0
          ],
          [
            139.6473667,
            35.2724874,
            0
          ],
          [
            139.6474579,
            35.2725575,
            0
          ],
          [
            139.6476618,
            35.272667,
            0
          ],
          [
            139.6477905,
            35.2726932,
            0
          ],
          [
            139.64793,
            35.2727458,
            0
          ],
          [
            139.6483538,
            35.2729692,
            0
          ],
          [
            139.6485469,
            35.2730786,
            0
          ],
          [
            139.6488581,
            35.2731881,
            0
          ],
          [
            139.6489761,
            35.2734421,
            0
          ],
          [
            139.6491424,
            35.2738582,
            0
          ],
          [
            139.6492926,
            35.2739151,
            0
          ],
          [
            139.6495393,
            35.2740509,
            0
          ],
          [
            139.6496091,
            35.2741341,
            0
          ],
          [
            139.6496198,
            35.2743005,
            0
          ],
          [
            139.6495823,
            35.2743925,
            0
          ]
        ]
      }
    },
    {
      "type": "Feature",
      "properties": {
        "name": "Sawayama River"
      },
      "geometry": {
        "type": "LineString",
        "coordinates": [
          [
            139.6520195,
            35.2786973,
            0
          ],
          [
            139.6519551,
            35.2783295,
            0
          ],
          [
            139.6518156,
            35.2779266,
            0
          ],
          [
            139.6513006,
            35.2770945,
            0
          ],
          [
            139.6502063,
            35.2753778,
            0
          ]
        ]
      }
    },
    {
      "type": "Feature",
      "properties": {
        "name": "Shioiri River"
      },
      "geometry": {
        "type": "LineString",
        "coordinates": [
          [
            139.6615766,
            35.2786229,
            0
          ],
          [
            139.6614505,
            35.2785704,
            0
          ],
          [
            139.6614586,
            35.2784565,
            0
          ],
          [
            139.6615015,
            35.27822,
            0
          ],
          [
            139.6615658,
            35.2778609,
            0
          ],
          [
            139.661598,
            35.2774668,
            0
          ],
          [
            139.6617161,
            35.2767398,
            0
          ],
          [
            139.6619306,
            35.2763457,
            0
          ],
          [
            139.6615873,
            35.2759778,
            0
          ],
          [
            139.6610616,
            35.2760741,
            0
          ],
          [
            139.6609543,
            35.2757325,
            0
          ],
          [
            139.6604715,
            35.2753909,
            0
          ],
          [
            139.6599029,
            35.2750669,
            0
          ],
          [
            139.6592162,
            35.2750581,
            0
          ]
        ]
      }
    },
    {
      "type": "Feature",
      "properties": {
        "name": "The Emperor's Water, the Village's Well",
        "description": "No bridge remains here today, but its corner posts still stand as a commemorative marker by the Shioiri station roundabout, framing an inset panel that recounts the history of the Miyuki Bridge. It once spanned the Shioiri River, which ran from the Kappa Mountain area in Sakamoto down to what is now the pumping station inside Verny Park — the point where the river met Tokyo Bay (Yokosuka Water and Environment Study Group 2019, 21). The bridge's name honored a visit by the Meiji Emperor - which he did on several occassions since 1871 (Ishii 1987a, 24). The name is drawn from omiyuki (imperial outing), the general term for his travels beyond the palace.<br>Behind Saint Joseph's Hospital, on the eastern side of Shioiri station, a well — now defunct — still marks that visit. Known as the Kintei well, it once supplied the Emperor's drinking and cooking water during his stay. Yet the well is thought to be older than the occasion that named it, having served the local community well before the Meiji era. It may originally have belonged to the Grand Suwa Shrine, situated across the Uraga Road to the east of the hospital, said to have been brought to this site and enshrined for veneration by a descendant of the Miura clan in 1380.<br>The bridge is gone, and the Emperor's visit survives now only in the corner posts that once framed it. The well, disused and unmarked, still holds the older claim — a village drawing its water long before any emperor ever passed through."
      },
      "geometry": {
        "type": "Point",
        "coordinates": [
          139.6613619,
          35.2808239,
          0
        ]
      }
    },
    {
      "type": "Feature",
      "properties": {
        "name": "Hirasaku River"
      },
      "geometry": {
        "type": "LineString",
        "coordinates": [
          [
            139.6509087,
            35.2629749,
            0
          ],
          [
            139.6511715,
            35.2629749,
            0
          ],
          [
            139.6514666,
            35.2629442,
            0
          ],
          [
            139.651649,
            35.2629136,
            0
          ],
          [
            139.652003,
            35.2628041,
            0
          ],
          [
            139.6522712,
            35.2626946,
            0
          ],
          [
            139.6528989,
            35.2622084,
            0
          ],
          [
            139.6533388,
            35.2618667,
            0
          ],
          [
            139.6534192,
            35.2615382,
            0
          ],
          [
            139.6534782,
            35.2614156,
            0
          ],
          [
            139.6536553,
            35.2610739,
            0
          ],
          [
            139.6537572,
            35.260925,
            0
          ],
          [
            139.6538591,
            35.2608155,
            0
          ],
          [
            139.6541595,
            35.2606315,
            0
          ],
          [
            139.6543419,
            35.2605789,
            0
          ],
          [
            139.6546101,
            35.2605702,
            0
          ],
          [
            139.6548247,
            35.2605001,
            0
          ],
          [
            139.6550661,
            35.2603555,
            0
          ],
          [
            139.6551627,
            35.2601541,
            0
          ],
          [
            139.6554792,
            35.2599044,
            0
          ],
          [
            139.6559673,
            35.2593481,
            0
          ],
          [
            139.6561444,
            35.2593568,
            0
          ],
          [
            139.6563858,
            35.2594532,
            0
          ],
          [
            139.6566003,
            35.259462,
            0
          ],
          [
            139.6567505,
            35.2594444,
            0
          ],
          [
            139.6569383,
            35.2593744,
            0
          ],
          [
            139.6571099,
            35.2592649,
            0
          ],
          [
            139.6572441,
            35.2591203,
            0
          ],
          [
            139.6573513,
            35.2586604,
            0
          ],
          [
            139.6574479,
            35.2585333,
            0
          ],
          [
            139.6578288,
            35.2583362,
            0
          ],
          [
            139.6586978,
            35.258126,
            0
          ],
          [
            139.6601891,
            35.2590327,
            0
          ],
          [
            139.6603822,
            35.2590677,
            0
          ],
          [
            139.6605861,
            35.2590283,
            0
          ],
          [
            139.6630645,
            35.2578369,
            0
          ]
        ]
      }
    },
    {
      "type": "Feature",
      "properties": {
        "name": "Hirasaku River"
      },
      "geometry": {
        "type": "LineString",
        "coordinates": [
          [
            139.6630645,
            35.2578369,
            0
          ],
          [
            139.6641973,
            35.2574048,
            0
          ],
          [
            139.6651897,
            35.256958,
            0
          ],
          [
            139.6667185,
            35.2563798,
            0
          ],
          [
            139.6670672,
            35.2562834,
            0
          ],
          [
            139.6674105,
            35.2561739,
            0
          ],
          [
            139.6677539,
            35.2559899,
            0
          ],
          [
            139.6679255,
            35.2558103,
            0
          ],
          [
            139.6680918,
            35.2555519,
            0
          ],
          [
            139.6682474,
            35.2550481,
            0
          ],
          [
            139.6684244,
            35.2546933,
            0
          ],
          [
            139.6686551,
            35.2544217,
            0
          ],
          [
            139.6689179,
            35.2542158,
            0
          ],
          [
            139.6695509,
            35.2539574,
            0
          ]
        ]
      }
    },
    {
      "type": "Feature",
      "properties": {
        "name": "Hirasaku River"
      },
      "geometry": {
        "type": "LineString",
        "coordinates": [
          [
            139.6695509,
            35.2539574,
            0
          ],
          [
            139.670636,
            35.2539162,
            0
          ],
          [
            139.6711939,
            35.2538724,
            0
          ],
          [
            139.6717411,
            35.2536709,
            0
          ],
          [
            139.6721595,
            35.2534168,
            0
          ],
          [
            139.672535,
            35.2530751,
            0
          ],
          [
            139.6731465,
            35.2522253,
            0
          ],
          [
            139.6737366,
            35.2515944,
            0
          ],
          [
            139.6745842,
            35.2511126,
            0
          ],
          [
            139.6752816,
            35.2509198,
            0
          ],
          [
            139.6759039,
            35.2508848,
            0
          ],
          [
            139.6767729,
            35.2511301,
            0
          ],
          [
            139.6776205,
            35.2516558,
            0
          ],
          [
            139.6784359,
            35.2518485,
            0
          ],
          [
            139.6794873,
            35.251831,
            0
          ],
          [
            139.6804314,
            35.2515682,
            0
          ],
          [
            139.6811932,
            35.2512265,
            0
          ],
          [
            139.6819871,
            35.2505956,
            0
          ],
          [
            139.682824,
            35.2496581,
            0
          ],
          [
            139.6838432,
            35.2484403,
            0
          ],
          [
            139.6861177,
            35.2460745,
            0
          ],
          [
            139.6876305,
            35.2445587,
            0
          ],
          [
            139.69572,
            35.2395816,
            0
          ],
          [
            139.7013205,
            35.234797,
            0
          ],
          [
            139.7024148,
            35.233798,
            0
          ],
          [
            139.7057407,
            35.2313267,
            0
          ],
          [
            139.7087877,
            35.2309236,
            0
          ],
          [
            139.7097104,
            35.2306431,
            0
          ],
          [
            139.7113197,
            35.2283996,
            0
          ],
          [
            139.7121351,
            35.2278387,
            0
          ],
          [
            139.7155254,
            35.226489,
            0
          ]
        ]
      }
    },
    {
      "type": "Feature",
      "properties": {
        "name": "Hirasaku River"
      },
      "geometry": {
        "type": "LineString",
        "coordinates": [
          [
            139.6596819,
            35.2587012,
            0
          ],
          [
            139.659757,
            35.2584121,
            0
          ],
          [
            139.6595424,
            35.2581317,
            0
          ],
          [
            139.6593815,
            35.2575447,
            0
          ],
          [
            139.6592098,
            35.2571593,
            0
          ],
          [
            139.6592098,
            35.2569402,
            0
          ],
          [
            139.6587699,
            35.2566249,
            0
          ],
          [
            139.6584481,
            35.2565197,
            0
          ],
          [
            139.6583995,
            35.2561439,
            0
          ],
          [
            139.6582279,
            35.2558986,
            0
          ],
          [
            139.6575519,
            35.2554868,
            0
          ],
          [
            139.6573001,
            35.2553983,
            0
          ],
          [
            139.6569297,
            35.2550663,
            0
          ],
          [
            139.6568438,
            35.2547071,
            0
          ],
          [
            139.6562537,
            35.2538835,
            0
          ],
          [
            139.6546337,
            35.2532878,
            0
          ]
        ]
      }
    },
    {
      "type": "Feature",
      "properties": {
        "name": "Hirasaku River"
      },
      "geometry": {
        "type": "LineString",
        "coordinates": [
          [
            139.654296,
            35.2540404,
            0
          ],
          [
            139.6539741,
            35.2539352,
            0
          ],
          [
            139.6537596,
            35.2538213,
            0
          ],
          [
            139.6535343,
            35.2536461,
            0
          ],
          [
            139.6533519,
            35.253576,
            0
          ],
          [
            139.6530837,
            35.2536373,
            0
          ],
          [
            139.6528369,
            35.2535672,
            0
          ],
          [
            139.6524936,
            35.2535935,
            0
          ],
          [
            139.652161,
            35.2535322,
            0
          ],
          [
            139.6520108,
            35.2533657,
            0
          ],
          [
            139.6517533,
            35.2532343,
            0
          ],
          [
            139.6515602,
            35.2532256,
            0
          ],
          [
            139.6513778,
            35.2531555,
            0
          ],
          [
            139.6510881,
            35.2533132,
            0
          ],
          [
            139.6508199,
            35.2533219,
            0
          ],
          [
            139.6505516,
            35.2533657,
            0
          ],
          [
            139.6500689,
            35.2533657,
            0
          ],
          [
            139.6494251,
            35.2535935,
            0
          ],
          [
            139.6491891,
            35.2537337,
            0
          ],
          [
            139.6491462,
            35.2539878,
            0
          ],
          [
            139.6489745,
            35.2540842,
            0
          ],
          [
            139.6487707,
            35.2540929,
            0
          ],
          [
            139.6485024,
            35.2542857,
            0
          ],
          [
            139.6482986,
            35.2540491,
            0
          ],
          [
            139.6481269,
            35.2540141,
            0
          ],
          [
            139.647687,
            35.2543119,
            0
          ],
          [
            139.6471828,
            35.2544258,
            0
          ],
          [
            139.6468717,
            35.2543032,
            0
          ],
          [
            139.6463781,
            35.254382,
            0
          ],
          [
            139.6460563,
            35.2543908,
            0
          ],
          [
            139.6452838,
            35.25475,
            0
          ],
          [
            139.6449297,
            35.2547237,
            0
          ],
          [
            139.6448117,
            35.2548376,
            0
          ],
          [
            139.6440822,
            35.2549515,
            0
          ],
          [
            139.6432453,
            35.254347,
            0
          ],
          [
            139.6429234,
            35.2540316,
            0
          ],
          [
            139.6428591,
            35.2538739,
            0
          ],
          [
            139.6427303,
            35.2538126,
            0
          ],
          [
            139.6427303,
            35.2536286,
            0
          ],
          [
            139.642505,
            35.253392,
            0
          ]
        ]
      }
    },
    {
      "type": "Feature",
      "properties": {
        "name": "Hirasaku River"
      },
      "geometry": {
        "type": "LineString",
        "coordinates": [
          [
            139.642505,
            35.253392,
            0
          ],
          [
            139.6422475,
            35.2530153,
            0
          ],
          [
            139.6421617,
            35.2526298,
            0
          ],
          [
            139.6421832,
            35.2525509,
            0
          ],
          [
            139.6421188,
            35.2524896,
            0
          ],
          [
            139.6421832,
            35.2523669,
            0
          ],
          [
            139.6420222,
            35.2520253,
            0
          ],
          [
            139.6423226,
            35.2516836,
            0
          ],
          [
            139.6426016,
            35.251228,
            0
          ],
          [
            139.6432775,
            35.2506935,
            0
          ]
        ]
      }
    },
    {
      "type": "Feature",
      "properties": {
        "name": "Hirasaku River"
      },
      "geometry": {
        "type": "LineString",
        "coordinates": [
          [
            139.6422475,
            35.2530153,
            0
          ],
          [
            139.6421279,
            35.2530015,
            0
          ],
          [
            139.6420099,
            35.2528789,
            0
          ],
          [
            139.6417739,
            35.2529227,
            0
          ],
          [
            139.6415807,
            35.2528876,
            0
          ],
          [
            139.6414305,
            35.2529402,
            0
          ],
          [
            139.6412052,
            35.2528088,
            0
          ],
          [
            139.6409906,
            35.2529402,
            0
          ]
        ]
      }
    },
    {
      "type": "Feature",
      "properties": {
        "name": "Hirasaku River"
      },
      "geometry": {
        "type": "LineString",
        "coordinates": [
          [
            139.6514476,
            35.2531942,
            0
          ],
          [
            139.6515441,
            35.2529971,
            0
          ],
          [
            139.6517158,
            35.2523794,
            0
          ],
          [
            139.6517265,
            35.2522655,
            0
          ],
          [
            139.6517265,
            35.2521692,
            0
          ],
          [
            139.6516675,
            35.252064,
            0
          ],
          [
            139.6512544,
            35.2516522,
            0
          ],
          [
            139.6511525,
            35.2515953,
            0
          ],
          [
            139.6511096,
            35.2514639,
            0
          ],
          [
            139.6513188,
            35.2512317,
            0
          ],
          [
            139.6512598,
            35.2511616,
            0
          ]
        ]
      }
    },
    {
      "type": "Feature",
      "properties": {
        "name": "A River Named Seven Times",
        "description": "The New Topography of Sagami Province — compiled in 1841, in the closing decades of the Edo period — records that the river now known as the Hirasaku River was, in its own day, no single river at all. At least seven villages along its course gave it seven different names, each drawn from the stretch of land it happened to pass through.<br>From its headwaters in the foothills of Ōkusu Mountain, near the Abekura Hot Springs, it was called the Yu-no-sawa River. Further inland, it became the Seisui River. In Koyabe — a district straddling both sides of Route 26 — it was known as the Sumata River. North of what is now the JR line, villagers called it the Gotanda River; near JR Kinugasa Station, the Butai River; and further downstream, by Morisaki Shrine and Myōkakuji Temple, the Funa-tsuki River. Where its lower reaches had been reclaimed for rice cultivation, it took the name Uchikawa, after the paddies themselves. By the time it reached Kurihama port and opened into Tokyo Bay, it was the Yawata River (Ishii 1987b, 112).<br>Today the river answers to a single name, Hirasaku, from source to mouth — but for centuries it was less a river than a chain of rivers, each village claiming the stretch that ran past its own door."
      },
      "geometry": {
        "type": "Point",
        "coordinates": [
          139.6584052,
          35.2561868,
          0
        ]
      }
    },
    {
      "type": "Feature",
      "properties": {
        "name": "Two Bridges, No River",
        "description": "On the tidal flats where the Hirasaku River meets the Uraga Channel, land reclamation found one of its earliest champions in Sunamura Shinzaemon Masatsugu, a civil engineer whose entrepreneurial instincts matched his technical skill. A rising population, advances in construction methods, and the Shogunate's chronic financial strain — which pushed authorities to encourage private investment in coastal reclamation for rice production — created the conditions for his career. He had already lent his expertise to the Noge Shinden in Yokohama, later renamed the Yoshida Shinden, when he turned his attention to the marshy inlet at Kurihama.<br>Beginning in 1660, Shinzaemon spent eight arduous years completing what would become the largest reclamation project in present-day Yokosuka: the Uchikawa Shinden. The water gate built to keep seawater from reclaiming the new paddies proved the hardest part of the work, breaking more than once before its completion in 1667 (Ishii 1987a, 241). The gate stood on a small island raised in the middle of the tidal channel, with a bridge reaching out to each bank — and it is this pairing, not any wedding, that gave the crossing its enduring name: Meoto-bashi, the \"Spouse Bridge.\" (A different Meoto-bashi spans the Takatori River to the north; the two are unrelated.)<br>Shinzaemon later went on to develop the Sunamura Shinden in Edo — land that today gives Tokyo's Kōtō Ward its name — but Uchikawa remained his largest undertaking, and the one for which he is still honored locally: a monument to him stands at the bridge's edge, and a memorial service is held there every December.<br>Where seawater once had to be fought back tide by tide, commuters now cross without a glance —two bridges over a channel that was never a river, the water gate itself long gone, its name alone carrying the crossing's history back to 1667."
      },
      "geometry": {
        "type": "Point",
        "coordinates": [
          139.7052204,
          35.231441,
          0
        ]
      }
    }
  ]
}
