{
"type": "FeatureCollection",
"name": "Gu Hu Di Yu ",
"features": [
{ "type": "Feature", "properties": { "Name": "Wadayama Yato (和田山谷戸)" }, "geometry": { "type": "Polygon", "coordinates": [ [ [ 139.6272406, 35.3180632, 0.0 ], [ 139.6272781, 35.3183652, 0.0 ], [ 139.6275651, 35.3188182, 0.0 ], [ 139.6270126, 35.3190983, 0.0 ], [ 139.6267256, 35.3197418, 0.0 ], [ 139.6263836, 35.3205209, 0.0 ], [ 139.6248816, 35.3191946, 0.0 ], [ 139.6255092, 35.3187044, 0.0 ], [ 139.6258257, 35.3180347, 0.0 ], [ 139.6272406, 35.3180632, 0.0 ] ] ] } },
{ "type": "Feature", "properties": { "Name": "Mukouzaka Yato (向坂谷戸)" }, "geometry": { "type": "Polygon", "coordinates": [ [ [ 139.622907, 35.3159484, 0.0 ], [ 139.6227032, 35.3160885, 0.0 ], [ 139.6225758, 35.3161717, 0.0 ], [ 139.6225919, 35.3162745, 0.0 ], [ 139.6225396, 35.3164606, 0.0 ], [ 139.6222982, 35.3163894, 0.0 ], [ 139.6222687, 35.3162384, 0.0 ], [ 139.6223424, 35.3159955, 0.0 ], [ 139.6226214, 35.31592, 0.0 ], [ 139.6228266, 35.3157941, 0.0 ], [ 139.622907, 35.3159484, 0.0 ] ] ] } },
{ "type": "Feature", "properties": { "Name": "Behind Takatori Hot Springs (鷹取温泉奥一帯)" }, "geometry": { "type": "Polygon", "coordinates": [ [ [ 139.6216143, 35.3164701, 0.0 ], [ 139.6213675, 35.3165796, 0.0 ], [ 139.6210752, 35.3164942, 0.0 ], [ 139.6207667, 35.3161922, 0.0 ], [ 139.6202759, 35.3155881, 0.0 ], [ 139.6204529, 35.3152073, 0.0 ], [ 139.6210322, 35.3148987, 0.0 ], [ 139.6217779, 35.3160937, 0.0 ], [ 139.6220193, 35.3162469, 0.0 ], [ 139.6219791, 35.3164417, 0.0 ], [ 139.6216143, 35.3164701, 0.0 ] ] ] } },
{ "type": "Feature", "properties": { "Name": "Inari Yato (稲荷谷戸)" }, "geometry": { "type": "Polygon", "coordinates": [ [ [ 139.6296227, 35.316313, 0.0 ], [ 139.6294779, 35.316418, 0.0 ], [ 139.629274, 35.3165581, 0.0 ], [ 139.6284586, 35.3155295, 0.0 ], [ 139.6281153, 35.3148335, 0.0 ], [ 139.6282065, 35.3142994, 0.0 ], [ 139.6287429, 35.314085, 0.0 ], [ 139.6294349, 35.3140499, 0.0 ], [ 139.6297085, 35.3141944, 0.0 ], [ 139.6299875, 35.3145314, 0.0 ], [ 139.6301377, 35.3150348, 0.0 ], [ 139.6301538, 35.3158096, 0.0 ], [ 139.6296227, 35.316313, 0.0 ] ] ] } },
{ "type": "Feature", "properties": { "Name": "Hiraroku Yato (平六谷戸)" }, "geometry": { "type": "Polygon", "coordinates": [ [ [ 139.6255265, 35.3146049, 0.0 ], [ 139.6252154, 35.3135938, 0.0 ], [ 139.6254621, 35.3135325, 0.0 ], [ 139.6259128, 35.3129634, 0.0 ], [ 139.6262936, 35.3123112, 0.0 ], [ 139.626637, 35.3116721, 0.0 ], [ 139.6267496, 35.3102975, 0.0 ], [ 139.6274309, 35.3102363, 0.0 ], [ 139.6277688, 35.3105514, 0.0 ], [ 139.6277313, 35.3112518, 0.0 ], [ 139.6279083, 35.3118866, 0.0 ], [ 139.6285842, 35.3122543, 0.0 ], [ 139.6289115, 35.3127927, 0.0 ], [ 139.6290188, 35.3134931, 0.0 ], [ 139.6285628, 35.3140052, 0.0 ], [ 139.6282087, 35.3139833, 0.0 ], [ 139.6270929, 35.3140446, 0.0 ], [ 139.6264492, 35.3144255, 0.0 ], [ 139.6259664, 35.3145787, 0.0 ], [ 139.6255265, 35.3146049, 0.0 ] ] ] } },
{ "type": "Feature", "properties": { "Name": "Maeda Yato (前田谷戸)" }, "geometry": { "type": "Polygon", "coordinates": [ [ [ 139.6250212, 35.3150849, 0.0 ], [ 139.6246564, 35.3152293, 0.0 ], [ 139.6243238, 35.3151855, 0.0 ], [ 139.6233528, 35.3150061, 0.0 ], [ 139.6231383, 35.3147566, 0.0 ], [ 139.6229291, 35.3143013, 0.0 ], [ 139.622913, 35.3137498, 0.0 ], [ 139.6231329, 35.3134215, 0.0 ], [ 139.6234709, 35.31308, 0.0 ], [ 139.6241146, 35.31308, 0.0 ], [ 139.6245384, 35.3133427, 0.0 ], [ 139.6248227, 35.3135834, 0.0 ], [ 139.6250051, 35.3142838, 0.0 ], [ 139.6250212, 35.3150849, 0.0 ] ] ] } },
{ "type": "Feature", "properties": { "Name": "Ryōshin Temple Yato (良心寺谷戸)" }, "geometry": { "type": "Polygon", "coordinates": [ [ [ 139.6197825, 35.3082735, 0.0 ], [ 139.621467, 35.3093679, 0.0 ], [ 139.6218425, 35.3089827, 0.0 ], [ 139.6221214, 35.3087376, 0.0 ], [ 139.6222984, 35.3088207, 0.0 ], [ 139.6226632, 35.3090615, 0.0 ], [ 139.6228081, 35.3093504, 0.0 ], [ 139.6229422, 35.309867, 0.0 ], [ 139.6232479, 35.3104098, 0.0 ], [ 139.6229851, 35.3108869, 0.0 ], [ 139.6226096, 35.3114823, 0.0 ], [ 139.6222448, 35.3118981, 0.0 ], [ 139.6217996, 35.3118544, 0.0 ], [ 139.6216493, 35.3117055, 0.0 ], [ 139.6212577, 35.3114823, 0.0 ], [ 139.6202868, 35.3112196, 0.0 ], [ 139.6197718, 35.310992, 0.0 ], [ 139.6195787, 35.3106593, 0.0 ], [ 139.6192729, 35.310169, 0.0 ], [ 139.6190583, 35.3103047, 0.0 ], [ 139.6189081, 35.3102172, 0.0 ], [ 139.6185702, 35.3103398, 0.0 ], [ 139.6183341, 35.3100202, 0.0 ], [ 139.6185916, 35.3098626, 0.0 ], [ 139.6187043, 35.3095737, 0.0 ], [ 139.6191013, 35.3092585, 0.0 ], [ 139.6187257, 35.3088207, 0.0 ], [ 139.618951, 35.3082341, 0.0 ], [ 139.619407, 35.3080809, 0.0 ], [ 139.6203726, 35.3077307, 0.0 ], [ 139.6205335, 35.3079452, 0.0 ], [ 139.6197825, 35.3082735, 0.0 ] ] ] } },
{ "type": "Feature", "properties": { "Name": "Shimonbō Yato (四門坊谷戸)" }, "geometry": { "type": "Polygon", "coordinates": [ [ [ 139.6278705, 35.2995675, 0.0 ], [ 139.6275647, 35.2996244, 0.0 ], [ 139.6273609, 35.2995763, 0.0 ], [ 139.6268727, 35.2996595, 0.0 ], [ 139.6267386, 35.299191, 0.0 ], [ 139.6268834, 35.2990597, 0.0 ], [ 139.6265026, 35.298543, 0.0 ], [ 139.6266367, 35.2983679, 0.0 ], [ 139.6265348, 35.2982059, 0.0 ], [ 139.6267279, 35.2970413, 0.0 ], [ 139.6271463, 35.2972952, 0.0 ], [ 139.6270175, 35.297917, 0.0 ], [ 139.6270819, 35.2983154, 0.0 ], [ 139.6278705, 35.2995675, 0.0 ] ] ] } },
{ "type": "Feature", "properties": { "Name": "Ushigasaku Yato (牛が作谷戸)" }, "geometry": { "type": "Polygon", "coordinates": [ [ [ 139.6251658, 35.2993596, 0.0 ], [ 139.6247849, 35.299399, 0.0 ], [ 139.6245274, 35.2990969, 0.0 ], [ 139.6243558, 35.2988035, 0.0 ], [ 139.623932, 35.2989568, 0.0 ], [ 139.6232721, 35.2990181, 0.0 ], [ 139.6226713, 35.298878, 0.0 ], [ 139.6220222, 35.2982037, 0.0 ], [ 139.6217111, 35.2976214, 0.0 ], [ 139.6214482, 35.2970785, 0.0 ], [ 139.6214858, 35.2964437, 0.0 ], [ 139.6217916, 35.2957563, 0.0 ], [ 139.6222314, 35.2950645, 0.0 ], [ 139.6225909, 35.2949375, 0.0 ], [ 139.6230093, 35.29485, 0.0 ], [ 139.6237174, 35.2949375, 0.0 ], [ 139.6238086, 35.2952965, 0.0 ], [ 139.6246615, 35.2950776, 0.0 ], [ 139.6254018, 35.2952878, 0.0 ], [ 139.6252892, 35.2954761, 0.0 ], [ 139.625198, 35.29573, 0.0 ], [ 139.6253911, 35.2961985, 0.0 ], [ 139.6257076, 35.2965137, 0.0 ], [ 139.6254447, 35.2968552, 0.0 ], [ 139.6243665, 35.2963386, 0.0 ], [ 139.6240554, 35.2967764, 0.0 ], [ 139.6242377, 35.2972318, 0.0 ], [ 139.6244952, 35.2976783, 0.0 ], [ 139.6248171, 35.2979235, 0.0 ], [ 139.6251604, 35.2979673, 0.0 ], [ 139.6255252, 35.2984577, 0.0 ], [ 139.6256405, 35.2989524, 0.0 ], [ 139.6251658, 35.2993596, 0.0 ] ] ] } },
{ "type": "Feature", "properties": { "Name": "Mitomi Yato (三富谷戸)" }, "geometry": { "type": "Polygon", "coordinates": [ [ [ 139.6248399, 35.3021167, 0.0 ], [ 139.624282, 35.3022918, 0.0 ], [ 139.6240782, 35.3029835, 0.0 ], [ 139.6245074, 35.3036752, 0.0 ], [ 139.6247112, 35.3043757, 0.0 ], [ 139.6246254, 35.3050674, 0.0 ], [ 139.6237992, 35.3049798, 0.0 ], [ 139.6229409, 35.3049186, 0.0 ], [ 139.6227907, 35.3043582, 0.0 ], [ 139.6224796, 35.3041393, 0.0 ], [ 139.6221255, 35.3048047, 0.0 ], [ 139.6217393, 35.3054264, 0.0 ], [ 139.6214174, 35.3058729, 0.0 ], [ 139.6207415, 35.3055752, 0.0 ], [ 139.6207308, 35.3046821, 0.0 ], [ 139.6204519, 35.3041393, 0.0 ], [ 139.6204733, 35.3037365, 0.0 ], [ 139.6198296, 35.30329, 0.0 ], [ 139.6198188, 35.3027033, 0.0 ], [ 139.6189391, 35.3024669, 0.0 ], [ 139.6190464, 35.3016351, 0.0 ], [ 139.6194433, 35.3009959, 0.0 ], [ 139.6187031, 35.3007332, 0.0 ], [ 139.6185421, 35.3001115, 0.0 ], [ 139.6188318, 35.2993498, 0.0 ], [ 139.6194219, 35.2992009, 0.0 ], [ 139.6200763, 35.2994373, 0.0 ], [ 139.6207523, 35.2998926, 0.0 ], [ 139.6210849, 35.3004268, 0.0 ], [ 139.6208595, 35.3008558, 0.0 ], [ 139.6214711, 35.3011448, 0.0 ], [ 139.621911, 35.3016088, 0.0 ], [ 139.6230804, 35.3010222, 0.0 ], [ 139.6240675, 35.3011973, 0.0 ], [ 139.6248399, 35.3021167, 0.0 ] ] ] } },
{ "type": "Feature", "properties": { "Name": "Ushi Yato (牛谷戸)" }, "geometry": { "type": "Polygon", "coordinates": [ [ [ 139.6284797, 35.3021469, 0.0 ], [ 139.6280559, 35.30209, 0.0 ], [ 139.6277823, 35.302217, 0.0 ], [ 139.6276857, 35.3026241, 0.0 ], [ 139.6275355, 35.3033377, 0.0 ], [ 139.6273156, 35.3038062, 0.0 ], [ 139.6271117, 35.3041652, 0.0 ], [ 139.6270688, 35.304441, 0.0 ], [ 139.6271117, 35.3045942, 0.0 ], [ 139.6264358, 35.3049313, 0.0 ], [ 139.6261139, 35.304511, 0.0 ], [ 139.6262963, 35.3041214, 0.0 ], [ 139.6265753, 35.3038587, 0.0 ], [ 139.6265753, 35.3033946, 0.0 ], [ 139.6267899, 35.302773, 0.0 ], [ 139.6268972, 35.3026198, 0.0 ], [ 139.6268435, 35.301928, 0.0 ], [ 139.627498, 35.3018405, 0.0 ], [ 139.6280559, 35.3017923, 0.0 ], [ 139.6284797, 35.3021469, 0.0 ] ] ] } },
{ "type": "Feature", "properties": { "Name": "Shitsukama Yato (失鎌谷戸)" }, "geometry": { "type": "Polygon", "coordinates": [ [ [ 139.6367037, 35.2910553, 0.0 ], [ 139.6348851, 35.2918873, 0.0 ], [ 139.6342414, 35.2906437, 0.0 ], [ 139.6338337, 35.2893389, 0.0 ], [ 139.6342414, 35.2887609, 0.0 ], [ 139.6350568, 35.2887171, 0.0 ], [ 139.6352606, 35.2880428, 0.0 ], [ 139.6360331, 35.2878589, 0.0 ], [ 139.6367841, 35.2879465, 0.0 ], [ 139.6374171, 35.2886208, 0.0 ], [ 139.6375781, 35.2891462, 0.0 ], [ 139.6380823, 35.2893564, 0.0 ], [ 139.6383613, 35.2897943, 0.0 ], [ 139.6379643, 35.2901884, 0.0 ], [ 139.6372669, 35.2902672, 0.0 ], [ 139.6367037, 35.2910553, 0.0 ] ] ] } },
{ "type": "Feature", "properties": { "Name": "Oyamada Yato (小山田谷戸)" }, "geometry": { "type": "Polygon", "coordinates": [ [ [ 139.6310703, 35.2909399, 0.0 ], [ 139.6309791, 35.2913296, 0.0 ], [ 139.630668, 35.2915135, 0.0 ], [ 139.6300833, 35.2914347, 0.0 ], [ 139.6293859, 35.2912771, 0.0 ], [ 139.629166, 35.2910319, 0.0 ], [ 139.6287851, 35.2908699, 0.0 ], [ 139.6282272, 35.2906072, 0.0 ], [ 139.6278624, 35.2904276, 0.0 ], [ 139.6276693, 35.2901693, 0.0 ], [ 139.6276264, 35.2897927, 0.0 ], [ 139.6279912, 35.2894337, 0.0 ], [ 139.6283613, 35.2892541, 0.0 ], [ 139.6289675, 35.2893811, 0.0 ], [ 139.6290265, 35.2895388, 0.0 ], [ 139.6293269, 35.2896263, 0.0 ], [ 139.6296166, 35.2895694, 0.0 ], [ 139.6300833, 35.2895694, 0.0 ], [ 139.6303783, 35.2896833, 0.0 ], [ 139.6308236, 35.2897665, 0.0 ], [ 139.6310542, 35.2899504, 0.0 ], [ 139.631183, 35.2902744, 0.0 ], [ 139.6312152, 35.2904714, 0.0 ], [ 139.6310703, 35.2909399, 0.0 ] ] ] } },
{ "type": "Feature", "properties": { "Name": "Danna Yato (旦那谷戸)" }, "geometry": { "type": "Polygon", "coordinates": [ [ [ 139.6304459, 35.2931621, 0.0 ], [ 139.6300382, 35.2932058, 0.0 ], [ 139.6297056, 35.2931752, 0.0 ], [ 139.629137, 35.2931183, 0.0 ], [ 139.6287561, 35.293092, 0.0 ], [ 139.6283806, 35.2930132, 0.0 ], [ 139.6279461, 35.2929344, 0.0 ], [ 139.6276618, 35.2928118, 0.0 ], [ 139.6276886, 35.2923783, 0.0 ], [ 139.6277262, 35.2921506, 0.0 ], [ 139.6279997, 35.2920849, 0.0 ], [ 139.6282894, 35.292155, 0.0 ], [ 139.6286757, 35.2922163, 0.0 ], [ 139.6288044, 35.2920324, 0.0 ], [ 139.6290083, 35.291704, 0.0 ], [ 139.6294481, 35.2913231, 0.0 ], [ 139.6299953, 35.2914544, 0.0 ], [ 139.6304888, 35.2916383, 0.0 ], [ 139.630682, 35.2919755, 0.0 ], [ 139.6307463, 35.2923214, 0.0 ], [ 139.6305908, 35.2925972, 0.0 ], [ 139.6305371, 35.2928818, 0.0 ], [ 139.6304459, 35.2931621, 0.0 ] ] ] } },
{ "type": "Feature", "properties": { "Name": "Ike no Yato (池の谷戸)" }, "geometry": { "type": "Polygon", "coordinates": [ [ [ 139.6312382, 35.2966936, 0.0 ], [ 139.6307876, 35.2971227, 0.0 ], [ 139.6302297, 35.2972496, 0.0 ], [ 139.6296933, 35.2973547, 0.0 ], [ 139.6294573, 35.2974554, 0.0 ], [ 139.629232, 35.2975692, 0.0 ], [ 139.6289047, 35.2973065, 0.0 ], [ 139.6290549, 35.2970833, 0.0 ], [ 139.6289101, 35.2969256, 0.0 ], [ 139.6284541, 35.2970351, 0.0 ], [ 139.628261, 35.29693, 0.0 ], [ 139.6281001, 35.2967593, 0.0 ], [ 139.6280196, 35.2965053, 0.0 ], [ 139.6277997, 35.296571, 0.0 ], [ 139.6275851, 35.2966892, 0.0 ], [ 139.6272525, 35.2964966, 0.0 ], [ 139.6274134, 35.2962164, 0.0 ], [ 139.6276441, 35.2960719, 0.0 ], [ 139.6275314, 35.2959493, 0.0 ], [ 139.62729, 35.2960237, 0.0 ], [ 139.6270325, 35.2961069, 0.0 ], [ 139.6268823, 35.2961988, 0.0 ], [ 139.6267214, 35.2962295, 0.0 ], [ 139.6266088, 35.2963171, 0.0 ], [ 139.6262118, 35.2962514, 0.0 ], [ 139.6260562, 35.2961507, 0.0 ], [ 139.6259061, 35.2960674, 0.0 ], [ 139.6258256, 35.2958485, 0.0 ], [ 139.6258203, 35.2956953, 0.0 ], [ 139.6258471, 35.2954852, 0.0 ], [ 139.6259329, 35.2953713, 0.0 ], [ 139.6260938, 35.2952531, 0.0 ], [ 139.626244, 35.294951, 0.0 ], [ 139.6263352, 35.2946839, 0.0 ], [ 139.6265444, 35.2944474, 0.0 ], [ 139.6269092, 35.2943949, 0.0 ], [ 139.6272632, 35.2943993, 0.0 ], [ 139.6275851, 35.2945438, 0.0 ], [ 139.6278855, 35.2946707, 0.0 ], [ 139.6280143, 35.294824, 0.0 ], [ 139.6281966, 35.2949466, 0.0 ], [ 139.6283736, 35.2950999, 0.0 ], [ 139.6284917, 35.2952487, 0.0 ], [ 139.628438, 35.2954896, 0.0 ], [ 139.6285292, 35.2957304, 0.0 ], [ 139.6287813, 35.295726, 0.0 ], [ 139.6292159, 35.2956997, 0.0 ], [ 139.629527, 35.2956822, 0.0 ], [ 139.6297308, 35.2958836, 0.0 ], [ 139.6299937, 35.2958661, 0.0 ], [ 139.6302941, 35.2958748, 0.0 ], [ 139.6305623, 35.2958048, 0.0 ], [ 139.6309486, 35.2958967, 0.0 ], [ 139.631147, 35.2961025, 0.0 ], [ 139.6312382, 35.2966936, 0.0 ] ] ] } },
{ "type": "Feature", "properties": { "Name": "Taura Ōsaku-chō (田浦大作町全部)" }, "geometry": { "type": "Polygon", "coordinates": [ [ [ 139.6317293, 35.2888084, 0.0 ], [ 139.6313645, 35.2890711, 0.0 ], [ 139.6309568, 35.288896, 0.0 ], [ 139.6304633, 35.2887909, 0.0 ], [ 139.6299483, 35.2888172, 0.0 ], [ 139.6294226, 35.2887734, 0.0 ], [ 139.6291651, 35.2884756, 0.0 ], [ 139.6286609, 35.2884844, 0.0 ], [ 139.6280708, 35.2884844, 0.0 ], [ 139.6276524, 35.2883092, 0.0 ], [ 139.6274485, 35.2885807, 0.0 ], [ 139.6274807, 35.2889923, 0.0 ], [ 139.627309, 35.2893864, 0.0 ], [ 139.6269121, 35.2897104, 0.0 ], [ 139.6260967, 35.2897191, 0.0 ], [ 139.6256354, 35.2893952, 0.0 ], [ 139.6251526, 35.2890536, 0.0 ], [ 139.6245947, 35.2887996, 0.0 ], [ 139.6242835, 35.2884143, 0.0 ], [ 139.6241655, 35.2879677, 0.0 ], [ 139.6243479, 35.287451, 0.0 ], [ 139.6247019, 35.2869606, 0.0 ], [ 139.6253671, 35.2867417, 0.0 ], [ 139.6256032, 35.2862687, 0.0 ], [ 139.6252384, 35.2856381, 0.0 ], [ 139.6249702, 35.2851126, 0.0 ], [ 139.6247663, 35.2844208, 0.0 ], [ 139.6248951, 35.2838603, 0.0 ], [ 139.6252491, 35.2834574, 0.0 ], [ 139.6259358, 35.2832385, 0.0 ], [ 139.6266868, 35.2834312, 0.0 ], [ 139.6274378, 35.2834662, 0.0 ], [ 139.6278026, 35.2836414, 0.0 ], [ 139.6280708, 35.2839654, 0.0 ], [ 139.6284785, 35.2841756, 0.0 ], [ 139.628736, 35.2847711, 0.0 ], [ 139.6286609, 35.2852265, 0.0 ], [ 139.6290149, 35.2853491, 0.0 ], [ 139.6295728, 35.285498, 0.0 ], [ 139.6300556, 35.2858133, 0.0 ], [ 139.63012, 35.2862162, 0.0 ], [ 139.6302058, 35.2864263, 0.0 ], [ 139.6305062, 35.2866628, 0.0 ], [ 139.6310641, 35.2864701, 0.0 ], [ 139.6317079, 35.286584, 0.0 ], [ 139.6318473, 35.2869868, 0.0 ], [ 139.6319439, 35.2876874, 0.0 ], [ 139.6321907, 35.2882392, 0.0 ], [ 139.6317293, 35.2888084, 0.0 ] ] ] } },
{ "type": "Feature", "properties": { "Name": "Taura Izumi-chō (田浦泉町全部)" }, "geometry": { "type": "Polygon", "coordinates": [ [ [ 139.6326452, 35.2874293, 0.0 ], [ 139.6319585, 35.2869038, 0.0 ], [ 139.6316152, 35.2850122, 0.0 ], [ 139.6311217, 35.2850297, 0.0 ], [ 139.6307355, 35.2845743, 0.0 ], [ 139.6293193, 35.2836109, 0.0 ], [ 139.6283322, 35.2834357, 0.0 ], [ 139.6280532, 35.282595, 0.0 ], [ 139.6272486, 35.2824111, 0.0 ], [ 139.6267229, 35.2816492, 0.0 ], [ 139.6259504, 35.2818418, 0.0 ], [ 139.6245557, 35.2817192, 0.0 ], [ 139.6237403, 35.2809309, 0.0 ], [ 139.6222168, 35.2802303, 0.0 ], [ 139.6226888, 35.2797748, 0.0 ], [ 139.6226888, 35.278899, 0.0 ], [ 139.6256285, 35.2789165, 0.0 ], [ 139.6262937, 35.2786187, 0.0 ], [ 139.6271735, 35.2784961, 0.0 ], [ 139.6272808, 35.2779005, 0.0 ], [ 139.6285468, 35.2770071, 0.0 ], [ 139.6301132, 35.2777779, 0.0 ], [ 139.6314865, 35.2775327, 0.0 ], [ 139.6318083, 35.2777429, 0.0 ], [ 139.6329241, 35.2772174, 0.0 ], [ 139.633482, 35.2772524, 0.0 ], [ 139.6340614, 35.279442, 0.0 ], [ 139.633761, 35.2795997, 0.0 ], [ 139.6330958, 35.2803529, 0.0 ], [ 139.6338039, 35.2809134, 0.0 ], [ 139.6347051, 35.2821045, 0.0 ], [ 139.6353059, 35.2834138, 0.0 ], [ 139.6358209, 35.2838868, 0.0 ], [ 139.6361427, 35.2844167, 0.0 ], [ 139.6366738, 35.2851348, 0.0 ], [ 139.637162, 35.28545, 0.0 ], [ 139.637398, 35.2859318, 0.0 ], [ 139.6371942, 35.2866936, 0.0 ], [ 139.6366149, 35.2867812, 0.0 ], [ 139.6361643, 35.2863784, 0.0 ], [ 139.6348124, 35.2862382, 0.0 ], [ 139.6347051, 35.2863609, 0.0 ], [ 139.6336537, 35.2867287, 0.0 ], [ 139.6326452, 35.2874293, 0.0 ] ] ] } },
{ "type": "Feature", "properties": { "Name": "Ōyato (大谷戸)" }, "geometry": { "type": "Polygon", "coordinates": [ [ [ 139.6414639, 35.283703, 0.0 ], [ 139.6410777, 35.2839482, 0.0 ], [ 139.6405305, 35.2839745, 0.0 ], [ 139.6400048, 35.2840446, 0.0 ], [ 139.6395327, 35.2839482, 0.0 ], [ 139.6392323, 35.2842197, 0.0 ], [ 139.6388568, 35.2842898, 0.0 ], [ 139.6382131, 35.2842547, 0.0 ], [ 139.6376659, 35.2841847, 0.0 ], [ 139.6373655, 35.2841497, 0.0 ], [ 139.6369471, 35.2840621, 0.0 ], [ 139.6367539, 35.2839657, 0.0 ], [ 139.636432, 35.2839504, 0.0 ], [ 139.6361102, 35.2838387, 0.0 ], [ 139.6359278, 35.2837117, 0.0 ], [ 139.635724, 35.2835016, 0.0 ], [ 139.6355524, 35.2833001, 0.0 ], [ 139.6353377, 35.2829673, 0.0 ], [ 139.635209, 35.2827396, 0.0 ], [ 139.6351553, 35.2824331, 0.0 ], [ 139.6349515, 35.2821265, 0.0 ], [ 139.634812, 35.2817762, 0.0 ], [ 139.634576, 35.2815222, 0.0 ], [ 139.6344687, 35.2811719, 0.0 ], [ 139.6344633, 35.280896, 0.0 ], [ 139.6345116, 35.2807428, 0.0 ], [ 139.6345706, 35.2804975, 0.0 ], [ 139.6346511, 35.2802961, 0.0 ], [ 139.6349837, 35.279937, 0.0 ], [ 139.6351661, 35.279683, 0.0 ], [ 139.6354557, 35.2793239, 0.0 ], [ 139.6357991, 35.2791137, 0.0 ], [ 139.6365286, 35.278886, 0.0 ], [ 139.6369363, 35.278886, 0.0 ], [ 139.6375586, 35.2790261, 0.0 ], [ 139.6380736, 35.2791575, 0.0 ], [ 139.6384169, 35.2793677, 0.0 ], [ 139.6390285, 35.2794202, 0.0 ], [ 139.6392645, 35.2794816, 0.0 ], [ 139.6395864, 35.2797793, 0.0 ], [ 139.6400262, 35.2799545, 0.0 ], [ 139.6404876, 35.2802085, 0.0 ], [ 139.640906, 35.280445, 0.0 ], [ 139.6410884, 35.2807778, 0.0 ], [ 139.641024, 35.2810931, 0.0 ], [ 139.6412493, 35.281277, 0.0 ], [ 139.6413781, 35.2815222, 0.0 ], [ 139.6413244, 35.2818638, 0.0 ], [ 139.6411313, 35.282074, 0.0 ], [ 139.640906, 35.2824156, 0.0 ], [ 139.6407773, 35.282617, 0.0 ], [ 139.6411635, 35.2829148, 0.0 ], [ 139.641539, 35.2831512, 0.0 ], [ 139.6416356, 35.2834403, 0.0 ], [ 139.6414639, 35.283703, 0.0 ] ] ] } },
{ "type": "Feature", "properties": { "Name": "Naka no Yato (中の谷戸)" }, "geometry": { "type": "Polygon", "coordinates": [ [ [ 139.6428839, 35.2877531, 0.0 ], [ 139.6426479, 35.2879195, 0.0 ], [ 139.6422938, 35.2879984, 0.0 ], [ 139.6419398, 35.2882436, 0.0 ], [ 139.641575, 35.2881472, 0.0 ], [ 139.6412424, 35.2879458, 0.0 ], [ 139.6406523, 35.2878057, 0.0 ], [ 139.6405236, 35.2874729, 0.0 ], [ 139.6402339, 35.2874116, 0.0 ], [ 139.6399335, 35.287254, 0.0 ], [ 139.6398047, 35.2870788, 0.0 ], [ 139.6394292, 35.2871489, 0.0 ], [ 139.6388821, 35.286965, 0.0 ], [ 139.6387104, 35.2866935, 0.0 ], [ 139.6385065, 35.2865271, 0.0 ], [ 139.6381203, 35.2865008, 0.0 ], [ 139.6376912, 35.2863957, 0.0 ], [ 139.6375839, 35.2861855, 0.0 ], [ 139.6375409, 35.2859578, 0.0 ], [ 139.6374873, 35.2857739, 0.0 ], [ 139.6372513, 35.2856075, 0.0 ], [ 139.6371118, 35.2853623, 0.0 ], [ 139.6368758, 35.2852134, 0.0 ], [ 139.6366826, 35.2850558, 0.0 ], [ 139.6364466, 35.2848719, 0.0 ], [ 139.6363393, 35.2846004, 0.0 ], [ 139.6360604, 35.2842413, 0.0 ], [ 139.6359424, 35.2840136, 0.0 ], [ 139.6361784, 35.2839173, 0.0 ], [ 139.6364573, 35.2840136, 0.0 ], [ 139.6367324, 35.2841058, 0.0 ], [ 139.6369187, 35.2841625, 0.0 ], [ 139.637026, 35.2843727, 0.0 ], [ 139.6371762, 35.284504, 0.0 ], [ 139.6373693, 35.2846354, 0.0 ], [ 139.6375785, 35.2848499, 0.0 ], [ 139.6377662, 35.2845916, 0.0 ], [ 139.6383027, 35.2844427, 0.0 ], [ 139.6388177, 35.2846442, 0.0 ], [ 139.6390108, 35.2848631, 0.0 ], [ 139.6391503, 35.2851609, 0.0 ], [ 139.6392254, 35.2854149, 0.0 ], [ 139.6394936, 35.2857301, 0.0 ], [ 139.6396867, 35.2858615, 0.0 ], [ 139.6401695, 35.285914, 0.0 ], [ 139.6406845, 35.2859929, 0.0 ], [ 139.6411995, 35.2861242, 0.0 ], [ 139.6416715, 35.2862906, 0.0 ], [ 139.6417574, 35.2865271, 0.0 ], [ 139.6418432, 35.2866847, 0.0 ], [ 139.6418432, 35.2868861, 0.0 ], [ 139.6421651, 35.2869737, 0.0 ], [ 139.6425728, 35.287, 0.0 ], [ 139.6428839, 35.2877531, 0.0 ] ] ] } },
{ "type": "Feature", "properties": { "Name": "Nishi Yato (西谷戸)" }, "geometry": { "type": "Polygon", "coordinates": [ [ [ 139.6403232, 35.2904278, 0.0 ], [ 139.6398726, 35.2904672, 0.0 ], [ 139.6396204, 35.2901913, 0.0 ], [ 139.6393576, 35.2897666, 0.0 ], [ 139.6390786, 35.2895696, 0.0 ], [ 139.6388104, 35.2894163, 0.0 ], [ 139.6386441, 35.2891405, 0.0 ], [ 139.6383866, 35.2889303, 0.0 ], [ 139.6378931, 35.2888033, 0.0 ], [ 139.6375444, 35.2888077, 0.0 ], [ 139.637303, 35.2884661, 0.0 ], [ 139.6371367, 35.2882691, 0.0 ], [ 139.6368256, 35.2879626, 0.0 ], [ 139.6366378, 35.2877831, 0.0 ], [ 139.6366056, 35.2876736, 0.0 ], [ 139.6368095, 35.2875291, 0.0 ], [ 139.6368739, 35.2873014, 0.0 ], [ 139.6368953, 35.2871131, 0.0 ], [ 139.6369651, 35.2869642, 0.0 ], [ 139.6371072, 35.2868416, 0.0 ], [ 139.6373164, 35.2864935, 0.0 ], [ 139.6373298, 35.2862713, 0.0 ], [ 139.6374183, 35.2860666, 0.0 ], [ 139.637535, 35.2862067, 0.0 ], [ 139.6375829, 35.286395, 0.0 ], [ 139.637824, 35.2865045, 0.0 ], [ 139.6380165, 35.2865614, 0.0 ], [ 139.6382364, 35.2866358, 0.0 ], [ 139.6383437, 35.2866752, 0.0 ], [ 139.6384456, 35.2867103, 0.0 ], [ 139.6387782, 35.287008, 0.0 ], [ 139.6389391, 35.2871482, 0.0 ], [ 139.6391108, 35.2871875, 0.0 ], [ 139.6393415, 35.2872576, 0.0 ], [ 139.639497, 35.2872926, 0.0 ], [ 139.6396902, 35.2872663, 0.0 ], [ 139.6399477, 35.2874634, 0.0 ], [ 139.6402802, 35.2875882, 0.0 ], [ 139.6404412, 35.2878707, 0.0 ], [ 139.6406772, 35.2880677, 0.0 ], [ 139.6408114, 35.2883173, 0.0 ], [ 139.6409455, 35.2885756, 0.0 ], [ 139.6409616, 35.2888296, 0.0 ], [ 139.6407845, 35.2891667, 0.0 ], [ 139.6403661, 35.2892105, 0.0 ], [ 139.6403607, 35.2893813, 0.0 ], [ 139.6405968, 35.2896046, 0.0 ], [ 139.6406987, 35.2897973, 0.0 ], [ 139.6406075, 35.290095, 0.0 ], [ 139.6406611, 35.2903183, 0.0 ], [ 139.6403232, 35.2904278, 0.0 ] ] ] } },
{ "type": "Feature", "properties": { "Name": "Behind Hemi Elementary School (逸見小学校奥一帯)" }, "geometry": { "type": "Polygon", "coordinates": [ [ [ 139.650511, 35.2835063, 0.0 ], [ 139.6503877, 35.2836332, 0.0 ], [ 139.6503394, 35.2836377, 0.0 ], [ 139.6501892, 35.283677, 0.0 ], [ 139.6500712, 35.2836945, 0.0 ], [ 139.6500014, 35.2836946, 0.0 ], [ 139.6497761, 35.2837121, 0.0 ], [ 139.6495294, 35.2837033, 0.0 ], [ 139.6493898, 35.2836858, 0.0 ], [ 139.6492504, 35.2836508, 0.0 ], [ 139.6489983, 35.2836245, 0.0 ], [ 139.6487676, 35.2835807, 0.0 ], [ 139.6485745, 35.2836464, 0.0 ], [ 139.6484779, 35.2837603, 0.0 ], [ 139.6483385, 35.283826, 0.0 ], [ 139.6480595, 35.2839092, 0.0 ], [ 139.6478181, 35.2839354, 0.0 ], [ 139.6474802, 35.2839135, 0.0 ], [ 139.6472763, 35.2838128, 0.0 ], [ 139.6471261, 35.2836464, 0.0 ], [ 139.6470993, 35.2834187, 0.0 ], [ 139.6471637, 35.283226, 0.0 ], [ 139.6473353, 35.2830771, 0.0 ], [ 139.6475606, 35.2829677, 0.0 ], [ 139.6477323, 35.2827619, 0.0 ], [ 139.647861, 35.2825429, 0.0 ], [ 139.6481346, 35.2823896, 0.0 ], [ 139.6484243, 35.2823064, 0.0 ], [ 139.6487783, 35.2823108, 0.0 ], [ 139.6489983, 35.2824072, 0.0 ], [ 139.6491485, 35.282556, 0.0 ], [ 139.6492236, 35.2826918, 0.0 ], [ 139.649288, 35.2827575, 0.0 ], [ 139.6495508, 35.2827794, 0.0 ], [ 139.6498941, 35.2828976, 0.0 ], [ 139.650039, 35.2830114, 0.0 ], [ 139.6501999, 35.2830815, 0.0 ], [ 139.6503394, 35.2832435, 0.0 ], [ 139.6504306, 35.283318, 0.0 ], [ 139.650511, 35.2834275, 0.0 ], [ 139.650511, 35.2835063, 0.0 ] ] ] } },
{ "type": "Feature", "properties": { "Name": "Morisaki Yato (森崎谷戸)" }, "geometry": { "type": "Polygon", "coordinates": [ [ [ 139.6510105, 35.2843509, 0.0 ], [ 139.6505063, 35.2847801, 0.0 ], [ 139.6502863, 35.284999, 0.0 ], [ 139.6500503, 35.285253, 0.0 ], [ 139.6497177, 35.2855946, 0.0 ], [ 139.6494656, 35.2859011, 0.0 ], [ 139.6493476, 35.2860062, 0.0 ], [ 139.6489828, 35.2856602, 0.0 ], [ 139.6488219, 35.2854938, 0.0 ], [ 139.648441, 35.2851348, 0.0 ], [ 139.6481191, 35.2848545, 0.0 ], [ 139.648044, 35.284513, 0.0 ], [ 139.6480279, 35.2841889, 0.0 ], [ 139.6480708, 35.2840181, 0.0 ], [ 139.6482854, 35.283913, 0.0 ], [ 139.6485805, 35.2838036, 0.0 ], [ 139.6486395, 35.2837247, 0.0 ], [ 139.6488004, 35.2836766, 0.0 ], [ 139.6490418, 35.2836985, 0.0 ], [ 139.6493798, 35.2837379, 0.0 ], [ 139.649648, 35.2837554, 0.0 ], [ 139.6499108, 35.2837598, 0.0 ], [ 139.6502381, 35.2837247, 0.0 ], [ 139.6504473, 35.2836853, 0.0 ], [ 139.6507101, 35.2837072, 0.0 ], [ 139.650855, 35.2837729, 0.0 ], [ 139.6511178, 35.2840444, 0.0 ], [ 139.6510105, 35.2843509, 0.0 ] ] ] } },
{ "type": "Feature", "properties": { "Name": "Behind Nishi Hemi Park (西逸見公園奥一帯)" }, "geometry": { "type": "Polygon", "coordinates": [ [ [ 139.6509067, 35.2829519, 0.0 ], [ 139.6505849, 35.282803, 0.0 ], [ 139.6501986, 35.2827329, 0.0 ], [ 139.6497909, 35.2826629, 0.0 ], [ 139.6494798, 35.2826278, 0.0 ], [ 139.6491901, 35.2823914, 0.0 ], [ 139.6489541, 35.282225, 0.0 ], [ 139.6486322, 35.282225, 0.0 ], [ 139.6482245, 35.28226, 0.0 ], [ 139.6477417, 35.2824702, 0.0 ], [ 139.6476452, 35.2827329, 0.0 ], [ 139.6475379, 35.2828468, 0.0 ], [ 139.6472589, 35.2829869, 0.0 ], [ 139.6470873, 35.2831008, 0.0 ], [ 139.6469907, 35.283311, 0.0 ], [ 139.6469371, 35.2835387, 0.0 ], [ 139.6466474, 35.2836963, 0.0 ], [ 139.6462933, 35.2834686, 0.0 ], [ 139.6459393, 35.2831796, 0.0 ], [ 139.6456603, 35.2829607, 0.0 ], [ 139.6453385, 35.2826716, 0.0 ], [ 139.6450166, 35.2823301, 0.0 ], [ 139.6445875, 35.281936, 0.0 ], [ 139.644287, 35.2816469, 0.0 ], [ 139.6439759, 35.2814543, 0.0 ], [ 139.643654, 35.2812441, 0.0 ], [ 139.6433214, 35.2810689, 0.0 ], [ 139.642903, 35.2808499, 0.0 ], [ 139.6426777, 35.280666, 0.0 ], [ 139.6424739, 35.2805346, 0.0 ], [ 139.6422271, 35.2802193, 0.0 ], [ 139.6422164, 35.2800529, 0.0 ], [ 139.6421842, 35.2798427, 0.0 ], [ 139.64227, 35.2795975, 0.0 ], [ 139.6424202, 35.2795011, 0.0 ], [ 139.6426133, 35.2794485, 0.0 ], [ 139.6428279, 35.2794749, 0.0 ], [ 139.6430318, 35.279361, 0.0 ], [ 139.6433107, 35.2791596, 0.0 ], [ 139.6435468, 35.2790194, 0.0 ], [ 139.6435468, 35.2788443, 0.0 ], [ 139.6434073, 35.2785465, 0.0 ], [ 139.6433751, 35.2783012, 0.0 ], [ 139.6434824, 35.2778633, 0.0 ], [ 139.6437721, 35.2777407, 0.0 ], [ 139.6441368, 35.2776794, 0.0 ], [ 139.6449308, 35.2776969, 0.0 ], [ 139.6451668, 35.2779684, 0.0 ], [ 139.6453599, 35.2782399, 0.0 ], [ 139.6454672, 35.2783538, 0.0 ], [ 139.6454779, 35.2787129, 0.0 ], [ 139.6454136, 35.2790282, 0.0 ], [ 139.645435, 35.2793172, 0.0 ], [ 139.6454779, 35.27958, 0.0 ], [ 139.6456818, 35.2798165, 0.0 ], [ 139.6460358, 35.2800354, 0.0 ], [ 139.6463148, 35.2802193, 0.0 ], [ 139.6467869, 35.280342, 0.0 ], [ 139.6469907, 35.2802544, 0.0 ], [ 139.6473233, 35.2801843, 0.0 ], [ 139.6473769, 35.2800792, 0.0 ], [ 139.6477739, 35.2799916, 0.0 ], [ 139.648128, 35.2800704, 0.0 ], [ 139.6486, 35.2801843, 0.0 ], [ 139.6488361, 35.2804471, 0.0 ], [ 139.648997, 35.280701, 0.0 ], [ 139.6492545, 35.2809726, 0.0 ], [ 139.649748, 35.2812616, 0.0 ], [ 139.650027, 35.281498, 0.0 ], [ 139.6504347, 35.2817608, 0.0 ], [ 139.6507565, 35.2820148, 0.0 ], [ 139.6510891, 35.2821899, 0.0 ], [ 139.6511964, 35.2823301, 0.0 ], [ 139.651132, 35.2825665, 0.0 ], [ 139.6509067, 35.2829519, 0.0 ] ] ] } },
{ "type": "Feature", "properties": { "Name": "Sawayama Elementary School Frontside (沢山小学校前一帯)" }, "geometry": { "type": "Polygon", "coordinates": [ [ [ 139.6511671, 35.2772444, 0.0 ], [ 139.6510276, 35.2773276, 0.0 ], [ 139.6507004, 35.2772619, 0.0 ], [ 139.6506521, 35.2771481, 0.0 ], [ 139.6504429, 35.2769554, 0.0 ], [ 139.6502122, 35.2768021, 0.0 ], [ 139.6499547, 35.2768152, 0.0 ], [ 139.6498152, 35.2768985, 0.0 ], [ 139.6495738, 35.277043, 0.0 ], [ 139.6494451, 35.277205, 0.0 ], [ 139.6492895, 35.277332, 0.0 ], [ 139.6491822, 35.2773583, 0.0 ], [ 139.6490535, 35.277367, 0.0 ], [ 139.6488898, 35.2773342, 0.0 ], [ 139.648753, 35.2772707, 0.0 ], [ 139.6485492, 35.2771699, 0.0 ], [ 139.6483347, 35.2770561, 0.0 ], [ 139.6481307, 35.2769422, 0.0 ], [ 139.6479645, 35.2768327, 0.0 ], [ 139.6478679, 35.2767561, 0.0 ], [ 139.6477338, 35.2766444, 0.0 ], [ 139.6475622, 35.2764693, 0.0 ], [ 139.6475165, 35.2763094, 0.0 ], [ 139.6475514, 35.2762109, 0.0 ], [ 139.6476158, 35.2760313, 0.0 ], [ 139.6477499, 35.2758605, 0.0 ], [ 139.6478572, 35.2757204, 0.0 ], [ 139.6479967, 35.2756197, 0.0 ], [ 139.6482488, 35.2755321, 0.0 ], [ 139.6484849, 35.2754752, 0.0 ], [ 139.6486512, 35.2753525, 0.0 ], [ 139.6488496, 35.2752606, 0.0 ], [ 139.6488979, 35.2751861, 0.0 ], [ 139.6489462, 35.2750066, 0.0 ], [ 139.6490669, 35.274897, 0.0 ], [ 139.649252, 35.2748401, 0.0 ], [ 139.6494665, 35.2749014, 0.0 ], [ 139.6497026, 35.274989, 0.0 ], [ 139.6499011, 35.2751467, 0.0 ], [ 139.6500459, 35.2753569, 0.0 ], [ 139.6501747, 35.2755233, 0.0 ], [ 139.6503141, 35.2757773, 0.0 ], [ 139.6504482, 35.2759788, 0.0 ], [ 139.6506199, 35.2762416, 0.0 ], [ 139.6508077, 35.2765656, 0.0 ], [ 139.6510383, 35.2769028, 0.0 ], [ 139.6511671, 35.2772444, 0.0 ] ] ] } },
{ "type": "Feature", "properties": { "Name": "Below Sawayama Housing (沢山団地下一帯)" }, "geometry": { "type": "Polygon", "coordinates": [ [ [ 139.6461595, 35.2717439, 0.0 ], [ 139.6464063, 35.2718053, 0.0 ], [ 139.6465565, 35.2718578, 0.0 ], [ 139.6467925, 35.2719542, 0.0 ], [ 139.6469588, 35.2720549, 0.0 ], [ 139.6471412, 35.2721775, 0.0 ], [ 139.6473236, 35.2722783, 0.0 ], [ 139.6475489, 35.2723746, 0.0 ], [ 139.6476723, 35.2724885, 0.0 ], [ 139.6478118, 35.2725761, 0.0 ], [ 139.6477742, 35.2727294, 0.0 ], [ 139.6475543, 35.2729045, 0.0 ], [ 139.6474202, 35.2729878, 0.0 ], [ 139.6471251, 35.2730578, 0.0 ], [ 139.6468784, 35.2730053, 0.0 ], [ 139.6467174, 35.2729396, 0.0 ], [ 139.6465458, 35.2727819, 0.0 ], [ 139.6462829, 35.2726243, 0.0 ], [ 139.6460093, 35.2725498, 0.0 ], [ 139.6457411, 35.2726768, 0.0 ], [ 139.6456016, 35.2728607, 0.0 ], [ 139.6454407, 35.2730184, 0.0 ], [ 139.6452905, 35.2732155, 0.0 ], [ 139.6451457, 35.27336, 0.0 ], [ 139.6449955, 35.2735702, 0.0 ], [ 139.6449525, 35.2737016, 0.0 ], [ 139.6447755, 35.2738374, 0.0 ], [ 139.6444858, 35.2738418, 0.0 ], [ 139.6441747, 35.2737367, 0.0 ], [ 139.6441371, 35.2735133, 0.0 ], [ 139.6441586, 35.2732812, 0.0 ], [ 139.644164, 35.272887, 0.0 ], [ 139.6442444, 35.2727075, 0.0 ], [ 139.6443571, 35.2725104, 0.0 ], [ 139.6445609, 35.2724797, 0.0 ], [ 139.6447809, 35.2724491, 0.0 ], [ 139.6449847, 35.272287, 0.0 ], [ 139.6451242, 35.272125, 0.0 ], [ 139.6453656, 35.2719279, 0.0 ], [ 139.6454514, 35.2717658, 0.0 ], [ 139.6457357, 35.271687, 0.0 ], [ 139.6459771, 35.2716564, 0.0 ], [ 139.6461595, 35.2717439, 0.0 ] ] ] } },
{ "type": "Feature", "properties": { "Name": "Inari Yato (稲荷谷戸)" }, "geometry": { "type": "Polygon", "coordinates": [ [ [ 139.6587333, 35.2803393, 0.0 ], [ 139.658728, 35.2805277, 0.0 ], [ 139.6585724, 35.2807291, 0.0 ], [ 139.6583256, 35.2809174, 0.0 ], [ 139.6581969, 35.2810006, 0.0 ], [ 139.6579287, 35.2810006, 0.0 ], [ 139.6577302, 35.28104, 0.0 ], [ 139.6575585, 35.2811626, 0.0 ], [ 139.6575156, 35.2812984, 0.0 ], [ 139.6576175, 35.2814604, 0.0 ], [ 139.6576712, 35.2817144, 0.0 ], [ 139.6576068, 35.2819158, 0.0 ], [ 139.657478, 35.2820166, 0.0 ], [ 139.6571401, 35.2819771, 0.0 ], [ 139.6570221, 35.2818983, 0.0 ], [ 139.6568987, 35.2819202, 0.0 ], [ 139.6566305, 35.2818983, 0.0 ], [ 139.6564749, 35.2818896, 0.0 ], [ 139.6563891, 35.2819377, 0.0 ], [ 139.6561316, 35.2819334, 0.0 ], [ 139.6559063, 35.2819421, 0.0 ], [ 139.6556595, 35.2819815, 0.0 ], [ 139.6554557, 35.2819859, 0.0 ], [ 139.6553645, 35.2819377, 0.0 ], [ 139.6550104, 35.2819421, 0.0 ], [ 139.6548227, 35.2819859, 0.0 ], [ 139.6545652, 35.2819377, 0.0 ], [ 139.6543238, 35.281872, 0.0 ], [ 139.6542004, 35.2817232, 0.0 ], [ 139.6540824, 35.2814955, 0.0 ], [ 139.654077, 35.2812853, 0.0 ], [ 139.6540824, 35.2811167, 0.0 ], [ 139.6541038, 35.2809788, 0.0 ], [ 139.6541628, 35.2808561, 0.0 ], [ 139.6542809, 35.2806196, 0.0 ], [ 139.6544257, 35.2804751, 0.0 ], [ 139.6545169, 35.2803963, 0.0 ], [ 139.6545277, 35.2802868, 0.0 ], [ 139.6544901, 35.2801292, 0.0 ], [ 139.6544311, 35.2800416, 0.0 ], [ 139.6544096, 35.2798971, 0.0 ], [ 139.6543345, 35.2797854, 0.0 ], [ 139.6542541, 35.2796387, 0.0 ], [ 139.6542218, 35.2794241, 0.0 ], [ 139.6543453, 35.279214, 0.0 ], [ 139.6546134, 35.2790519, 0.0 ], [ 139.6547797, 35.2789643, 0.0 ], [ 139.654828, 35.2788723, 0.0 ], [ 139.654989, 35.2787541, 0.0 ], [ 139.6551767, 35.2786139, 0.0 ], [ 139.655394, 35.2786446, 0.0 ], [ 139.6555308, 35.2787103, 0.0 ], [ 139.655681, 35.278846, 0.0 ], [ 139.6559331, 35.278903, 0.0 ], [ 139.6561691, 35.278903, 0.0 ], [ 139.6563891, 35.2788767, 0.0 ], [ 139.6567699, 35.2789073, 0.0 ], [ 139.6569523, 35.2789906, 0.0 ], [ 139.6571615, 35.2791263, 0.0 ], [ 139.657462, 35.2792489, 0.0 ], [ 139.6575853, 35.2793409, 0.0 ], [ 139.657757, 35.2794679, 0.0 ], [ 139.6578536, 35.2794942, 0.0 ], [ 139.6581915, 35.2795073, 0.0 ], [ 139.6586046, 35.2796693, 0.0 ], [ 139.6586475, 35.2799452, 0.0 ], [ 139.6586421, 35.2800678, 0.0 ], [ 139.6587333, 35.2803393, 0.0 ] ] ] } },
{ "type": "Feature", "properties": { "Name": "Genzō Yato (源造谷戸)" }, "geometry": { "type": "Polygon", "coordinates": [ [ [ 139.6712767, 35.2694829, 0.0 ], [ 139.6712391, 35.269334, 0.0 ], [ 139.6712177, 35.2691632, 0.0 ], [ 139.6711533, 35.2690187, 0.0 ], [ 139.6711319, 35.268896, 0.0 ], [ 139.6710567, 35.2687953, 0.0 ], [ 139.6710675, 35.2686551, 0.0 ], [ 139.6710836, 35.2685763, 0.0 ], [ 139.6711479, 35.2684887, 0.0 ], [ 139.6713625, 35.2683923, 0.0 ], [ 139.6714644, 35.2683179, 0.0 ], [ 139.6716898, 35.2681996, 0.0 ], [ 139.6719043, 35.268112, 0.0 ], [ 139.6720814, 35.2680332, 0.0 ], [ 139.6723764, 35.2680157, 0.0 ], [ 139.6725481, 35.2680332, 0.0 ], [ 139.6727841, 35.2681646, 0.0 ], [ 139.6728109, 35.2683485, 0.0 ], [ 139.6728485, 35.2685281, 0.0 ], [ 139.6729021, 35.2686989, 0.0 ], [ 139.6729665, 35.2688303, 0.0 ], [ 139.6731381, 35.268896, 0.0 ], [ 139.6732401, 35.2689705, 0.0 ], [ 139.6733956, 35.2690756, 0.0 ], [ 139.6736102, 35.2691281, 0.0 ], [ 139.6737443, 35.2692595, 0.0 ], [ 139.673857, 35.2693296, 0.0 ], [ 139.6739804, 35.269426, 0.0 ], [ 139.6739589, 35.269553, 0.0 ], [ 139.6739374, 35.2697107, 0.0 ], [ 139.6738516, 35.2699603, 0.0 ], [ 139.6737068, 35.2701443, 0.0 ], [ 139.6735566, 35.2703107, 0.0 ], [ 139.6734117, 35.2703545, 0.0 ], [ 139.6731918, 35.2704158, 0.0 ], [ 139.6731489, 35.2704508, 0.0 ], [ 139.6729665, 35.270499, 0.0 ], [ 139.6727895, 35.2704289, 0.0 ], [ 139.672532, 35.2703983, 0.0 ], [ 139.6722798, 35.2703851, 0.0 ], [ 139.672135, 35.270407, 0.0 ], [ 139.6718024, 35.2704027, 0.0 ], [ 139.6717005, 35.2703194, 0.0 ], [ 139.6716146, 35.2702143, 0.0 ], [ 139.6714966, 35.2700085, 0.0 ], [ 139.6714591, 35.2698508, 0.0 ], [ 139.6713625, 35.2696274, 0.0 ], [ 139.6712767, 35.2694829, 0.0 ] ] ] } },
{ "type": "Feature", "properties": { "Name": "Hachi Yato (蜂谷戸)" }, "geometry": { "type": "Polygon", "coordinates": [ [ [ 139.6780908, 35.2680053, 0.0 ], [ 139.6779728, 35.2678652, 0.0 ], [ 139.6779245, 35.26769, 0.0 ], [ 139.6778816, 35.2674973, 0.0 ], [ 139.6778923, 35.2673571, 0.0 ], [ 139.6779138, 35.2672038, 0.0 ], [ 139.6779781, 35.2670286, 0.0 ], [ 139.6780586, 35.2668797, 0.0 ], [ 139.6782142, 35.2667571, 0.0 ], [ 139.6782946, 35.2667089, 0.0 ], [ 139.678343, 35.2666432, 0.0 ], [ 139.6783751, 35.2665337, 0.0 ], [ 139.6784448, 35.2663629, 0.0 ], [ 139.6784073, 35.2662271, 0.0 ], [ 139.6783966, 35.2661745, 0.0 ], [ 139.6783697, 35.2660475, 0.0 ], [ 139.6784448, 35.2657847, 0.0 ], [ 139.6785789, 35.2656752, 0.0 ], [ 139.6785897, 35.2655657, 0.0 ], [ 139.6785521, 35.2654343, 0.0 ], [ 139.6784985, 35.2652022, 0.0 ], [ 139.6784717, 35.2650314, 0.0 ], [ 139.6785414, 35.264935, 0.0 ], [ 139.6787077, 35.2648343, 0.0 ], [ 139.6788525, 35.2647379, 0.0 ], [ 139.6790886, 35.2647116, 0.0 ], [ 139.6792441, 35.2647905, 0.0 ], [ 139.6792817, 35.2649394, 0.0 ], [ 139.6793085, 35.265119, 0.0 ], [ 139.6793461, 35.2652591, 0.0 ], [ 139.67933, 35.2653993, 0.0 ], [ 139.6793353, 35.2655789, 0.0 ], [ 139.6793621, 35.2657321, 0.0 ], [ 139.6794318, 35.2658592, 0.0 ], [ 139.6795874, 35.2659643, 0.0 ], [ 139.679802, 35.2660475, 0.0 ], [ 139.6799147, 35.2660475, 0.0 ], [ 139.6800488, 35.2659994, 0.0 ], [ 139.6802097, 35.2658417, 0.0 ], [ 139.6803653, 35.2656884, 0.0 ], [ 139.6806442, 35.2656489, 0.0 ], [ 139.6808427, 35.2657365, 0.0 ], [ 139.6809715, 35.2659468, 0.0 ], [ 139.6809876, 35.2661745, 0.0 ], [ 139.6809876, 35.266376, 0.0 ], [ 139.6809876, 35.2665819, 0.0 ], [ 139.681009, 35.2667439, 0.0 ], [ 139.6810144, 35.2669717, 0.0 ], [ 139.68095, 35.2670943, 0.0 ], [ 139.6807301, 35.2672476, 0.0 ], [ 139.6804833, 35.2673746, 0.0 ], [ 139.680317, 35.2674797, 0.0 ], [ 139.6801722, 35.267633, 0.0 ], [ 139.6800327, 35.267782, 0.0 ], [ 139.6798343, 35.267852, 0.0 ], [ 139.679668, 35.2678914, 0.0 ], [ 139.6794587, 35.2679309, 0.0 ], [ 139.6792388, 35.2679747, 0.0 ], [ 139.6790671, 35.2679747, 0.0 ], [ 139.6788847, 35.2680009, 0.0 ], [ 139.6787023, 35.2680053, 0.0 ], [ 139.6785575, 35.2680097, 0.0 ], [ 139.6784073, 35.2680666, 0.0 ], [ 139.6782249, 35.2680798, 0.0 ], [ 139.6780908, 35.2680053, 0.0 ] ] ] } },
{ "type": "Feature", "properties": { "Name": "Ōyato (大谷戸)" }, "geometry": { "type": "Polygon", "coordinates": [ [ [ 139.6759221, 35.2683134, 0.0 ], [ 139.6756646, 35.2680944, 0.0 ], [ 139.6753428, 35.2678841, 0.0 ], [ 139.6750209, 35.2676914, 0.0 ], [ 139.6746883, 35.2674987, 0.0 ], [ 139.6742699, 35.267341, 0.0 ], [ 139.6742377, 35.267087, 0.0 ], [ 139.6742806, 35.2668154, 0.0 ], [ 139.6743021, 35.2666052, 0.0 ], [ 139.6743772, 35.2663599, 0.0 ], [ 139.6745488, 35.2662461, 0.0 ], [ 139.6746454, 35.2660971, 0.0 ], [ 139.6747956, 35.2659219, 0.0 ], [ 139.6747419, 35.265773, 0.0 ], [ 139.6746346, 35.2656241, 0.0 ], [ 139.6743664, 35.2654839, 0.0 ], [ 139.6741089, 35.2653701, 0.0 ], [ 139.6740767, 35.2650897, 0.0 ], [ 139.6741519, 35.2648883, 0.0 ], [ 139.6743664, 35.2645817, 0.0 ], [ 139.6746239, 35.2645904, 0.0 ], [ 139.6749029, 35.2647218, 0.0 ], [ 139.6751389, 35.2647569, 0.0 ], [ 139.6754286, 35.2646693, 0.0 ], [ 139.6756002, 35.264424, 0.0 ], [ 139.6758577, 35.2641524, 0.0 ], [ 139.6759758, 35.2638546, 0.0 ], [ 139.6761152, 35.2636443, 0.0 ], [ 139.6761581, 35.2633728, 0.0 ], [ 139.676083, 35.2632151, 0.0 ], [ 139.6759865, 35.2629523, 0.0 ], [ 139.6759007, 35.2627771, 0.0 ], [ 139.6757934, 35.2625581, 0.0 ], [ 139.6758255, 35.2623653, 0.0 ], [ 139.6758577, 35.2621726, 0.0 ], [ 139.675965, 35.2619536, 0.0 ], [ 139.6761689, 35.2618047, 0.0 ], [ 139.676362, 35.2617258, 0.0 ], [ 139.6766731, 35.2617346, 0.0 ], [ 139.6768448, 35.2618923, 0.0 ], [ 139.6769521, 35.2620062, 0.0 ], [ 139.6770916, 35.2621639, 0.0 ], [ 139.6771988, 35.2622865, 0.0 ], [ 139.6774563, 35.2622602, 0.0 ], [ 139.6776924, 35.2623391, 0.0 ], [ 139.6777675, 35.262488, 0.0 ], [ 139.6779713, 35.2626106, 0.0 ], [ 139.6782181, 35.2626807, 0.0 ], [ 139.6785292, 35.2628647, 0.0 ], [ 139.6786687, 35.2629873, 0.0 ], [ 139.678894, 35.2631362, 0.0 ], [ 139.6790764, 35.2633114, 0.0 ], [ 139.6791729, 35.2635217, 0.0 ], [ 139.6791837, 35.2637495, 0.0 ], [ 139.6792588, 35.2639422, 0.0 ], [ 139.6793553, 35.2640999, 0.0 ], [ 139.6793661, 35.2643276, 0.0 ], [ 139.6791837, 35.2645028, 0.0 ], [ 139.6790871, 35.2646342, 0.0 ], [ 139.6788525, 35.2647379, 0.0 ], [ 139.6787077, 35.2648343, 0.0 ], [ 139.6785414, 35.264935, 0.0 ], [ 139.6783897, 35.2651073, 0.0 ], [ 139.6783576, 35.2652387, 0.0 ], [ 139.6781966, 35.2654139, 0.0 ], [ 139.6780464, 35.2656504, 0.0 ], [ 139.6780679, 35.2658081, 0.0 ], [ 139.6781001, 35.2660533, 0.0 ], [ 139.6781644, 35.2662636, 0.0 ], [ 139.6783039, 35.266395, 0.0 ], [ 139.6781752, 35.266684, 0.0 ], [ 139.6780035, 35.2667454, 0.0 ], [ 139.6778104, 35.2666227, 0.0 ], [ 139.6776387, 35.26643, 0.0 ], [ 139.6773276, 35.2665264, 0.0 ], [ 139.6770701, 35.266614, 0.0 ], [ 139.6768341, 35.2668154, 0.0 ], [ 139.6765658, 35.2669906, 0.0 ], [ 139.6764585, 35.267122, 0.0 ], [ 139.6764371, 35.2673848, 0.0 ], [ 139.6764585, 35.2675425, 0.0 ], [ 139.6765229, 35.2677527, 0.0 ], [ 139.676362, 35.267963, 0.0 ], [ 139.6762332, 35.2680418, 0.0 ], [ 139.6760723, 35.2681294, 0.0 ], [ 139.6759221, 35.2683134, 0.0 ] ] ] } },
{ "type": "Feature", "properties": { "Name": "Sakamoto Tunnel Area (坂本随道付近一帯)" }, "geometry": { "type": "Polygon", "coordinates": [ [ [ 139.6571107, 35.273688, 0.0 ], [ 139.6571429, 35.2738631, 0.0 ], [ 139.6571107, 35.2740558, 0.0 ], [ 139.6570999, 35.2743449, 0.0 ], [ 139.6572823, 35.2745551, 0.0 ], [ 139.6574862, 35.2746952, 0.0 ], [ 139.6576578, 35.2747478, 0.0 ], [ 139.6578188, 35.2748441, 0.0 ], [ 139.6579046, 35.2750106, 0.0 ], [ 139.6578295, 35.2751507, 0.0 ], [ 139.6576686, 35.2752471, 0.0 ], [ 139.6575184, 35.2752558, 0.0 ], [ 139.6571536, 35.2752996, 0.0 ], [ 139.6570034, 35.2752909, 0.0 ], [ 139.6567995, 35.2753522, 0.0 ], [ 139.656585, 35.275466, 0.0 ], [ 139.6563704, 35.2756149, 0.0 ], [ 139.6563811, 35.2758251, 0.0 ], [ 139.6563918, 35.2759916, 0.0 ], [ 139.6561987, 35.276158, 0.0 ], [ 139.6557588, 35.2763507, 0.0 ], [ 139.6553511, 35.2765872, 0.0 ], [ 139.6550829, 35.2766747, 0.0 ], [ 139.6547396, 35.2767886, 0.0 ], [ 139.6545036, 35.2768937, 0.0 ], [ 139.6542675, 35.2769813, 0.0 ], [ 139.6538437, 35.2770251, 0.0 ], [ 139.6536479, 35.2770251, 0.0 ], [ 139.6534521, 35.2769375, 0.0 ], [ 139.6531518, 35.2767535, 0.0 ], [ 139.6529371, 35.2765609, 0.0 ], [ 139.6529157, 35.2763857, 0.0 ], [ 139.6527441, 35.2760792, 0.0 ], [ 139.6526904, 35.2759303, 0.0 ], [ 139.6528299, 35.2755011, 0.0 ], [ 139.6529693, 35.2752996, 0.0 ], [ 139.6532697, 35.2751507, 0.0 ], [ 139.6534844, 35.2750193, 0.0 ], [ 139.6535434, 35.2749536, 0.0 ], [ 139.6537204, 35.2749405, 0.0 ], [ 139.6539886, 35.2747916, 0.0 ], [ 139.6544177, 35.2748179, 0.0 ], [ 139.6547825, 35.2747215, 0.0 ], [ 139.655083, 35.2745288, 0.0 ], [ 139.655276, 35.2743274, 0.0 ], [ 139.6554799, 35.2740471, 0.0 ], [ 139.6556409, 35.273793, 0.0 ], [ 139.6558125, 35.2736354, 0.0 ], [ 139.6558232, 35.2733989, 0.0 ], [ 139.6559627, 35.2732325, 0.0 ], [ 139.6562524, 35.2732412, 0.0 ], [ 139.6565528, 35.2733726, 0.0 ], [ 139.6568532, 35.273434, 0.0 ], [ 139.6570151, 35.2734735, 0.0 ], [ 139.6571107, 35.273688, 0.0 ] ] ] } },
{ "type": "Feature", "properties": { "Name": "Sakamoto 3-chōme Area (坂本町3丁目付近一帯)" }, "geometry": { "type": "Polygon", "coordinates": [ [ [ 139.6539084, 35.2716177, 0.0 ], [ 139.6538011, 35.27146, 0.0 ], [ 139.6537689, 35.2713023, 0.0 ], [ 139.6536079, 35.2710921, 0.0 ], [ 139.6535436, 35.270952, 0.0 ], [ 139.6534577, 35.2707768, 0.0 ], [ 139.6534899, 35.2706016, 0.0 ], [ 139.6532646, 35.2704439, 0.0 ], [ 139.6531681, 35.2702249, 0.0 ], [ 139.6531037, 35.2700147, 0.0 ], [ 139.6531359, 35.2697957, 0.0 ], [ 139.6533397, 35.2695767, 0.0 ], [ 139.6533612, 35.2692614, 0.0 ], [ 139.6532002, 35.2690775, 0.0 ], [ 139.6529642, 35.2689723, 0.0 ], [ 139.6526853, 35.2688146, 0.0 ], [ 139.6524385, 35.2686657, 0.0 ], [ 139.6522776, 35.2684905, 0.0 ], [ 139.6522668, 35.2682453, 0.0 ], [ 139.6523956, 35.267965, 0.0 ], [ 139.6524707, 35.2676934, 0.0 ], [ 139.6525458, 35.2674394, 0.0 ], [ 139.6526745, 35.2672642, 0.0 ], [ 139.6528676, 35.2671153, 0.0 ], [ 139.6529213, 35.26687, 0.0 ], [ 139.6531788, 35.2666335, 0.0 ], [ 139.6532753, 35.2664145, 0.0 ], [ 139.6533075, 35.266213, 0.0 ], [ 139.6532861, 35.2660115, 0.0 ], [ 139.6533504, 35.2658539, 0.0 ], [ 139.6534792, 35.2656611, 0.0 ], [ 139.6535758, 35.2655297, 0.0 ], [ 139.6536616, 35.2654246, 0.0 ], [ 139.6539727, 35.2653283, 0.0 ], [ 139.6541122, 35.2654684, 0.0 ], [ 139.6542517, 35.2656261, 0.0 ], [ 139.654359, 35.2658188, 0.0 ], [ 139.6544662, 35.2659502, 0.0 ], [ 139.6544984, 35.2661166, 0.0 ], [ 139.6545521, 35.2662393, 0.0 ], [ 139.6547023, 35.2663794, 0.0 ], [ 139.6549061, 35.2665284, 0.0 ], [ 139.6551422, 35.2666247, 0.0 ], [ 139.6553246, 35.266616, 0.0 ], [ 139.6554748, 35.2665897, 0.0 ], [ 139.6557001, 35.2665634, 0.0 ], [ 139.6559576, 35.2666247, 0.0 ], [ 139.6562365, 35.26687, 0.0 ], [ 139.6563438, 35.2670802, 0.0 ], [ 139.6564082, 35.2672817, 0.0 ], [ 139.6563974, 35.2674306, 0.0 ], [ 139.6563223, 35.2676409, 0.0 ], [ 139.6561399, 35.267781, 0.0 ], [ 139.6560219, 35.2679562, 0.0 ], [ 139.6559254, 35.2680789, 0.0 ], [ 139.6558396, 35.2681752, 0.0 ], [ 139.6557323, 35.2682803, 0.0 ], [ 139.6556893, 35.2683766, 0.0 ], [ 139.6556464, 35.2684905, 0.0 ], [ 139.655464, 35.2686482, 0.0 ], [ 139.6554104, 35.2687884, 0.0 ], [ 139.6553568, 35.2689023, 0.0 ], [ 139.6553675, 35.2690074, 0.0 ], [ 139.6554104, 35.2691212, 0.0 ], [ 139.6555392, 35.269257, 0.0 ], [ 139.6557001, 35.2693578, 0.0 ], [ 139.6558717, 35.269603, 0.0 ], [ 139.6557966, 35.2698658, 0.0 ], [ 139.6556357, 35.2701461, 0.0 ], [ 139.655582, 35.2704352, 0.0 ], [ 139.6556893, 35.2705928, 0.0 ], [ 139.655743, 35.270733, 0.0 ], [ 139.6557001, 35.2709344, 0.0 ], [ 139.6556142, 35.2711009, 0.0 ], [ 139.6555606, 35.2713461, 0.0 ], [ 139.6555284, 35.2715914, 0.0 ], [ 139.6554962, 35.2717666, 0.0 ], [ 139.655464, 35.2719505, 0.0 ], [ 139.6552602, 35.2721169, 0.0 ], [ 139.6549383, 35.2719418, 0.0 ], [ 139.6545628, 35.2717841, 0.0 ], [ 139.6543053, 35.2716877, 0.0 ], [ 139.6539084, 35.2716177, 0.0 ] ] ] } },
{ "type": "Feature", "properties": { "Name": "Behind Sairaiji Temple (西来寺奥一帯)" }, "geometry": { "type": "Polygon", "coordinates": [ [ [ 139.662021, 35.2696288, 0.0 ], [ 139.6620317, 35.2698916, 0.0 ], [ 139.6618815, 35.2700843, 0.0 ], [ 139.6616025, 35.2702507, 0.0 ], [ 139.6611841, 35.270242, 0.0 ], [ 139.6606906, 35.2702244, 0.0 ], [ 139.6602292, 35.2701369, 0.0 ], [ 139.6599288, 35.2700317, 0.0 ], [ 139.6597143, 35.2699091, 0.0 ], [ 139.6592422, 35.2699441, 0.0 ], [ 139.6589525, 35.2700055, 0.0 ], [ 139.6586092, 35.2701018, 0.0 ], [ 139.6581371, 35.2701106, 0.0 ], [ 139.6577831, 35.2700142, 0.0 ], [ 139.6575148, 35.2698741, 0.0 ], [ 139.6572252, 35.2697865, 0.0 ], [ 139.6568818, 35.2697514, 0.0 ], [ 139.6566351, 35.2696989, 0.0 ], [ 139.6564098, 35.2696025, 0.0 ], [ 139.6561308, 35.2694273, 0.0 ], [ 139.6558197, 35.2693397, 0.0 ], [ 139.6554764, 35.2691733, 0.0 ], [ 139.6554334, 35.2689631, 0.0 ], [ 139.65553, 35.2687879, 0.0 ], [ 139.655648, 35.2685514, 0.0 ], [ 139.6557982, 35.2683149, 0.0 ], [ 139.6559254, 35.2680789, 0.0 ], [ 139.656163, 35.2678769, 0.0 ], [ 139.6563669, 35.2677192, 0.0 ], [ 139.6566136, 35.2676491, 0.0 ], [ 139.657032, 35.2676491, 0.0 ], [ 139.6574183, 35.2678068, 0.0 ], [ 139.657547, 35.2679908, 0.0 ], [ 139.6577831, 35.2680608, 0.0 ], [ 139.658062, 35.2680346, 0.0 ], [ 139.6581908, 35.2678769, 0.0 ], [ 139.6584161, 35.2677017, 0.0 ], [ 139.6586628, 35.2675615, 0.0 ], [ 139.6588667, 35.2674301, 0.0 ], [ 139.6591456, 35.2673338, 0.0 ], [ 139.6594782, 35.2673688, 0.0 ], [ 139.6597786, 35.2673601, 0.0 ], [ 139.6602829, 35.2673513, 0.0 ], [ 139.6605082, 35.267325, 0.0 ], [ 139.6608515, 35.2673425, 0.0 ], [ 139.661345, 35.2673776, 0.0 ], [ 139.6615918, 35.2674389, 0.0 ], [ 139.6617956, 35.2675615, 0.0 ], [ 139.6618386, 35.2676842, 0.0 ], [ 139.6619137, 35.2678419, 0.0 ], [ 139.6617956, 35.2680696, 0.0 ], [ 139.6616025, 35.2682098, 0.0 ], [ 139.6614201, 35.2683149, 0.0 ], [ 139.6614416, 35.2685689, 0.0 ], [ 139.6614416, 35.2687266, 0.0 ], [ 139.6615274, 35.2689631, 0.0 ], [ 139.6616991, 35.2691383, 0.0 ], [ 139.6616884, 35.2693047, 0.0 ], [ 139.6618707, 35.2694887, 0.0 ], [ 139.662021, 35.2696288, 0.0 ] ] ] } },
{ "type": "Feature", "properties": { "Name": "Kugō Tunnel Upper Area (公郷隧道上一帯)" }, "geometry": { "type": "Polygon", "coordinates": [ [ [ 139.679973, 35.2631714, 0.0 ], [ 139.6799408, 35.2630575, 0.0 ], [ 139.6798013, 35.2629392, 0.0 ], [ 139.6796833, 35.2628516, 0.0 ], [ 139.6796672, 35.2627334, 0.0 ], [ 139.6796672, 35.2626107, 0.0 ], [ 139.6795653, 35.2625187, 0.0 ], [ 139.6795277, 35.2624224, 0.0 ], [ 139.679576, 35.262291, 0.0 ], [ 139.6797638, 35.2622121, 0.0 ], [ 139.6798657, 35.262199, 0.0 ], [ 139.6800159, 35.2621683, 0.0 ], [ 139.6802036, 35.2621683, 0.0 ], [ 139.680327, 35.2621683, 0.0 ], [ 139.6805684, 35.262164, 0.0 ], [ 139.6806704, 35.2621245, 0.0 ], [ 139.6808098, 35.2620107, 0.0 ], [ 139.6809225, 35.2619581, 0.0 ], [ 139.681062, 35.2619756, 0.0 ], [ 139.6812658, 35.2620588, 0.0 ], [ 139.6813463, 35.2621333, 0.0 ], [ 139.6814857, 35.2622078, 0.0 ], [ 139.6816145, 35.2622516, 0.0 ], [ 139.6817486, 35.2622647, 0.0 ], [ 139.6818183, 35.262199, 0.0 ], [ 139.6819203, 35.262164, 0.0 ], [ 139.6819953, 35.2620895, 0.0 ], [ 139.6821885, 35.2620895, 0.0 ], [ 139.6822368, 35.2621727, 0.0 ], [ 139.6822958, 35.262291, 0.0 ], [ 139.6823762, 35.2623479, 0.0 ], [ 139.6824674, 35.2624881, 0.0 ], [ 139.6825801, 35.2625888, 0.0 ], [ 139.6827571, 35.2626852, 0.0 ], [ 139.6829288, 35.2627378, 0.0 ], [ 139.6830629, 35.262764, 0.0 ], [ 139.6832345, 35.2628341, 0.0 ], [ 139.6833311, 35.2628779, 0.0 ], [ 139.6834599, 35.2628954, 0.0 ], [ 139.683551, 35.262983, 0.0 ], [ 139.6835671, 35.2631101, 0.0 ], [ 139.6835993, 35.2632283, 0.0 ], [ 139.6835457, 35.2633991, 0.0 ], [ 139.6835296, 35.263513, 0.0 ], [ 139.6834813, 35.2636488, 0.0 ], [ 139.6833526, 35.2637189, 0.0 ], [ 139.6832345, 35.2638372, 0.0 ], [ 139.683079, 35.263916, 0.0 ], [ 139.6828805, 35.2639598, 0.0 ], [ 139.6827142, 35.2639379, 0.0 ], [ 139.6825318, 35.2639072, 0.0 ], [ 139.6824084, 35.2639248, 0.0 ], [ 139.6822368, 35.2639379, 0.0 ], [ 139.6820436, 35.2639335, 0.0 ], [ 139.6819203, 35.263951, 0.0 ], [ 139.681754, 35.2639554, 0.0 ], [ 139.6815609, 35.2638547, 0.0 ], [ 139.6814482, 35.2638152, 0.0 ], [ 139.6813087, 35.2637189, 0.0 ], [ 139.6812604, 35.2636269, 0.0 ], [ 139.6812014, 35.2635087, 0.0 ], [ 139.6811532, 35.2634079, 0.0 ], [ 139.6810298, 35.2632502, 0.0 ], [ 139.680842, 35.2631933, 0.0 ], [ 139.6806704, 35.2631801, 0.0 ], [ 139.680547, 35.2631977, 0.0 ], [ 139.680386, 35.263202, 0.0 ], [ 139.680268, 35.2631933, 0.0 ], [ 139.6801339, 35.2632152, 0.0 ], [ 139.679973, 35.2631714, 0.0 ] ] ] } },
{ "type": "Feature", "properties": { "Name": "Ishigame Tunnel (石亀谷戸)" }, "geometry": { "type": "Polygon", "coordinates": [ [ [ 139.6974181, 35.2600346, 0.0 ], [ 139.6972626, 35.260039, 0.0 ], [ 139.6971499, 35.2599865, 0.0 ], [ 139.6970212, 35.2598813, 0.0 ], [ 139.6968817, 35.2597061, 0.0 ], [ 139.6967476, 35.2595309, 0.0 ], [ 139.6966135, 35.2593776, 0.0 ], [ 139.6965223, 35.2592199, 0.0 ], [ 139.6964043, 35.2590973, 0.0 ], [ 139.6962541, 35.2589571, 0.0 ], [ 139.6961789, 35.2587906, 0.0 ], [ 139.6960878, 35.2586373, 0.0 ], [ 139.6960073, 35.2584753, 0.0 ], [ 139.6959429, 35.2583614, 0.0 ], [ 139.6958249, 35.2582037, 0.0 ], [ 139.6958195, 35.2580241, 0.0 ], [ 139.695841, 35.2578927, 0.0 ], [ 139.6959483, 35.2578051, 0.0 ], [ 139.6960234, 35.2576605, 0.0 ], [ 139.6961199, 35.2575904, 0.0 ], [ 139.6962701, 35.2575291, 0.0 ], [ 139.6964954, 35.2575685, 0.0 ], [ 139.6966671, 35.2576342, 0.0 ], [ 139.6968871, 35.2576999, 0.0 ], [ 139.6969622, 35.2578007, 0.0 ], [ 139.697048, 35.257954, 0.0 ], [ 139.6971767, 35.2579584, 0.0 ], [ 139.6973162, 35.2579189, 0.0 ], [ 139.6975576, 35.257897, 0.0 ], [ 139.6977561, 35.2579715, 0.0 ], [ 139.6977829, 35.2580898, 0.0 ], [ 139.6977668, 35.2582168, 0.0 ], [ 139.6978366, 35.2583964, 0.0 ], [ 139.6979063, 35.2585629, 0.0 ], [ 139.6979814, 35.2587512, 0.0 ], [ 139.6980297, 35.2588958, 0.0 ], [ 139.6981316, 35.2591148, 0.0 ], [ 139.698196, 35.2592549, 0.0 ], [ 139.6982442, 35.2594345, 0.0 ], [ 139.6982335, 35.2595791, 0.0 ], [ 139.6981531, 35.2596886, 0.0 ], [ 139.6979868, 35.259785, 0.0 ], [ 139.6979063, 35.2598375, 0.0 ], [ 139.6978097, 35.2598638, 0.0 ], [ 139.6976703, 35.2599602, 0.0 ], [ 139.6975201, 35.2600171, 0.0 ], [ 139.6974181, 35.2600346, 0.0 ] ] ] } },
{ "type": "Feature", "properties": { "Name": "Demura Yato (出村谷戸)" }, "geometry": { "type": "Polygon", "coordinates": [ [ [ 139.7012092, 35.2596718, 0.0 ], [ 139.7010912, 35.2595732, 0.0 ], [ 139.7010591, 35.2595184, 0.0 ], [ 139.7010536, 35.2594484, 0.0 ], [ 139.7010482, 35.2593871, 0.0 ], [ 139.7010751, 35.2593039, 0.0 ], [ 139.701059, 35.2592206, 0.0 ], [ 139.7009518, 35.2591637, 0.0 ], [ 139.7008411, 35.2591396, 0.0 ], [ 139.7006983, 35.259098, 0.0 ], [ 139.7006219, 35.259006, 0.0 ], [ 139.7004475, 35.2589096, 0.0 ], [ 139.7003241, 35.2587344, 0.0 ], [ 139.7002222, 35.2585811, 0.0 ], [ 139.7001363, 35.2583665, 0.0 ], [ 139.7001471, 35.2582263, 0.0 ], [ 139.7001739, 35.2580993, 0.0 ], [ 139.70019, 35.2579547, 0.0 ], [ 139.7001417, 35.2578364, 0.0 ], [ 139.7001202, 35.2577007, 0.0 ], [ 139.7000988, 35.2575868, 0.0 ], [ 139.7000344, 35.2574641, 0.0 ], [ 139.6999861, 35.2573152, 0.0 ], [ 139.7000451, 35.2572013, 0.0 ], [ 139.7001578, 35.2571093, 0.0 ], [ 139.700308, 35.2570786, 0.0 ], [ 139.7005226, 35.2571838, 0.0 ], [ 139.700646, 35.2572758, 0.0 ], [ 139.7008498, 35.2573546, 0.0 ], [ 139.7009946, 35.2574685, 0.0 ], [ 139.7011019, 35.2575605, 0.0 ], [ 139.701177, 35.2576875, 0.0 ], [ 139.7011824, 35.2578058, 0.0 ], [ 139.7013755, 35.257889, 0.0 ], [ 139.7015257, 35.2579328, 0.0 ], [ 139.7017135, 35.2580686, 0.0 ], [ 139.7017242, 35.2582044, 0.0 ], [ 139.7016759, 35.2583446, 0.0 ], [ 139.7017618, 35.2584409, 0.0 ], [ 139.7018851, 35.2584803, 0.0 ], [ 139.7020943, 35.2585154, 0.0 ], [ 139.7022446, 35.2585723, 0.0 ], [ 139.7023197, 35.258695, 0.0 ], [ 139.7023679, 35.2589009, 0.0 ], [ 139.7024162, 35.2590805, 0.0 ], [ 139.702486, 35.2591987, 0.0 ], [ 139.7025396, 35.259352, 0.0 ], [ 139.7025664, 35.2595054, 0.0 ], [ 139.7025396, 35.259628, 0.0 ], [ 139.7023787, 35.2596937, 0.0 ], [ 139.7021802, 35.2597025, 0.0 ], [ 139.7018583, 35.2596937, 0.0 ], [ 139.7014935, 35.2596893, 0.0 ], [ 139.7012092, 35.2596718, 0.0 ] ] ] } },
{ "type": "Feature", "properties": { "Name": "Takao Yato (高尾谷戸)" }, "geometry": { "type": "Polygon", "coordinates": [ [ [ 139.7118902, 35.2595473, 0.0 ], [ 139.7117239, 35.2595035, 0.0 ], [ 139.711681, 35.2594509, 0.0 ], [ 139.7116702, 35.2593064, 0.0 ], [ 139.7116166, 35.259175, 0.0 ], [ 139.71152, 35.2591224, 0.0 ], [ 139.7113162, 35.2590786, 0.0 ], [ 139.7111445, 35.2590348, 0.0 ], [ 139.7110265, 35.2590085, 0.0 ], [ 139.7108817, 35.2590436, 0.0 ], [ 139.7107529, 35.2590392, 0.0 ], [ 139.7105544, 35.2590436, 0.0 ], [ 139.7103774, 35.2590698, 0.0 ], [ 139.7102004, 35.2591575, 0.0 ], [ 139.7100287, 35.2591969, 0.0 ], [ 139.7097712, 35.2592319, 0.0 ], [ 139.7096049, 35.2592188, 0.0 ], [ 139.7094118, 35.2592013, 0.0 ], [ 139.7093045, 35.2592582, 0.0 ], [ 139.7091114, 35.2592626, 0.0 ], [ 139.7089773, 35.2591399, 0.0 ], [ 139.7088915, 35.2590479, 0.0 ], [ 139.7087359, 35.258956, 0.0 ], [ 139.7085535, 35.2588333, 0.0 ], [ 139.7085803, 35.2587545, 0.0 ], [ 139.7086232, 35.2586231, 0.0 ], [ 139.7085267, 35.2585705, 0.0 ], [ 139.7082986, 35.2585223, 0.0 ], [ 139.7082102, 35.2584303, 0.0 ], [ 139.7082638, 35.2581993, 0.0 ], [ 139.7083671, 35.2581254, 0.0 ], [ 139.7084409, 35.2580777, 0.0 ], [ 139.7085441, 35.2580219, 0.0 ], [ 139.7087258, 35.2580279, 0.0 ], [ 139.7088637, 35.2580647, 0.0 ], [ 139.7089501, 35.2580579, 0.0 ], [ 139.7089909, 35.2579941, 0.0 ], [ 139.7090078, 35.2579559, 0.0 ], [ 139.7090175, 35.2578861, 0.0 ], [ 139.7089424, 35.257781, 0.0 ], [ 139.7088432, 35.2577131, 0.0 ], [ 139.7088043, 35.2576824, 0.0 ], [ 139.7087801, 35.2576506, 0.0 ], [ 139.7087466, 35.2576199, 0.0 ], [ 139.7087251, 35.2575981, 0.0 ], [ 139.7087104, 35.2575718, 0.0 ], [ 139.708701, 35.2575456, 0.0 ], [ 139.7086916, 35.257493, 0.0 ], [ 139.7088056, 35.2574316, 0.0 ], [ 139.7089666, 35.2574272, 0.0 ], [ 139.7092187, 35.2574973, 0.0 ], [ 139.7093528, 35.2575192, 0.0 ], [ 139.7094547, 35.2574929, 0.0 ], [ 139.7095781, 35.2575061, 0.0 ], [ 139.709739, 35.2575104, 0.0 ], [ 139.7098839, 35.2574447, 0.0 ], [ 139.7100502, 35.2573746, 0.0 ], [ 139.7102165, 35.2574009, 0.0 ], [ 139.7105008, 35.2574272, 0.0 ], [ 139.7107797, 35.2574316, 0.0 ], [ 139.7109675, 35.2574185, 0.0 ], [ 139.711284, 35.257344, 0.0 ], [ 139.7114396, 35.2573265, 0.0 ], [ 139.7116166, 35.2573746, 0.0 ], [ 139.71174, 35.2574404, 0.0 ], [ 139.7119116, 35.2575718, 0.0 ], [ 139.7119599, 35.2576681, 0.0 ], [ 139.7120243, 35.257874, 0.0 ], [ 139.7121208, 35.2579397, 0.0 ], [ 139.7122281, 35.2579485, 0.0 ], [ 139.7123086, 35.2578696, 0.0 ], [ 139.7125017, 35.2578433, 0.0 ], [ 139.7126412, 35.2578915, 0.0 ], [ 139.712727, 35.2579923, 0.0 ], [ 139.7128075, 35.2581281, 0.0 ], [ 139.7128128, 35.2582332, 0.0 ], [ 139.7126573, 35.2583164, 0.0 ], [ 139.7125178, 35.2584303, 0.0 ], [ 139.712491, 35.2585311, 0.0 ], [ 139.7124212, 35.2586406, 0.0 ], [ 139.7122871, 35.25868, 0.0 ], [ 139.7120618, 35.2587632, 0.0 ], [ 139.7120243, 35.2588903, 0.0 ], [ 139.711976, 35.259026, 0.0 ], [ 139.7118955, 35.2591575, 0.0 ], [ 139.7118955, 35.2592451, 0.0 ], [ 139.7120296, 35.2593502, 0.0 ], [ 139.7120135, 35.2594378, 0.0 ], [ 139.7118902, 35.2595473, 0.0 ] ] ] } },
{ "type": "Feature", "properties": { "Name": "Miyaga Yato (宮ヶ谷戸)" }, "geometry": { "type": "Polygon", "coordinates": [ [ [ 139.7127837, 35.2586976, 0.0 ], [ 139.7127676, 35.2585356, 0.0 ], [ 139.7128373, 35.2584304, 0.0 ], [ 139.7129124, 35.2582946, 0.0 ], [ 139.7130734, 35.2581939, 0.0 ], [ 139.7132718, 35.2580537, 0.0 ], [ 139.7133738, 35.2579617, 0.0 ], [ 139.7134596, 35.2578347, 0.0 ], [ 139.7134489, 35.2577296, 0.0 ], [ 139.7133523, 35.2576157, 0.0 ], [ 139.7132397, 35.2575237, 0.0 ], [ 139.7132021, 35.2573835, 0.0 ], [ 139.7132289, 35.2572565, 0.0 ], [ 139.7133577, 35.2571645, 0.0 ], [ 139.7136098, 35.2571119, 0.0 ], [ 139.7138137, 35.257147, 0.0 ], [ 139.7140336, 35.2572477, 0.0 ], [ 139.714157, 35.2573528, 0.0 ], [ 139.714216, 35.2575281, 0.0 ], [ 139.7143233, 35.2577077, 0.0 ], [ 139.7143769, 35.2578435, 0.0 ], [ 139.7143769, 35.258045, 0.0 ], [ 139.7142965, 35.2581588, 0.0 ], [ 139.7141462, 35.2581851, 0.0 ], [ 139.7140711, 35.2582596, 0.0 ], [ 139.7140175, 35.2583954, 0.0 ], [ 139.71398, 35.2585399, 0.0 ], [ 139.7139102, 35.2586582, 0.0 ], [ 139.7138673, 35.258794, 0.0 ], [ 139.7138137, 35.2589035, 0.0 ], [ 139.7136903, 35.2590349, 0.0 ], [ 139.7135669, 35.2591269, 0.0 ], [ 139.7134381, 35.2591751, 0.0 ], [ 139.7132236, 35.2592627, 0.0 ], [ 139.7130358, 35.2592583, 0.0 ], [ 139.7128749, 35.2592014, 0.0 ], [ 139.7128373, 35.25907, 0.0 ], [ 139.7128266, 35.2590218, 0.0 ], [ 139.7127891, 35.2589473, 0.0 ], [ 139.7127944, 35.2588071, 0.0 ], [ 139.7127837, 35.2586976, 0.0 ] ] ] } },
{ "type": "Feature", "properties": { "Name": "Behind Oppama Substation (追浜変電所奥一帯)" }, "geometry": { "type": "Polygon", "coordinates": [ [ [ 139.6293758, 35.3118987, 0.0 ], [ 139.6284695, 35.3119906, 0.0 ], [ 139.6278365, 35.3111545, 0.0 ], [ 139.6281476, 35.3102046, 0.0 ], [ 139.628845, 35.3097756, 0.0 ], [ 139.6295155, 35.3096749, 0.0 ], [ 139.6298803, 35.3094035, 0.0 ], [ 139.6304328, 35.3096224, 0.0 ], [ 139.6308352, 35.3098281, 0.0 ], [ 139.6314145, 35.3100732, 0.0 ], [ 139.6320744, 35.3105241, 0.0 ], [ 139.6323533, 35.3110494, 0.0 ], [ 139.6322296, 35.3115047, 0.0 ], [ 139.6320902, 35.311903, 0.0 ], [ 139.6316288, 35.3124809, 0.0 ], [ 139.6313982, 35.3130762, 0.0 ], [ 139.6293758, 35.3118987, 0.0 ] ] ] } }
]
}
